{"version": 0.6, "generator": "Overpass API 0.7.62.8 e802775f", "osm3s": {"timestamp_osm_base": "2025-10-04T18:42:00Z", "copyright": "The data included in this document is from www.openstreetmap.org. The data is made available under ODbL."}, "elements": [{"type": "node", "id": 2612918421, "lat": 14.4198402, "lon": 74.9562085}, {"type": "node", "id": 2612918423, "lat": 14.4200563, "lon": 74.955442}, {"type": "node", "id": 2612918425, "lat": 14.4206931, "lon": 74.9563669}, {"type": "node", "id": 2612918427, "lat": 14.4209009, "lon": 74.955459}, {"type": "node", "id": 5961077080, "lat": 14.6981695, "lon": 74.931305}, {"type": "node", "id": 5961078283, "lat": 14.6985666, "lon": 74.9297123}, {"type": "node", "id": 5961078284, "lat": 14.6979298, "lon": 74.9297194}, {"type": "node", "id": 5961078585, "lat": 14.697875, "lon": 74.9311705}, {"type": "node", "id": 5961078586, "lat": 14.6986008, "lon": 74.9312625}, {"type": "node", "id": 7205339719, "lat": 14.4853637, "lon": 74.9402702, "tags": {"addr:block": "Soraba", "addr:district": "Shimoga", "addr:full": "Nanikatta - Harishi Rd, Harishi", "addr:postcode": "581340", "addr:state": "Karnataka", "addr:subdistrict": "Sorab", "amenity": "hospital", "name": "Government Hospital, Harishi", "name:kn": "\u0cb8\u0cb0\u0ccd\u0c95\u0cbe\u0cb0\u0cbf \u0c86\u0cb8\u0ccd\u0caa\u0ca4\u0ccd\u0cb0\u0cc6", "source": "OpenGovernmentData"}}, {"type": "node", "id": 12539249601, "lat": 14.6687661, "lon": 75.106332, "tags": {"amenity": "school", "name": "\u0cb8\u0cb0\u0c95\u0cbe\u0cb0\u0cbf \u0caa\u0ccd\u0cb0\u0ccc\u0ca2 \u0cb6\u0cbe\u0cb2\u0cc6 \u0cb6\u0cbf\u0cb0\u0c97\u0ccb\u0ca1", "name:en": "Government high school Shirgod"}}, {"type": "node", "id": 12560641308, "lat": 14.3810013, "lon": 75.1671043}, {"type": "node", "id": 12560641309, "lat": 14.3810273, "lon": 75.1679894}, {"type": "node", "id": 12560641310, "lat": 14.3803518, "lon": 75.1680135}, {"type": "node", "id": 12560641311, "lat": 14.3802842, "lon": 75.1671365}, {"type": "way", "id": 255614932, "nodes": [2612918421, 2612918423, 2612918427, 2612918425, 2612918421], "tags": {"name": "Chandragutti", "name:kn": "\u0c9a\u0c82\u0ca6\u0ccd\u0cb0\u0c97\u0cc1\u0c9f\u0ccd\u0c9f\u0cbf", "operator": "KPTCL", "power": "substation", "substation": "distribution", "voltage": "110000"}}, {"type": "way", "id": 631246678, "nodes": [5961078283, 5961078284, 5961078585, 5961077080, 5961078586, 5961078283], "tags": {"amenity": "school", "name": "Suryanarayana High School grounds", "name:kn": "\u0cb8\u0cc2\u0cb0\u0ccd\u0caf\u0ca8\u0cbe\u0cb0\u0cbe\u0caf\u0ca3 \u0cae\u0cc8\u0ca6\u0cbe\u0ca8"}}, {"type": "way", "id": 1357118057, "nodes": [12560641308, 12560641309, 12560641310, 12560641311, 12560641308], "tags": {"name": "Mavali", "operator": "KPTCL", "power": "substation", "substation": "transmission", "voltage": "110000"}}]}