{"version": 0.6, "generator": "Overpass API 0.7.62.8 e802775f", "osm3s": {"timestamp_osm_base": "2025-10-04T18:44:01Z", "copyright": "The data included in this document is from www.openstreetmap.org. The data is made available under ODbL."}, "elements": [{"type": "node", "id": 2522853564, "lat": 14.6110435, "lon": 74.7175023, "tags": {"amenity": "hospital", "name": "Hegdekatta Hospital", "name:kn": "\u0cb9\u0cc6\u0c97\u0ccd\u0ca1\u0cc6\u0c95\u0c9f\u0ccd\u0c9f\u0cc6 \u0c86\u0cb8\u0ccd\u0caa\u0ca4\u0ccd\u0cb0\u0cc6"}}, {"type": "node", "id": 2522873318, "lat": 14.5446008, "lon": 74.7179256, "tags": {"amenity": "school", "name": "Sampakhanda", "name:kn": "\u0cb8\u0c82\u0caa\u0c96\u0c82\u0ca1 \u0cb6\u0cbe\u0cb2\u0cc6"}}, {"type": "node", "id": 2555229841, "lat": 14.6460579, "lon": 74.7221003}, {"type": "node", "id": 2555229842, "lat": 14.6459982, "lon": 74.7225294}, {"type": "node", "id": 2555229843, "lat": 14.6457049, "lon": 74.7225402}, {"type": "node", "id": 2555229844, "lat": 14.6459333, "lon": 74.7220949}, {"type": "node", "id": 2555229845, "lat": 14.6455492, "lon": 74.7222827}, {"type": "node", "id": 2555231983, "lat": 14.6304351, "lon": 74.7376356}, {"type": "node", "id": 2555231984, "lat": 14.6299186, "lon": 74.7376947}, {"type": "node", "id": 2555231985, "lat": 14.6299005, "lon": 74.7373621}, {"type": "node", "id": 2555231987, "lat": 14.6303962, "lon": 74.7373379}, {"type": "node", "id": 2612921610, "lat": 14.6236298, "lon": 74.828175}, {"type": "node", "id": 2612921615, "lat": 14.6238454, "lon": 74.8287941}, {"type": "node", "id": 2612921625, "lat": 14.6243756, "lon": 74.8281016}, {"type": "node", "id": 2612921627, "lat": 14.6244013, "lon": 74.8282328}, {"type": "node", "id": 2612921630, "lat": 14.6244316, "lon": 74.8282304}, {"type": "node", "id": 2612921631, "lat": 14.6244724, "lon": 74.8286857}, {"type": "node", "id": 2612921702, "lat": 14.6307065, "lon": 74.8636463}, {"type": "node", "id": 2612921705, "lat": 14.6308463, "lon": 74.8659696}, {"type": "node", "id": 2612921726, "lat": 14.6319477, "lon": 74.8659302}, {"type": "node", "id": 2612921727, "lat": 14.6319509, "lon": 74.8652779}, {"type": "node", "id": 2612921732, "lat": 14.6320894, "lon": 74.8635491}, {"type": "node", "id": 2612921733, "lat": 14.6321092, "lon": 74.8638557}, {"type": "node", "id": 2612921751, "lat": 14.6327898, "lon": 74.863808}, {"type": "node", "id": 2612921753, "lat": 14.6328541, "lon": 74.8652132}, {"type": "node", "id": 2710487860, "lat": 14.6060582, "lon": 74.8484043, "tags": {"amenity": "school", "name": "Sirsi Forestry College", "name:kn": "\u0c86\u0cb0\u0ca3\u0ccd\u0caf \u0c95\u0cbe\u0cb2\u0cc7\u0c9c\u0cc1"}}, {"type": "node", "id": 4486487929, "lat": 14.6606979, "lon": 74.4747135}, {"type": "node", "id": 4486487960, "lat": 14.662504, "lon": 74.4745955}, {"type": "node", "id": 4486488511, "lat": 14.6613934, "lon": 74.4744131}, {"type": "node", "id": 4486488540, "lat": 14.6609418, "lon": 74.4746706}, {"type": "node", "id": 4486488570, "lat": 14.66048, "lon": 74.4748208}, {"type": "node", "id": 4486488575, "lat": 14.6624054, "lon": 74.4752231}, {"type": "node", "id": 4486488777, "lat": 14.6621407, "lon": 74.4756684}, {"type": "node", "id": 4486488796, "lat": 14.6607135, "lon": 74.4755986}, {"type": "node", "id": 4486488865, "lat": 14.6620836, "lon": 74.4737318}, {"type": "node", "id": 4486488880, "lat": 14.6623171, "lon": 74.4747564}, {"type": "node", "id": 5267036039, "lat": 14.5592218, "lon": 74.7752669}, {"type": "node", "id": 5267036040, "lat": 14.5592551, "lon": 74.7752114}, {"type": "node", "id": 5267036041, "lat": 14.5593146, "lon": 74.7751755}, {"type": "node", "id": 5267036042, "lat": 14.559377, "lon": 74.7752069}, {"type": "node", "id": 5267036043, "lat": 14.5594596, "lon": 74.7753837}, {"type": "node", "id": 5267036044, "lat": 14.5594625, "lon": 74.7755411}, {"type": "node", "id": 5267036045, "lat": 14.5593958, "lon": 74.7757299}, {"type": "node", "id": 5267036046, "lat": 14.5593102, "lon": 74.7758647}, {"type": "node", "id": 5267036047, "lat": 14.5592522, "lon": 74.7759501}, {"type": "node", "id": 5267036048, "lat": 14.5592102, "lon": 74.7759202}, {"type": "node", "id": 5267036049, "lat": 14.5589781, "lon": 74.7761404}, {"type": "node", "id": 5267036050, "lat": 14.5589114, "lon": 74.7760985}, {"type": "node", "id": 5267036051, "lat": 14.558823, "lon": 74.7759906}, {"type": "node", "id": 5267036052, "lat": 14.5587896, "lon": 74.7759127}, {"type": "node", "id": 5267036053, "lat": 14.5588723, "lon": 74.7757973}, {"type": "node", "id": 5267036054, "lat": 14.5588766, "lon": 74.7757523}, {"type": "node", "id": 5267036055, "lat": 14.5588592, "lon": 74.7757359}, {"type": "node", "id": 5267036056, "lat": 14.5588781, "lon": 74.7756984}, {"type": "node", "id": 5267036057, "lat": 14.5588346, "lon": 74.7756609}, {"type": "node", "id": 5267036058, "lat": 14.5588142, "lon": 74.7757059}, {"type": "node", "id": 5267036059, "lat": 14.5587156, "lon": 74.775649}, {"type": "node", "id": 5267036060, "lat": 14.5588621, "lon": 74.7753822}, {"type": "node", "id": 5267036061, "lat": 14.5588998, "lon": 74.7753328}, {"type": "node", "id": 5267036062, "lat": 14.5589332, "lon": 74.7753298}, {"type": "node", "id": 5267036063, "lat": 14.5589651, "lon": 74.7753718}, {"type": "node", "id": 5267036064, "lat": 14.5590057, "lon": 74.7753283}, {"type": "node", "id": 5267036065, "lat": 14.5590318, "lon": 74.7753568}, {"type": "node", "id": 5267036066, "lat": 14.5590216, "lon": 74.7754077}, {"type": "node", "id": 5267036067, "lat": 14.5589636, "lon": 74.7754452}, {"type": "node", "id": 5267036068, "lat": 14.5589288, "lon": 74.7754662}, {"type": "node", "id": 5267036069, "lat": 14.5588984, "lon": 74.7755336}, {"type": "node", "id": 5267036070, "lat": 14.5589158, "lon": 74.7756085}, {"type": "node", "id": 5267036071, "lat": 14.5588868, "lon": 74.7756624}, {"type": "node", "id": 5267036072, "lat": 14.5589071, "lon": 74.7757014}, {"type": "node", "id": 5267036073, "lat": 14.5589825, "lon": 74.775631}, {"type": "node", "id": 5267036074, "lat": 14.5589767, "lon": 74.7755725}, {"type": "node", "id": 5267036075, "lat": 14.5590289, "lon": 74.7754766}, {"type": "node", "id": 5267036076, "lat": 14.5587432, "lon": 74.7754452, "tags": {"amenity": "school", "name": "Government High School, Goli", "name:kn": "\u0cb8\u0cb0\u0ccd\u0c95\u0cbe\u0cb0\u0cbf \u0caa\u0ccd\u0cb0\u0ccc\u0ca2 \u0cb6\u0cbe\u0cb2\u0cc6"}}, {"type": "node", "id": 5469408128, "lat": 14.5872716, "lon": 74.7255214, "tags": {"amenity": "school", "name": "School Number 1", "operator": "Kanalli"}}, {"type": "node", "id": 5765163401, "lat": 14.6151836, "lon": 74.8308803, "tags": {"addr:city": "Sirsi", "addr:postcode": "581401", "amenity": "school", "denomination": "public", "name": "Rayappa Hulekal High School", "religion": "all"}}, {"type": "node", "id": 6944231478, "lat": 14.621009, "lon": 74.8315421, "tags": {"addr:district": "Uttara Kannada", "addr:full": "Devikere Circle,Veera Savarkar Road", "addr:postcode": "581401", "addr:state": "Karnataka", "amenity": "hospital", "name": "Marikamba Hospital and Diagnostic Centre", "source": "OpenGovernmentData"}}, {"type": "node", "id": 6944279029, "lat": 14.6186894, "lon": 74.8333123, "tags": {"addr:district": "Uttara Kannada", "addr:full": "Devikere Road, Near Herohonda Show Room", "addr:postcode": "581401", "addr:state": "Karnataka", "amenity": "hospital", "name": "Mahalaxmi Memorial Hospital and Manorama Diagnostic Center", "source": "OpenGovernmentData"}}, {"type": "node", "id": 6944362755, "lat": 14.62267, "lon": 74.8318934, "tags": {"addr:district": "Uttara Kannada", "addr:full": "Opposite Lic Office Court Road Sirsi", "addr:postcode": "581401", "addr:state": "Karnataka", "amenity": "hospital", "name": "Rotary Charitable Hospital", "source": "OpenGovernmentData"}}, {"type": "node", "id": 7205338986, "lat": 14.798015, "lon": 74.8677205, "tags": {"addr:district": "Uttara Kannada", "addr:full": "Karnataka", "addr:postcode": "581347", "addr:state": "Karnataka", "addr:subdistrict": "Yellapur", "amenity": "hospital", "contact:phone": "08419-255642", "name": "Mavinakatta Government Hospital", "name:kn": "\u0cae\u0cbe\u0cb5\u0cbf\u0ca8\u0c95\u0c9f\u0ccd\u0c9f \u0cb8\u0cb0\u0ccd\u0c95\u0cbe\u0cb0\u0cbf \u0c85\u0cb8\u0ccd\u0caa\u0ca4\u0ccd\u0cb0\u0cc6", "source": "OpenGovernmentData"}}, {"type": "node", "id": 7205339623, "lat": 14.61532, "lon": 74.829886, "tags": {"addr:district": "Uttara Kannada", "addr:full": "Church Road, Opp:Laxmi Trade Links", "addr:state": "Karnataka", "addr:subdistrict": "Sirsi", "amenity": "hospital", "contact:phone": "08384-229936", "description": "Sub-District Hospital", "name": "Sirsi Government Hospital", "name:kn": "\u0cb6\u0cbf\u0cb0\u0cb8\u0cbf \u0cb8\u0cb0\u0ccd\u0c95\u0cbe\u0cb0\u0cbf \u0c86\u0cb8\u0ccd\u0caa\u0ca4\u0ccd\u0cb0\u0cc6", "source": "OpenGovernmentData"}}, {"type": "node", "id": 7205339682, "lat": 14.4829944, "lon": 74.4929837, "tags": {"addr:district": "Uttara Kannada", "addr:full": "Near Police Station, Katgal Village, Kumta Sirsi Road, Katgal Post", "addr:postcode": "581362", "addr:state": "Karnataka", "addr:subdistrict": "Kumta", "amenity": "hospital", "contact:phone": "08386-279844", "name": "Government Hospital Katgal", "name:kn": "\u0cb8\u0cb0\u0ccd\u0c95\u0cbe\u0cb0\u0cbf \u0c86\u0cb8\u0ccd\u0caa\u0ca4\u0ccd\u0cb0\u0cc6", "source": "OpenGovernmentData"}}, {"type": "node", "id": 7205339709, "lat": 14.6637262, "lon": 74.7141177, "tags": {"addr:district": "Uttara Kannada", "addr:full": "Near Laxmi Narasimha High School, Post: Salkani Taluk : Sirsi, Manadur Road", "addr:postcode": "581402", "addr:state": "Karnataka", "addr:subdistrict": "Sirsi", "amenity": "hospital", "contact:phone": "08283-260036", "name": "Salkani Government Hospital", "name:kn": "\u0cb8\u0cb0\u0ccd\u0c95\u0cbe\u0cb0\u0cbf \u0c85\u0cb8\u0ccd\u0caa\u0ca4\u0ccd\u0cb0\u0cc6", "source": "OpenGovernmentData"}}, {"type": "node", "id": 7205339724, "lat": 14.778103, "lon": 74.813137, "tags": {"addr:district": "Uttara Kannada", "addr:full": "Chavattti", "addr:postcode": "581347", "addr:state": "Karnataka", "addr:subdistrict": "Yellapur", "amenity": "hospital", "contact:phone": "08419-255577", "name": "Government Clinic", "source": "OpenGovernmentData"}}, {"type": "node", "id": 7205339777, "lat": 14.611, "lon": 74.7173, "tags": {"addr:district": "Uttara Kannada", "addr:full": "Beside Veteranary Hospital, Post: Shivalli ,Sirsi, Shigehalli Road", "addr:postcode": "581403", "addr:state": "Karnataka", "addr:subdistrict": "Sirsi", "amenity": "hospital", "contact:phone": "08283-244232", "name": "Hegdekatta Government Hospital", "source": "OpenGovernmentData"}}, {"type": "node", "id": 7370581639, "lat": 14.669185, "lon": 74.8365985}, {"type": "node", "id": 7370581640, "lat": 14.6690309, "lon": 74.8362892}, {"type": "node", "id": 7370581641, "lat": 14.6693219, "lon": 74.8362685}, {"type": "node", "id": 7370581642, "lat": 14.6693991, "lon": 74.8364919}, {"type": "node", "id": 7389310616, "lat": 14.6442024, "lon": 74.7775894}, {"type": "node", "id": 7389310617, "lat": 14.6445813, "lon": 74.7772729}, {"type": "node", "id": 7389310618, "lat": 14.6448252, "lon": 74.7764039}, {"type": "node", "id": 7389310619, "lat": 14.6445398, "lon": 74.7762537}, {"type": "node", "id": 7389310620, "lat": 14.6439481, "lon": 74.7771791}, {"type": "node", "id": 7566600654, "lat": 14.6236618, "lon": 74.8388494, "tags": {"addr:district": "Uttara Kannada", "addr:full": "Vinayak Colony Main Road, Vinayak Colony, Sirsi", "addr:postcode": "581402", "addr:state": "Karnataka", "amenity": "hospital", "name": "H.K.H Memorial Prashanti Hospital", "source": "Local Knowledge"}}, {"type": "node", "id": 7566600657, "lat": 14.6179658, "lon": 74.8306667, "tags": {"addr:district": "Uttara Kannada", "addr:full": "Nadig Lane, Devikere, Sirsi", "addr:postcode": "581401", "addr:state": "Karnataka", "amenity": "hospital", "name": "L.H.Pai Orthopaedic and Speciality Hospital", "source": "Local Knowledge"}}, {"type": "node", "id": 7566600668, "lat": 14.622014, "lon": 74.83507, "tags": {"addr:district": "Uttara Kannada", "addr:full": "Hosapete Road, Vinayak Colony, Sirsi", "addr:postcode": "581401", "addr:state": "Karnataka", "amenity": "hospital", "name": "Dr. Ullas Jannu Hospital", "source": "Local Knowledge"}}, {"type": "node", "id": 7566600669, "lat": 14.624274, "lon": 74.816291, "tags": {"addr:district": "Uttara Kannada", "addr:full": "Hulekal Road, Sirsi", "addr:postcode": "581401", "addr:state": "Karnataka", "amenity": "hospital", "name": "Samiksha Hospital", "source": "Local Knowledge"}}, {"type": "node", "id": 7566600670, "lat": 14.6150479, "lon": 74.833666, "tags": {"addr:district": "Uttara Kannada", "addr:full": "CP Bazar, Sirsi", "addr:postcode": "581401", "addr:state": "Karnataka", "amenity": "hospital", "name": "Rayakara Hospital Homeopathic", "source": "Local Knowledge"}}, {"type": "node", "id": 7566600683, "lat": 14.6076901, "lon": 74.8266182, "tags": {"addr:district": "Uttara Kannada", "addr:full": "Sirsi", "addr:postcode": "581401", "addr:state": "Karnataka", "amenity": "hospital", "name": "Dr. Y R Lokesh Hospital", "source": "Local Knowledge"}}, {"type": "node", "id": 7566600689, "lat": 14.6173344, "lon": 74.8329688, "tags": {"addr:district": "Uttara Kannada", "addr:full": "CP Bazar, Sirsi", "addr:postcode": "581401", "addr:state": "Karnataka", "amenity": "hospital", "name": "Dr. Asha Anand Hospital", "source": "Local Knowledge"}}, {"type": "node", "id": 7566600690, "lat": 14.6258053, "lon": 74.8330721, "tags": {"addr:district": "Uttara Kannada", "addr:full": "Koppal Colony, Sirsi", "addr:postcode": "581401", "addr:state": "Karnataka", "amenity": "hospital", "name": "Suraksha Orthopaedic Hospital", "source": "Local Knowledge"}}, {"type": "node", "id": 7566600706, "lat": 14.632267, "lon": 74.84847, "tags": {"addr:district": "Uttara Kannada", "addr:full": "Shanthi Nagar, Sirsi", "addr:postcode": "581402", "addr:state": "Karnataka", "amenity": "hospital", "name": "TSS Hospital", "source": "Local Knowledge"}}, {"type": "node", "id": 7566600707, "lat": 14.621031, "lon": 74.8333894, "tags": {"addr:district": "Uttara Kannada", "addr:full": "Devikere Road, Sirsi", "addr:postcode": "581401", "addr:state": "Karnataka", "amenity": "hospital", "name": "Vinayakbhat Hospital", "source": "Local Knowledge"}}, {"type": "node", "id": 7566600712, "lat": 14.6136182, "lon": 74.8323109, "tags": {"addr:district": "Uttara Kannada", "addr:full": "Rayerpeth - Agasebagil Road, Sirsi", "addr:postcode": "581401", "addr:state": "Karnataka", "amenity": "hospital", "name": "Nisarga Hospital", "source": "Local Knowledge"}}, {"type": "node", "id": 7566600713, "lat": 14.6118125, "lon": 74.8413302, "tags": {"addr:district": "Uttara Kannada", "addr:full": "Sirsi", "addr:postcode": "581402", "addr:state": "Karnataka", "amenity": "hospital", "name": "Tukadar Krishna Hospital", "source": "Local Knowledge"}}, {"type": "node", "id": 7566600726, "lat": 14.6236427, "lon": 74.8333095, "tags": {"addr:district": "Uttara Kannada", "addr:full": "Maratikoppa Main Road, Sirsi", "addr:postcode": "581402", "addr:state": "Karnataka", "amenity": "hospital", "name": "Shrigandha Hospital", "source": "Local Knowledge"}}, {"type": "node", "id": 7566600728, "lat": 14.6207294, "lon": 74.8314268, "tags": {"addr:district": "Uttara Kannada", "addr:full": "Court Road, Devikere, Sirsi", "addr:postcode": "581401", "addr:state": "Karnataka", "amenity": "hospital", "name": "Marikamba Hospital", "name:kn": "\u0cae\u0cbe\u0cb0\u0cbf\u0c95\u0cbe\u0c82\u0cac\u0cbe \u0c86\u0cb8\u0ccd\u0caa\u0ca4\u0ccd\u0cb0\u0cc6", "source": "Local Knowledge"}}, {"type": "node", "id": 7566600736, "lat": 14.6171083, "lon": 74.8339474, "tags": {"addr:district": "Uttara Kannada", "addr:full": "Nataraja Road, CP Bazar, Sirsi", "addr:postcode": "581401", "addr:state": "Karnataka", "amenity": "hospital", "name": "Dr. Ravi Bhat's Hospital", "source": "Local Knowledge"}}, {"type": "node", "id": 7566600738, "lat": 14.616479, "lon": 74.829631, "tags": {"addr:district": "Uttara Kannada", "addr:full": "Near Church, Sirsi", "addr:postcode": "581401", "addr:state": "Karnataka", "amenity": "hospital", "name": "Kaveri Hospital", "name:kn": "\u0c95\u0cbe\u0cb5\u0cc7\u0cb0\u0cbf \u0c86\u0cb8\u0ccd\u0caa\u0ca4\u0ccd\u0cb0\u0cc6", "source": "Local Knowledge"}}, {"type": "node", "id": 7566600739, "lat": 14.6182928, "lon": 74.8320906, "tags": {"addr:district": "Uttara Kannada", "addr:full": "Basti Lane, Devikere, Sirsi", "addr:postcode": "581401", "addr:state": "Karnataka", "amenity": "hospital", "name": "Koppal Hospital", "source": "Local Knowledge"}}, {"type": "node", "id": 7566600740, "lat": 14.6232015, "lon": 74.8358354, "tags": {"addr:district": "Uttara Kannada", "addr:full": "Ashwini Circle, Sirsi", "addr:postcode": "581402", "addr:state": "Karnataka", "amenity": "hospital", "name": "Sirsi Eye Hospital", "source": "Local Knowledge"}}, {"type": "node", "id": 7566600744, "lat": 14.6220096, "lon": 74.8330802, "tags": {"addr:district": "Uttara Kannada", "addr:full": "Bhagat Singh Road, Devikere, Sirsi", "addr:postcode": "581401", "addr:state": "Karnataka", "amenity": "hospital", "name": "Navachetana Children's Hospital", "source": "Local Knowledge"}}, {"type": "node", "id": 7566600745, "lat": 14.6283952, "lon": 74.8418279, "tags": {"addr:district": "Uttara Kannada", "addr:full": "Yellapur Road, Sirsi", "addr:postcode": "581401", "addr:state": "Karnataka", "amenity": "hospital", "check_date": "2024-04-29", "name": "Asha Prabhu Hospital", "source": "Local Knowledge"}}, {"type": "node", "id": 7887241890, "lat": 14.6693002, "lon": 74.8365473}, {"type": "node", "id": 7887241891, "lat": 14.6693548, "lon": 74.8365301}, {"type": "node", "id": 7887241892, "lat": 14.6691871, "lon": 74.8362303}, {"type": "node", "id": 7887241893, "lat": 14.6692795, "lon": 74.8361998}, {"type": "node", "id": 7887241894, "lat": 14.6694075, "lon": 74.8363781}, {"type": "node", "id": 7887241895, "lat": 14.6693902, "lon": 74.8363043}, {"type": "node", "id": 7887241896, "lat": 14.6693622, "lon": 74.8362537}, {"type": "node", "id": 11496159224, "lat": 14.8158988, "lon": 74.5178322, "tags": {"addr:street": "Malavalli", "amenity": "school", "name": "Malavalli High School"}}, {"type": "way", "id": 248784582, "nodes": [2555229844, 2555229845, 2555229843, 2555229842, 2555229841, 2555229844], "tags": {"amenity": "school", "name": "Higher Primary School, Kadabal", "name:kn": "\u0cb9\u0cbf\u0cb0\u0cbf\u0caf \u0caa\u0ccd\u0cb0\u0cbe\u0ca5\u0cae\u0cbf\u0c95 \u0cb6\u0cbe\u0cb2\u0cc6, \u0c95\u0ca1\u0cac\u0cbe\u0cb3"}}, {"type": "way", "id": 248784639, "nodes": [2555231987, 2555231985, 2555231984, 2555231983, 2555231987], "tags": {"amenity": "school", "name": "Higher Primary School, Shigehalli", "name:kn": "\u0cb9\u0cbf\u0cb0\u0cbf\u0caf \u0caa\u0ccd\u0cb0\u0cbe\u0ca5\u0cae\u0cbf\u0c95 \u0cb6\u0cbe\u0cb2\u0cc6, \u0cb6\u0cc0\u0c97\u0cc6\u0cb9\u0cb3\u0ccd\u0cb3\u0cbf"}}, {"type": "way", "id": 255614811, "nodes": [2612921610, 2612921625, 2612921627, 2612921630, 2612921631, 2612921615, 2612921610], "tags": {"name": "Sirasi", "name:kn": "\u0cb6\u0cbf\u0cb0\u0cb8\u0cbf", "operator": "KPTCL", "power": "substation", "substation": "distribution", "voltage": "110000"}}, {"type": "way", "id": 255614812, "nodes": [2612921702, 2612921705, 2612921726, 2612921727, 2612921753, 2612921751, 2612921733, 2612921732, 2612921702], "tags": {"name": "Sirasi", "name:kn": "\u0cb6\u0cbf\u0cb0\u0cb8\u0cbf", "operator": "KPTCL", "power": "substation", "substation": "transmission", "voltage": "220000;110000"}}, {"type": "way", "id": 451836960, "nodes": [4486488865, 4486488511, 4486488540, 4486487929, 4486488570, 4486488796, 4486488777, 4486488575, 4486488880, 4486487960, 4486488865], "tags": {"amenity": "school", "name": "Hillur Government School", "name:kn": "\u0cb9\u0cbf\u0cb2\u0ccd\u0cb2\u0cc2\u0cb0\u0cc1 \u0cb8\u0cb0\u0ccd\u0c95\u0cbe\u0cb0\u0cbf \u0cb6\u0cbe\u0cb2\u0cc6"}}, {"type": "way", "id": 544913903, "nodes": [5267036039, 5267036040, 5267036041, 5267036042, 5267036043, 5267036044, 5267036045, 5267036046, 5267036047, 5267036048, 5267036049, 5267036050, 5267036051, 5267036052, 5267036053, 5267036054, 5267036055, 5267036056, 5267036057, 5267036058, 5267036059, 5267036060, 5267036061, 5267036062, 5267036063, 5267036064, 5267036065, 5267036066, 5267036067, 5267036068, 5267036069, 5267036070, 5267036071, 5267036072, 5267036073, 5267036074, 5267036075, 5267036039], "tags": {"amenity": "school"}}, {"type": "way", "id": 788336567, "nodes": [7370581642, 7887241894, 7887241895, 7887241896, 7370581641, 7887241893, 7887241892, 7370581640, 7370581639, 7887241890, 7887241891, 7370581642], "tags": {"amenity": "school"}}, {"type": "way", "id": 790383268, "nodes": [7389310620, 7389310619, 7389310618, 7389310617, 7389310616, 7389310620], "tags": {"amenity": "school", "name": "Kadakodu Primary School"}}]}