{"version": 0.6, "generator": "Overpass API 0.7.62.8 e802775f", "osm3s": {"timestamp_osm_base": "2025-10-04T18:39:00Z", "copyright": "The data included in this document is from www.openstreetmap.org. The data is made available under ODbL."}, "elements": [{"type": "node", "id": 2310496145, "lat": 12.7319136, "lon": 75.5580788}, {"type": "node", "id": 2310496147, "lat": 12.7310929, "lon": 75.5578034}, {"type": "node", "id": 2310496154, "lat": 12.7317387, "lon": 75.5579963}, {"type": "node", "id": 2310496166, "lat": 12.7312692, "lon": 75.5578866}, {"type": "node", "id": 2310496168, "lat": 12.7312358, "lon": 75.557961}, {"type": "node", "id": 2310496171, "lat": 12.7318388, "lon": 75.5582455}, {"type": "node", "id": 2310496173, "lat": 12.7314497, "lon": 75.5578588}, {"type": "node", "id": 2310496187, "lat": 12.7311348, "lon": 75.5577102}, {"type": "node", "id": 2977938660, "lat": 12.594729, "lon": 75.4415498, "tags": {"addr:housename": "GUPS Doddathota", "addr:postcode": "574248", "addr:street": "SH-85 Doddathota", "amenity": "school", "name": "GUPS Doddathota", "source": "http://www.schooleducation.kar.nic.in/SchoolSearch/SchSearchDisplay.asp"}}, {"type": "node", "id": 6087271292, "lat": 12.7149897, "lon": 75.4432909, "tags": {"internet_access": "no", "name": "Yedamangala", "name:kn": "\u0c8e\u0ca1\u0cae\u0c82\u0c97\u0cb2", "network": "IR", "operator": "SWR", "public_transport": "station", "railway": "station", "ref": "YDM", "train": "yes", "wikidata": "Q63355710"}}, {"type": "node", "id": 7202723977, "lat": 12.630406, "lon": 75.53068, "tags": {"addr:district": "Dakshina Kannada", "addr:full": "Guttigar", "addr:postcode": "574218", "addr:state": "Karnataka", "addr:subdistrict": "Sulya", "amenity": "hospital", "name": "Government Hospital, Guttigar", "name:kn": "\u0cb8\u0cb0\u0ccd\u0c95\u0cbe\u0cb0\u0cbf \u0c86\u0cb8\u0ccd\u0caa\u0ca4\u0ccd\u0cb0\u0cc6", "source": "OpenGovernmentData"}}, {"type": "node", "id": 7202977865, "lat": 12.4952708, "lon": 75.5702244}, {"type": "node", "id": 7202977866, "lat": 12.4953556, "lon": 75.5702731}, {"type": "node", "id": 7202977867, "lat": 12.4953382, "lon": 75.5703338}, {"type": "node", "id": 7202977868, "lat": 12.4952385, "lon": 75.5703332}, {"type": "node", "id": 7202977869, "lat": 12.4952256, "lon": 75.570378}, {"type": "node", "id": 7202977870, "lat": 12.4953985, "lon": 75.5704302}, {"type": "node", "id": 7202977871, "lat": 12.4954192, "lon": 75.5703582}, {"type": "node", "id": 7202977872, "lat": 12.4952685, "lon": 75.5702237}, {"type": "node", "id": 7202977873, "lat": 12.4952372, "lon": 75.5703328}, {"type": "node", "id": 7202977874, "lat": 12.4952815, "lon": 75.570187}, {"type": "node", "id": 7202977875, "lat": 12.4954395, "lon": 75.5702984}, {"type": "node", "id": 7202977876, "lat": 12.4954564, "lon": 75.5702397}, {"type": "node", "id": 7470773193, "lat": 12.3708101, "lon": 75.3831981, "tags": {"amenity": "hospital", "healthcare": "hospital", "name": "Primary Health Centre, Konnakkad", "operator": "Department of Helth Service", "operator:type": "government", "ref": "2089"}}, {"type": "node", "id": 7562741471, "lat": 12.7435404, "lon": 75.471006, "tags": {"addr:district": "Dakshina Kannada", "addr:full": "Kadaba-Subrahmanya Road, Kodimbala", "addr:postcode": "574221", "addr:state": "Karnataka", "amenity": "hospital", "name": "Shastri Hospital", "source": "Local Knowledge"}}, {"type": "node", "id": 8188036594, "lat": 12.6321821, "lon": 75.5353429, "tags": {"addr:full": "Guttigar, Karnataka", "addr:state": "Karnataka", "amenity": "hospital", "name": "Veterinary Hospital", "name:kn": "\u0caa\u0cb6\u0cc1\u0cb5\u0cc8\u0ca6\u0ccd\u0caf \u0c86\u0cb8\u0ccd\u0caa\u0ca4\u0ccd\u0cb0\u0cc6"}}, {"type": "way", "id": 222073597, "nodes": [2310496154, 2310496173, 2310496187, 2310496147, 2310496166, 2310496168, 2310496171, 2310496145, 2310496154], "tags": {"alt_name": "Nettana", "building": "train_station", "internet_access": "no", "name": "Subrahmanya Road", "name:kn": "\u0cb8\u0cc1\u0cac\u0ccd\u0cb0\u0cae\u0ca3\u0ccd\u0caf \u0cb0\u0cb8\u0ccd\u0ca4\u0cc6", "network": "IR", "operator": "SWR", "platforms": "3", "public_transport": "station", "railway": "station", "ref": "SBHR", "train": "yes", "wikidata": "Q63355517"}}, {"type": "way", "id": 771584232, "nodes": [7202977876, 7202977875, 7202977866, 7202977867, 7202977871, 7202977870, 7202977869, 7202977868, 7202977873, 7202977872, 7202977865, 7202977874, 7202977876], "tags": {"addr:district": "Kodagu", "addr:full": "Madikeri-Mangalore Road, Sampaje", "addr:postcode": "574234", "addr:state": "Karnataka", "addr:subdistrict": "Madikeri", "amenity": "hospital", "building": "hospital", "contact:phone": "08272-202193", "healthcare": "hospital", "name": "Sampaje Hospital", "name:kn": "\u0cb8\u0c82\u0caa\u0cbe\u0c9c\u0cc6 \u0c85\u0cb8\u0ccd\u0caa\u0ca4\u0ccd\u0cb0\u0cc6", "source": "OpenGovernmentData"}}]}