{"version": 0.6, "generator": "Overpass API 0.7.62.8 e802775f", "osm3s": {"timestamp_osm_base": "2025-10-04T18:40:00Z", "copyright": "The data included in this document is from www.openstreetmap.org. The data is made available under ODbL."}, "elements": [{"type": "node", "id": 925525258, "lat": 12.8067779, "lon": 75.1128591, "tags": {"amenity": "school", "name": "Babanakatte Primary School", "name:kn": "\u0cac\u0cbe\u0cac\u0ca8\u0c95\u0c9f\u0ccd\u0c9f\u0cc6 \u0caa\u0ccd\u0cb0\u0cbe\u0ca5\u0cae\u0cbf\u0c95 \u0cb6\u0cbe\u0cb2\u0cc6"}}, {"type": "node", "id": 925526708, "lat": 12.8190076, "lon": 75.1100589, "tags": {"amenity": "school", "name": "Bantrtinja School"}}, {"type": "node", "id": 1719092084, "lat": 13.0030191, "lon": 75.3411705, "tags": {"amenity": "school", "name": "Anugraha Pre-University College"}}, {"type": "node", "id": 1719092085, "lat": 13.002371, "lon": 75.3400762, "tags": {"amenity": "school", "name": "Anugraha English Medium School"}}, {"type": "node", "id": 1719092087, "lat": 12.9970082, "lon": 75.3317506, "tags": {"amenity": "hospital", "emergency": "no", "name": "Primary Health Centre", "name:kn": "\u0caa\u0ccd\u0cb0\u0cbe\u0ca5\u0cae\u0cbf\u0c95 \u0c86\u0cb0\u0ccb\u0c97\u0ccd\u0caf \u0c95\u0cc7\u0c82\u0ca6\u0ccd\u0cb0"}}, {"type": "node", "id": 1719092095, "lat": 12.9970082, "lon": 75.3317828, "tags": {"amenity": "hospital", "emergency": "no", "name": "Primary Health Centre", "name:kn": "\u0caa\u0ccd\u0cb0\u0cbe\u0ca5\u0cae\u0cbf\u0c95 \u0c86\u0cb0\u0ccb\u0c97\u0ccd\u0caf \u0c95\u0cc7\u0c82\u0ca6\u0ccd\u0cb0"}}, {"type": "node", "id": 1719438177, "lat": 12.9902652, "lon": 75.3326518, "tags": {"amenity": "university", "name": "SDM Degree College"}}, {"type": "node", "id": 1719438188, "lat": 12.9915198, "lon": 75.331418, "tags": {"amenity": "school", "name": "SDM PU College"}}, {"type": "node", "id": 1719438199, "lat": 12.9901503, "lon": 75.3410847, "tags": {"amenity": "university", "name": "SDM Institute of Technology"}}, {"type": "node", "id": 1719438205, "lat": 12.9891675, "lon": 75.3370077, "tags": {"amenity": "school", "name": "SDM Naturopathy College"}}, {"type": "node", "id": 1719438218, "lat": 12.9911434, "lon": 75.3317828, "tags": {"amenity": "school", "name": "Auditorium"}}, {"type": "node", "id": 1984385300, "lat": 12.8167572, "lon": 75.1272562, "tags": {"internet_access": "no", "name": "Neralakatte", "name:kn": "\u0ca8\u0cc7\u0cb0\u0cb3\u0c95\u0c9f\u0ccd\u0c9f\u0cc6", "network": "IR", "operator": "SWR", "public_transport": "station", "railway": "station", "ref": "NRF", "wikidata": "Q63369184"}}, {"type": "node", "id": 2093589590, "lat": 12.8548452, "lon": 75.3243214}, {"type": "node", "id": 2093589712, "lat": 12.8544561, "lon": 75.3241694}, {"type": "node", "id": 2093589930, "lat": 12.8547921, "lon": 75.3240887}, {"type": "node", "id": 2093590186, "lat": 12.8545092, "lon": 75.3244021}, {"type": "node", "id": 2095008558, "lat": 12.958289, "lon": 75.3597316}, {"type": "node", "id": 2095008581, "lat": 12.9580864, "lon": 75.3597001}, {"type": "node", "id": 2095008957, "lat": 12.9583366, "lon": 75.3594096}, {"type": "node", "id": 2095008986, "lat": 12.9581339, "lon": 75.3593781}, {"type": "node", "id": 2448264856, "lat": 12.9905841, "lon": 75.2788613}, {"type": "node", "id": 2448264859, "lat": 12.9904079, "lon": 75.2794841}, {"type": "node", "id": 2448264874, "lat": 12.9900164, "lon": 75.279397}, {"type": "node", "id": 2448264876, "lat": 12.9898794, "lon": 75.2794975}, {"type": "node", "id": 2448264879, "lat": 12.98939, "lon": 75.2793635}, {"type": "node", "id": 2448264881, "lat": 12.9893182, "lon": 75.2789082}, {"type": "node", "id": 2448264883, "lat": 12.989638, "lon": 75.2788144}, {"type": "node", "id": 2448264885, "lat": 12.989762, "lon": 75.2787274}, {"type": "node", "id": 2448264887, "lat": 12.9898794, "lon": 75.2785198}, {"type": "node", "id": 2448264889, "lat": 12.9899969, "lon": 75.2785332}, {"type": "node", "id": 2448264891, "lat": 12.9899838, "lon": 75.2788948}, {"type": "node", "id": 2448264893, "lat": 12.9903884, "lon": 75.2788412}, {"type": "node", "id": 2905066994, "lat": 12.8539448, "lon": 75.3240179}, {"type": "node", "id": 2905066995, "lat": 12.8541434, "lon": 75.3239198}, {"type": "node", "id": 2905066996, "lat": 12.8541798, "lon": 75.3244031}, {"type": "node", "id": 2905066997, "lat": 12.8543845, "lon": 75.3243186}, {"type": "node", "id": 2905067099, "lat": 12.9586569, "lon": 75.359124}, {"type": "node", "id": 2905067100, "lat": 12.9587036, "lon": 75.3586098}, {"type": "node", "id": 2905067101, "lat": 12.9588545, "lon": 75.3591429}, {"type": "node", "id": 2905067102, "lat": 12.9589011, "lon": 75.3586287}, {"type": "node", "id": 2905067177, "lat": 12.9898354, "lon": 75.2444086}, {"type": "node", "id": 2905067179, "lat": 12.9904278, "lon": 75.2448848}, {"type": "node", "id": 2905067180, "lat": 12.9906846, "lon": 75.2435336}, {"type": "node", "id": 2905067182, "lat": 12.9911024, "lon": 75.2438692}, {"type": "node", "id": 2905067183, "lat": 12.991164, "lon": 75.2441767}, {"type": "node", "id": 2905310583, "lat": 12.8049856, "lon": 75.1348307}, {"type": "node", "id": 2905310584, "lat": 12.804989, "lon": 75.1343879}, {"type": "node", "id": 2905310589, "lat": 12.8051741, "lon": 75.1346954}, {"type": "node", "id": 2905310590, "lat": 12.805354, "lon": 75.1354264}, {"type": "node", "id": 2905310595, "lat": 12.8062518, "lon": 75.1336482}, {"type": "node", "id": 2905310596, "lat": 12.8063375, "lon": 75.1338063}, {"type": "node", "id": 2905310597, "lat": 12.8065311, "lon": 75.1336745}, {"type": "node", "id": 2905310599, "lat": 12.8067281, "lon": 75.1340013}, {"type": "node", "id": 2905310600, "lat": 12.8067658, "lon": 75.1345496}, {"type": "node", "id": 2905311302, "lat": 12.8068292, "lon": 75.1339434}, {"type": "node", "id": 2905311304, "lat": 12.8070108, "lon": 75.1342737}, {"type": "node", "id": 3888315510, "lat": 12.8792342, "lon": 75.0901832}, {"type": "node", "id": 3888315512, "lat": 12.8796043, "lon": 75.0905884}, {"type": "node", "id": 3888315513, "lat": 12.8797504, "lon": 75.0896525}, {"type": "node", "id": 3888315514, "lat": 12.8797742, "lon": 75.0904863}, {"type": "node", "id": 3888315515, "lat": 12.8799701, "lon": 75.0899112}, {"type": "node", "id": 3888315516, "lat": 12.8800091, "lon": 75.09006}, {"type": "node", "id": 3888315518, "lat": 12.8800394, "lon": 75.0901754}, {"type": "node", "id": 3888315524, "lat": 12.880571, "lon": 75.2424804}, {"type": "node", "id": 3888315525, "lat": 12.8806159, "lon": 75.2422391}, {"type": "node", "id": 3888315526, "lat": 12.8807056, "lon": 75.2418771}, {"type": "node", "id": 3888315529, "lat": 12.8811531, "lon": 75.2425625}, {"type": "node", "id": 3888315531, "lat": 12.8813035, "lon": 75.2419641}, {"type": "node", "id": 6938544863, "lat": 12.8307703, "lon": 75.4132301, "tags": {"addr:district": "Dakshina Kannada", "addr:full": "Hosamajalu,Nellyady,Puttur Tq", "addr:postcode": "574229", "addr:state": "Karnataka", "amenity": "hospital", "name": "Ashwini Hospital, Nellyady", "source": "OpenGovernmentData"}}, {"type": "node", "id": 6939094297, "lat": 12.9913453, "lon": 75.2885087, "tags": {"addr:district": "Dakshina Kannada", "addr:full": "Laila Villege", "addr:postcode": "574214", "addr:state": "Karnataka", "amenity": "hospital", "name": "Jyothi Hospital", "name:kn": "\u0c9c\u0ccd\u0caf\u0ccb\u0ca4\u0cbf \u0c86\u0cb8\u0ccd\u0caa\u0ca4\u0ccd\u0cb0\u0cc6", "source": "OpenGovernmentData"}}, {"type": "node", "id": 6939094298, "lat": 12.9919497, "lon": 75.2848287, "tags": {"addr:district": "Dakshina Kannada", "addr:full": "Main Road ,Belthangady", "addr:postcode": "574214", "addr:state": "Karnataka", "amenity": "hospital", "name": "Sri Damodar Hospital, Dakshina Kannada", "name:kn": "\u0ca6\u0cbe\u0cae\u0ccb\u0ca6\u0cb0 \u0c86\u0cb8\u0ccd\u0caa\u0ca4\u0ccd\u0cb0\u0cc6", "source": "OpenGovernmentData"}}, {"type": "node", "id": 6939094304, "lat": 13.0370219, "lon": 75.4112017}, {"type": "node", "id": 6939094305, "lat": 13.0371461, "lon": 75.4114055}, {"type": "node", "id": 6939094306, "lat": 13.037237, "lon": 75.4113472}, {"type": "node", "id": 6939094307, "lat": 13.0371129, "lon": 75.4111433}, {"type": "node", "id": 6944308052, "lat": 12.9881084, "lon": 75.256471, "tags": {"addr:district": "Dakshina Kannada", "addr:full": "Guruvayanakere, Belthangady", "addr:postcode": "574214", "addr:state": "Karnataka", "amenity": "hospital", "name": "Abhaya Hospital, Belthangady", "name:kn": "\u0c85\u0cad\u0caf \u0c86\u0cb8\u0ccd\u0caa\u0ca4\u0ccd\u0cb0\u0cc6", "source": "OpenGovernmentData"}}, {"type": "node", "id": 6948574726, "lat": 12.8447745, "lon": 75.0709292, "tags": {"addr:district": "Dakshina Kannada", "addr:full": "Main Road, Bantwala Taluk", "addr:postcode": "574222", "addr:state": "Karnataka", "amenity": "hospital", "name": "Pushparaj Hospital", "source": "OpenGovernmentData"}}, {"type": "node", "id": 7202724046, "lat": 12.8937532, "lon": 75.0414049, "tags": {"addr:block": "BANTWAL", "addr:district": "Dakshina Kannada", "addr:full": "Bantwal", "addr:postcode": "574211", "addr:state": "Karnataka", "addr:subdistrict": "Bantval", "amenity": "hospital", "description": "Sub-District Hospital", "name": "Bantwal Taluka Hospital", "name:kn": "\u0cac\u0c82\u0c9f\u0ccd\u0cb5\u0cbe\u0cb3 \u0ca4\u0cbe\u0cb2\u0cc2\u0c95\u0cc1 \u0c86\u0cb8\u0ccd\u0caa\u0ca4\u0ccd\u0cb0\u0cc6", "source": "OpenGovernmentData"}}, {"type": "node", "id": 7202934807, "lat": 13.0080351, "lon": 75.4454205}, {"type": "node", "id": 7202934808, "lat": 13.0079854, "lon": 75.4454295}, {"type": "node", "id": 7202934809, "lat": 13.007959, "lon": 75.4454569}, {"type": "node", "id": 7202934810, "lat": 13.0080071, "lon": 75.4454507}, {"type": "node", "id": 7202934811, "lat": 13.0079824, "lon": 75.4454797}, {"type": "node", "id": 7202934812, "lat": 13.007926, "lon": 75.4454926}, {"type": "node", "id": 7202934813, "lat": 13.0078742, "lon": 75.4454421}, {"type": "node", "id": 7202934814, "lat": 13.0079578, "lon": 75.4453517}, {"type": "node", "id": 7202934815, "lat": 13.0080102, "lon": 75.4454028}, {"type": "node", "id": 7202934816, "lat": 13.0079588, "lon": 75.4456447}, {"type": "node", "id": 7202934817, "lat": 13.0078909, "lon": 75.4455785}, {"type": "node", "id": 7202934818, "lat": 13.0080135, "lon": 75.4453994}, {"type": "node", "id": 7202934819, "lat": 13.0080722, "lon": 75.4453359}, {"type": "node", "id": 7202934820, "lat": 13.0081629, "lon": 75.4454242}, {"type": "node", "id": 7202935752, "lat": 13.051492, "lon": 75.212296, "tags": {"addr:block": "BELTHANGADY", "addr:district": "Dakshina Kannada", "addr:full": "Alangade", "addr:postcode": "574109", "addr:state": "Karnataka", "addr:subdistrict": "Beltangadi", "amenity": "hospital", "description": "Government Hospital", "name": "Government Hospital, Alangade", "name:kn": "\u0cb8\u0cb0\u0ccd\u0c95\u0cbe\u0cb0\u0cbf \u0c86\u0cb8\u0ccd\u0caa\u0ca4\u0ccd\u0cb0\u0cc6", "source": "OpenGovernmentData"}}, {"type": "node", "id": 7202935770, "lat": 13.119975, "lon": 75.150406, "tags": {"addr:block": "BELTHANGADY", "addr:district": "Dakshina Kannada", "addr:full": "Beltangadi taluk, Naravi", "addr:state": "Karnataka", "addr:subdistrict": "Beltangadi", "amenity": "hospital", "contact:phone": "08258-277232", "name": "Government Hospital Naravi", "name:kn": "\u0cb8\u0cb0\u0ccd\u0c95\u0cbe\u0cb0\u0cbf \u0c86\u0cb8\u0ccd\u0caa\u0ca4\u0ccd\u0cb0\u0cc6", "source": "OpenGovernmentData"}}, {"type": "node", "id": 7202935830, "lat": 13.0857658, "lon": 75.0825032, "tags": {"addr:district": "Dakshina Kannada", "addr:full": "NEAR GRAMA PANCHYATH, SHIRTHADY, PERADY ROAD", "addr:postcode": "574236", "addr:state": "Karnataka", "addr:subdistrict": "Mangalore", "amenity": "hospital", "contact:phone": "8258263222", "name": "Shirthady Government Hospital", "name:kn": "\u0cb6\u0cbf\u0cb0\u0ccd\u0ca4\u0cbe\u0ca1\u0cbf \u0cb8\u0cb0\u0ccd\u0c95\u0cbe\u0cb0\u0cbf \u0c86\u0cb8\u0ccd\u0caa\u0ca4\u0ccd\u0cb0\u0cc6", "source": "OpenGovernmentData"}}, {"type": "node", "id": 7202935866, "lat": 12.9883877, "lon": 75.2758772, "tags": {"addr:block": "BELTHANGADY", "addr:district": "Dakshina Kannada", "addr:full": "Belthangady,old bagalkot, near old IB", "addr:postcode": "574214", "addr:state": "Karnataka", "addr:subdistrict": "Beltangadi", "amenity": "hospital", "name": "Taluk Hospital Belthangady", "name:kn": "\u0ca4\u0cbe\u0cb2\u0cc2\u0c95\u0cc1 \u0c86\u0cb8\u0ccd\u0caa\u0ca4\u0ccd\u0cb0\u0cc6 \u0cac\u0cc6\u0cb3\u0ccd\u0ca4\u0c82\u0c97\u0ca1\u0cbf", "source": "OpenGovernmentData"}}, {"type": "node", "id": 7202935883, "lat": 13.139389, "lon": 75.119303, "tags": {"addr:block": "Karkala", "addr:district": "Udupi", "addr:full": "Nallur, Bengady", "addr:postcode": "574107", "addr:state": "Karnataka", "addr:subdistrict": "Karkal", "amenity": "hospital", "contact:phone": "08258-277010", "name": "Government Hospital Hosmar", "name:kn": "\u0cb8\u0cb0\u0ccd\u0c95\u0cbe\u0cb0\u0cbf \u0c86\u0cb8\u0ccd\u0caa\u0ca4\u0ccd\u0cb0\u0cc6", "source": "OpenGovernmentData"}}, {"type": "node", "id": 7213565706, "lat": 12.8940214, "lon": 75.0415582, "tags": {"addr:district": "Dakshina Kannada", "addr:full": "Bantwal", "addr:postcode": "574211", "addr:state": "Karnataka", "amenity": "hospital", "name": "Taluk General Hospital", "name:kn": "\u0ca4\u0cbe\u0cb2\u0cc2\u0c95\u0cc1 \u0cb8\u0cbe\u0cb0\u0ccd\u0cb5\u0c9c\u0ca8\u0cbf\u0c95 \u0c86\u0cb8\u0ccd\u0caa\u0ca4\u0ccd\u0cb0\u0cc6", "source": "OpenGovernmentData"}}, {"type": "node", "id": 8188036026, "lat": 12.8908752, "lon": 75.0835468, "tags": {"addr:full": "Navoor, Navoor, Karnataka", "addr:state": "Karnataka", "amenity": "hospital", "name": "Government Hospital", "name:kn": "\u0cb8\u0cb0\u0ccd\u0c95\u0cbe\u0cb0\u0cbf \u0c86\u0cb8\u0ccd\u0caa\u0ca4\u0ccd\u0cb0\u0cc6"}}, {"type": "node", "id": 8188036099, "lat": 12.8635753, "lon": 75.0517889, "tags": {"addr:full": "R R Commercial Centre 1,2,3 floor Melkar panemangalore, Melkar, Bantwal, Karnataka", "addr:state": "Karnataka", "amenity": "hospital", "name": "R R Maternity & General Hospital"}}, {"type": "node", "id": 8188036128, "lat": 12.8349409, "lon": 75.122666, "tags": {"addr:full": "Mani, Karnataka", "addr:state": "Karnataka", "amenity": "hospital", "name": "Government hospital", "name:kn": "\u0cb8\u0cb0\u0ccd\u0c95\u0cbe\u0cb0\u0cbf \u0c86\u0cb8\u0ccd\u0caa\u0ca4\u0ccd\u0cb0\u0cc6"}}, {"type": "node", "id": 8188038418, "lat": 13.1287044, "lon": 75.0774111, "tags": {"addr:full": "Renjala, Karnataka", "addr:state": "Karnataka", "amenity": "hospital", "name": "Krishna Cancer And Neurology Hospital"}}, {"type": "node", "id": 8188038763, "lat": 12.9883367, "lon": 75.2751483, "tags": {"addr:full": "Belthangady, Belthangady, Karnataka", "addr:state": "Karnataka", "amenity": "hospital", "name": "Government Veterinary Hospital", "name:kn": "\u0cb8\u0cb0\u0ccd\u0c95\u0cbe\u0cb0\u0cbf \u0caa\u0cb6\u0cc1\u0cb5\u0cc8\u0ca6\u0ccd\u0caf \u0c86\u0cb8\u0ccd\u0caa\u0ca4\u0ccd\u0cb0\u0cc6"}}, {"type": "node", "id": 8188038779, "lat": 12.9855347, "lon": 75.2522813, "tags": {"addr:full": "Guruvayankere, Karnataka", "addr:state": "Karnataka", "amenity": "hospital", "name": "Abhaya Hospital", "name:kn": "\u0c85\u0cad\u0caf \u0c86\u0cb8\u0ccd\u0caa\u0ca4\u0ccd\u0cb0\u0cc6"}}, {"type": "node", "id": 8188038873, "lat": 12.9645651, "lon": 75.0978624, "tags": {"addr:full": "Vamadapadavu, Vamadapadavu, Karnataka", "addr:state": "Karnataka", "amenity": "hospital", "name": "Government Hospital", "name:kn": "\u0cb8\u0cb0\u0ccd\u0c95\u0cbe\u0cb0\u0cbf \u0c86\u0cb8\u0ccd\u0caa\u0ca4\u0ccd\u0cb0\u0cc6"}}, {"type": "node", "id": 9493190168, "lat": 12.9883088, "lon": 75.330626, "tags": {"amenity": "school", "grades": "1-10", "name": "SDM CBSE School"}}, {"type": "node", "id": 9493211248, "lat": 12.9950324, "lon": 75.3320419}, {"type": "node", "id": 9493211249, "lat": 12.9944439, "lon": 75.331651}, {"type": "node", "id": 9493211250, "lat": 12.9940866, "lon": 75.3322175}, {"type": "node", "id": 9493211251, "lat": 12.9942746, "lon": 75.3322784}, {"type": "node", "id": 9493211252, "lat": 12.9943119, "lon": 75.332549}, {"type": "node", "id": 9493211253, "lat": 12.994753, "lon": 75.332485}, {"type": "node", "id": 9493211254, "lat": 12.9950438, "lon": 75.3323347, "tags": {"amenity": "hospital", "healthcare": "hospital", "name": "SDM Hospital"}}, {"type": "node", "id": 11003157774, "lat": 12.8890411, "lon": 75.1071434}, {"type": "node", "id": 11003157775, "lat": 12.8890415, "lon": 75.1072016}, {"type": "node", "id": 11003157776, "lat": 12.889166, "lon": 75.1073572}, {"type": "node", "id": 11003157777, "lat": 12.889099, "lon": 75.1073577}, {"type": "node", "id": 11003157778, "lat": 12.8892467, "lon": 75.1077455}, {"type": "node", "id": 11003157779, "lat": 12.8892461, "lon": 75.1076521}, {"type": "node", "id": 11003157780, "lat": 12.8891017, "lon": 75.1077466}, {"type": "node", "id": 11003157781, "lat": 12.889101, "lon": 75.1076532}, {"type": "node", "id": 11003157782, "lat": 12.8891645, "lon": 75.1071425}, {"type": "node", "id": 11003157783, "lat": 12.8891019, "lon": 75.1077779}, {"type": "node", "id": 11003157784, "lat": 12.8889774, "lon": 75.1077788}, {"type": "node", "id": 11003157785, "lat": 12.8889735, "lon": 75.1072021}, {"type": "way", "id": 199356084, "nodes": [2093589930, 2093589712, 2093590186, 2093589590, 2093589930], "tags": {"building": "yes", "name": "Neerakatte Hydel Plant", "plant:source": "hydro", "power": "plant"}}, {"type": "way", "id": 199516683, "nodes": [2095008986, 2095008957, 2095008558, 2095008581, 2095008986], "tags": {"building": "industrial", "plant:method": "run-of-the-river", "plant:source": "hydro", "power": "plant"}}, {"type": "way", "id": 236863327, "nodes": [2448264856, 2448264859, 2448264874, 2448264876, 2448264879, 2448264881, 2448264883, 2448264885, 2448264887, 2448264889, 2448264891, 2448264893, 2448264856], "tags": {"amenity": "school", "name": "Government Model Primary School Belthangady", "name:kn": "\u0cb8\u0cb0\u0ccd\u0c95\u0cbe\u0cb0\u0cbf \u0cae\u0cbe\u0ca6\u0cb0\u0cbf \u0caa\u0ccd\u0cb0\u0cbe\u0ca5\u0cae\u0cbf\u0c95 \u0cb6\u0cbe\u0cb2\u0cc6 \u0cac\u0cc6\u0cb3\u0ccd\u0ca4\u0c82\u0c97\u0ca1\u0cbf"}}, {"type": "way", "id": 286829069, "nodes": [2905066995, 2905066997, 2905066996, 2905066994, 2905066995], "tags": {"power": "substation"}}, {"type": "way", "id": 286829074, "nodes": [2905067102, 2905067101, 2905067099, 2905067100, 2905067102], "tags": {"power": "substation"}}, {"type": "way", "id": 286829081, "nodes": [2905067180, 2905067182, 2905067183, 2905067179, 2905067177, 2905067180], "tags": {"name": "Guruvayanakere", "name:kn": "\u0c97\u0cc1\u0cb0\u0cc1\u0cb5\u0cbe\u0caf\u0ca8\u0c95\u0cc6\u0cb0\u0cc6", "operator": "KPTCL", "power": "substation", "substation": "distribution", "voltage": "110000"}}, {"type": "way", "id": 286852916, "nodes": [2905311304, 2905310600, 2905310590, 2905310583, 2905310589, 2905310584, 2905310595, 2905310596, 2905310597, 2905310599, 2905311302, 2905311304], "tags": {"name": "Puttur", "name:kn": "\u0caa\u0cc1\u0ca4\u0ccd\u0ca4\u0cc2\u0cb0\u0cc1", "operator": "KPTCL", "power": "substation", "substation": "transmission", "voltage": "220000;110000"}}, {"type": "way", "id": 385485128, "nodes": [3888315526, 3888315525, 3888315524, 3888315529, 3888315531, 3888315526], "tags": {"name": "Karaya", "name:kn": "\u0c95\u0cbe\u0cb0\u0caf", "operator": "KPTCL", "power": "substation", "substation": "distribution", "voltage": "110000"}}, {"type": "way", "id": 385485148, "nodes": [3888315513, 3888315515, 3888315516, 3888315518, 3888315514, 3888315512, 3888315510, 3888315513], "tags": {"power": "substation"}}, {"type": "way", "id": 741212149, "nodes": [6939094307, 6939094306, 6939094305, 6939094304, 6939094307], "tags": {"addr:district": "Dakshina Kannada", "addr:full": "Kakkinje, Belthangady Tq", "addr:postcode": "574228", "addr:state": "Karnataka", "amenity": "hospital", "building": "yes", "name": "Sri Krishna Hospital, Dakshina Kannada", "name:kn": "\u0cb6\u0ccd\u0cb0\u0cc0 \u0c95\u0cc3\u0cb7\u0ccd\u0ca3 \u0c86\u0cb8\u0ccd\u0caa\u0ca4\u0ccd\u0cb0\u0cc6", "source": "OpenGovernmentData"}}, {"type": "way", "id": 771581303, "nodes": [7202934815, 7202934808, 7202934810, 7202934807, 7202934818, 7202934819, 7202934820, 7202934816, 7202934817, 7202934811, 7202934809, 7202934812, 7202934813, 7202934814, 7202934815], "tags": {"addr:block": "BELTHANGADY", "addr:district": "Dakshina Kannada", "addr:full": "Neriya", "addr:postcode": "574228", "addr:state": "Karnataka", "addr:subdistrict": "Beltangadi", "amenity": "hospital", "building": "yes", "contact:phone": "08256-235206", "name": "Government Hospital Neriya", "name:kn": "\u0cb8\u0cb0\u0ccd\u0c95\u0cbe\u0cb0\u0cbf \u0c86\u0cb8\u0ccd\u0caa\u0ca4\u0ccd\u0cb0\u0cc6, \u0ca8\u0cc6\u0cb0\u0cbf\u0caf", "source": "OpenGovernmentData"}}, {"type": "way", "id": 1029706100, "nodes": [9493211248, 9493211249, 9493211250, 9493211251, 9493211252, 9493211253, 9493211248], "tags": {"amenity": "hospital", "healthcare": "hospital", "name": "SDM Hospital"}}, {"type": "way", "id": 1184638904, "nodes": [11003157785, 11003157775, 11003157774, 11003157782, 11003157776, 11003157777, 11003157781, 11003157779, 11003157778, 11003157780, 11003157783, 11003157784, 11003157785], "tags": {"addr:village": "Alipade", "alt_name": "St. Antony School", "amenity": "school", "building": "school", "name": "St. Anthony School"}}]}