{"version": 0.6, "generator": "Overpass API 0.7.62.8 e802775f", "osm3s": {"timestamp_osm_base": "2025-10-04T18:44:01Z", "copyright": "The data included in this document is from www.openstreetmap.org. The data is made available under ODbL."}, "elements": [{"type": "node", "id": 1716178626, "lat": 13.6133737, "lon": 74.7286856, "tags": {"internet_access": "no", "name": "Kundapura", "name:kn": "\u0c95\u0cc1\u0c82\u0ca6\u0cbe\u0caa\u0cc1\u0cb0", "network": "IR", "operator": "KR", "public_transport": "station", "railway": "station", "ref": "KUDA", "train": "yes", "wikidata": "Q25573848", "wikipedia": "en:Kundapura railway station"}}, {"type": "node", "id": 1716208909, "lat": 13.6119442, "lon": 74.7138003, "tags": {"amenity": "school", "name": "Government Model Higher Primary School, Koni", "name:kn": "\u0cb8\u0cb0\u0ccd\u0c95\u0cbe\u0cb0\u0cbf \u0cae\u0cbe\u0ca6\u0cb0\u0cbf \u0cb9\u0cbf\u0cb0\u0cbf\u0caf \u0caa\u0ccd\u0cb0\u0cbe\u0ca5\u0cae\u0cbf\u0c95 \u0cb6\u0cbe\u0cb2\u0cc6, \u0c95\u0ccb\u0ca3\u0cbf"}}, {"type": "node", "id": 1808715575, "lat": 13.5086681, "lon": 74.7058408}, {"type": "node", "id": 1808715576, "lat": 13.5066756, "lon": 74.707139}, {"type": "node", "id": 1808715577, "lat": 13.5065504, "lon": 74.7059266}, {"type": "node", "id": 1808715579, "lat": 13.5086681, "lon": 74.7069888}, {"type": "node", "id": 1990740689, "lat": 13.632216, "lon": 74.6863078}, {"type": "node", "id": 1990740695, "lat": 13.631854, "lon": 74.686397}, {"type": "node", "id": 1990740715, "lat": 13.6323464, "lon": 74.68674}, {"type": "node", "id": 1990740727, "lat": 13.6319243, "lon": 74.6868208}, {"type": "node", "id": 2473727712, "lat": 13.6335053, "lon": 74.6915115, "tags": {"amenity": "hospital", "name": "Vittala Netralaya", "name:kn": "\u0cb5\u0cbf\u0ca0\u0ccd\u0ca0\u0cb2 \u0ca8\u0cc7\u0ca4\u0ccd\u0cb0\u0cbe\u0cb2\u0caf"}}, {"type": "node", "id": 2622816748, "lat": 13.6158198, "lon": 74.6931698}, {"type": "node", "id": 2622816750, "lat": 13.6159783, "lon": 74.6943998}, {"type": "node", "id": 2622816755, "lat": 13.6165526, "lon": 74.6930494}, {"type": "node", "id": 2622816757, "lat": 13.6167254, "lon": 74.6943109}, {"type": "node", "id": 2806096352, "lat": 13.6343509, "lon": 74.6906749, "tags": {"amenity": "school", "name": "United Basel mission church Higher Primary School, Kundapur", "name:kn": "\u0caf\u0cc1\u0ca8\u0cc8\u0c9f\u0cc6\u0ca1\u0ccd \u0cac\u0cc6\u0cb8\u0cb2\u0ccd \u0cae\u0cbf\u0cb7\u0ca8\u0ccd \u0c9a\u0cb0\u0ccd\u0c9a\u0ccd \u0caa\u0ccd\u0cb0\u0ccc\u0ca1 \u0cb6\u0cbe\u0cb2\u0cc6"}}, {"type": "node", "id": 2806104609, "lat": 13.6320001, "lon": 74.6811159, "tags": {"amenity": "school", "name": "Government Lower Primary School, Maddugudde, Kundapur", "name:kn": "\u0cb8\u0cb0\u0ccd\u0c95\u0cbe\u0cb0\u0cbf \u0c95\u0cbf\u0cb0\u0cbf\u0caf \u0caa\u0ccd\u0cb0\u0cbe\u0ca5\u0cae\u0cbf\u0c95 \u0cb6\u0cbe\u0cb2\u0cc6"}}, {"type": "node", "id": 2806109224, "lat": 13.636199, "lon": 74.6897951, "tags": {"amenity": "school", "name": "Government Model Higher Primary School, Kundapur", "name:kn": "\u0cb8\u0cb0\u0ccd\u0c95\u0cbe\u0cb0\u0cbf \u0cae\u0cbe\u0ca6\u0cb0\u0cbf \u0cb9\u0cbf\u0cb0\u0cbf\u0caf \u0caa\u0ccd\u0cb0\u0cbe\u0ca5\u0cae\u0cbf\u0c95 \u0cb6\u0cbe\u0cb2\u0cc6"}}, {"type": "node", "id": 2806111720, "lat": 13.6345073, "lon": 74.7030828, "tags": {"amenity": "school", "name": "Government Higher Primary School, Chikansal, Kundapur", "name:kn": "\u0cb8\u0cb0\u0ccd\u0c95\u0cbe\u0cb0\u0cbf \u0cb9\u0cbf\u0cb0\u0cbf\u0caf \u0caa\u0ccd\u0cb0\u0cbe\u0ca5\u0cae\u0cbf\u0c95 \u0cb6\u0cbe\u0cb2\u0cc6"}}, {"type": "node", "id": 2806113894, "lat": 13.6295002, "lon": 74.6909726, "tags": {"amenity": "school", "name": "Bantwal Ragunatha Rao's Higher Primary School, Kundapura", "name:kn": "\u0cac\u0c82\u0c9f\u0ccd\u0cb5\u0cbe\u0cb3 \u0cb0\u0c98\u0cc1\u0ca8\u0cbe\u0ca5 \u0cb0\u0cbe\u0cb5\u0ccd \u0cb9\u0cbf\u0cb0\u0cbf\u0caf \u0caa\u0ccd\u0cb0\u0cbe\u0ca5\u0cae\u0cbf\u0c95 \u0cb6\u0cbe\u0cb2\u0cc6"}}, {"type": "node", "id": 2806119913, "lat": 13.6281942, "lon": 74.6894947, "tags": {"amenity": "school", "name": "Saint Mary's Aided Higher Primary School, Kundapura", "name:kn": "\u0cb8\u0cc6\u0c82\u0c9f\u0ccd \u0cae\u0cc7\u0cb0\u0cbf\u0cb8\u0ccd \u0c85\u0ca8\u0cc1\u0ca6\u0cbe\u0ca8\u0cbf\u0ca4 \u0cb9\u0cbf\u0cb0\u0cbf\u0caf \u0caa\u0ccd\u0cb0\u0cbe\u0ca5\u0cae\u0cbf\u0c95 \u0cb6\u0cbe\u0cb2\u0cc6"}}, {"type": "node", "id": 2806119965, "lat": 13.6133983, "lon": 74.6714012, "tags": {"amenity": "school", "name": "Government Higher Primary Urdu School, Kodi", "name:kn": "\u0cb8\u0cb0\u0ccd\u0c95\u0cbe\u0cb0\u0cbf \u0c89\u0cb0\u0ccd\u0ca6\u0cc1 \u0cb9\u0cbf\u0cb0\u0cbf\u0caf \u0caa\u0ccd\u0cb0\u0cbe\u0ca5\u0cae\u0cbf\u0c95 \u0cb6\u0cbe\u0cb2\u0cc6"}}, {"type": "node", "id": 2806123914, "lat": 13.617215, "lon": 74.6724366, "tags": {"amenity": "school", "name": "Soans Aided Higher Primary School, Kodi", "name:kn": "\u0cb8\u0ccb\u0ca8\u0ccd\u0cb8\u0ccd \u0c85\u0ca8\u0cc1\u0ca6\u0cbe\u0ca8\u0cbf\u0ca4 \u0cb9\u0cbf\u0cb0\u0cbf\u0caf \u0caa\u0ccd\u0cb0\u0cbe\u0ca5\u0cae\u0cbf\u0c95 \u0cb6\u0cbe\u0cb2\u0cc6"}}, {"type": "node", "id": 2806128494, "lat": 13.6194355, "lon": 74.6912654, "tags": {"amenity": "school", "name": "P.V.S.Sarojini Madhusudana Kushe Government High School, Voderahobali", "name:kn": "\u0caa\u0cbf\u0cb5\u0cbf\u0c8e\u0cb8\u0ccd \u0cb8\u0cb0\u0cca\u0c9c\u0cbf\u0ca8\u0cbf \u0cae\u0ca7\u0cc1\u0cb8\u0cc2\u0ca6\u0ca8 \u0c95\u0cc1\u0cb6\u0cc6 \u0cb8\u0cb0\u0ccd\u0c95\u0cbe\u0cb0\u0cbf \u0caa\u0ccd\u0cb0\u0ccc\u0ca1 \u0cb6\u0cbe\u0cb2\u0cc6"}}, {"type": "node", "id": 2806128495, "lat": 13.6203818, "lon": 74.691045, "tags": {"amenity": "school", "name": "Government Model Higher Primary School, Voderahoballi", "name:kn": "\u0cb8\u0cb0\u0ccd\u0c95\u0cbe\u0cb0\u0cbf \u0cae\u0cbe\u0ca6\u0cb0\u0cbf \u0cb9\u0cbf\u0cb0\u0cbf\u0caf \u0caa\u0ccd\u0cb0\u0cbe\u0ca5\u0cae\u0cbf\u0c95 \u0cb6\u0cbe\u0cb2\u0cc6"}}, {"type": "node", "id": 2806130401, "lat": 13.6216001, "lon": 74.689854, "tags": {"amenity": "school", "name": "Bhandarkar's College, Kundapur", "name:kn": "\u0cac\u0c82\u0ca1\u0cbe\u0cb0\u0ccd\u0c95\u0cb0\u0ccd\u0cb8\u0ccd \u0c95\u0cbe\u0cb2\u0cc7\u0c9c\u0cc1"}}, {"type": "node", "id": 2806137093, "lat": 13.6064275, "lon": 74.7069611, "tags": {"amenity": "school", "name": "Sri Raghavendra Acharya and Shrimathi Mahalakshamma Government Lower Primary School. Neramballi"}}, {"type": "node", "id": 2806147962, "lat": 13.6042014, "lon": 74.6936788, "tags": {"amenity": "school", "name": "Government Higher Primary School, Ankadakatte", "name:kn": "\u0cb8\u0cb0\u0ccd\u0c95\u0cbe\u0cb0\u0cbf \u0cb9\u0cbf\u0cb0\u0cbf\u0caf \u0caa\u0ccd\u0cb0\u0cbe\u0ca5\u0cae\u0cbf\u0c95 \u0cb6\u0cbe\u0cb2\u0cc6"}}, {"type": "node", "id": 2806148512, "lat": 13.6039481, "lon": 74.6826743, "tags": {"amenity": "school", "name": "Government Higher Primary School, Badakere", "name:kn": "\u0cb8\u0cb0\u0ccd\u0c95\u0cbe\u0cb0\u0cbf \u0cb9\u0cbf\u0cb0\u0cbf\u0caf \u0caa\u0ccd\u0cb0\u0cbe\u0ca5\u0cae\u0cbf\u0c95 \u0cb6\u0cbe\u0cb2\u0cc6"}}, {"type": "node", "id": 2806154155, "lat": 13.5753824, "lon": 74.6880462, "tags": {"amenity": "school", "name": "Government Higher Primary School, Beejadi Moodu", "name:kn": "\u0cb8\u0cb0\u0ccd\u0c95\u0cbe\u0cb0\u0cbf \u0cb9\u0cbf\u0cb0\u0cbf\u0caf \u0caa\u0ccd\u0cb0\u0cbe\u0ca5\u0cae\u0cbf\u0c95 \u0cb6\u0cbe\u0cb2\u0cc6"}}, {"type": "node", "id": 2806157255, "lat": 13.5771888, "lon": 74.680735, "tags": {"amenity": "school", "name": "Government Higher Primary School, Beejadi Padu", "name:kn": "\u0cb8\u0cb0\u0ccd\u0c95\u0cbe\u0cb0\u0cbf \u0cb9\u0cbf\u0cb0\u0cbf\u0caf \u0caa\u0ccd\u0cb0\u0cbe\u0ca5\u0cae\u0cbf\u0c95 \u0cb6\u0cbe\u0cb2\u0cc6"}}, {"type": "node", "id": 2806157444, "lat": 13.5802992, "lon": 74.6799813, "tags": {"amenity": "school", "name": "Seethalakshmi and Ramakrishna hatvar Government High School, Beejadi", "name:kn": "\u0cb8\u0cc0\u0ca4\u0cbe\u0cb2\u0c95\u0ccd\u0cb7\u0ccd\u0cae\u0cc0 \u0cae\u0ca4\u0ccd\u0ca4\u0cc1 \u0cb0\u0cbe\u0cae\u0c95\u0cc3\u0cb7\u0ccd\u0ca3 \u0cb9\u0c9f\u0ccd\u0cb5\u0cb0\u0ccd \u0cb8\u0cb0\u0ccd\u0c95\u0cbe\u0cb0\u0cbf \u0caa\u0ccd\u0cb0\u0ccc\u0ca2 \u0cb6\u0cbe\u0cb2\u0cc6"}}, {"type": "node", "id": 2806161809, "lat": 13.5852429, "lon": 74.6979757, "tags": {"amenity": "school", "name": "Government Junior College, Koteshwara", "name:kn": "\u0cb8\u0cb0\u0ccd\u0c95\u0cbe\u0cb0\u0cbf \u0c9c\u0cc2\u0ca8\u0cbf\u0caf\u0cb0\u0ccd \u0c95\u0cbe\u0cb2\u0cc7\u0c9c\u0cc1"}}, {"type": "node", "id": 2806161810, "lat": 13.5865047, "lon": 74.6974286, "tags": {"amenity": "school", "name": "Government High School, Koteshwara", "name:kn": "\u0cb8\u0cb0\u0ccd\u0c95\u0cbe\u0cb0\u0cbf \u0caa\u0ccd\u0cb0\u0ccc\u0ca1 \u0cb6\u0cbe\u0cb2\u0cc6"}}, {"type": "node", "id": 2806161811, "lat": 13.5861447, "lon": 74.6966883, "tags": {"amenity": "school", "name": "Government Model Higher Primary School, Koteshwara", "name:kn": "\u0cb8\u0cb0\u0ccd\u0c95\u0cbe\u0cb0\u0cbf \u0cae\u0cbe\u0ca6\u0cb0\u0cbf \u0cb9\u0cbf\u0cb0\u0cbf\u0caf \u0caa\u0ccd\u0cb0\u0cbe\u0ca5\u0cae\u0cbf\u0c95 \u0cb6\u0cbe\u0cb2\u0cc6"}}, {"type": "node", "id": 2806162954, "lat": 13.5946515, "lon": 74.7242803, "tags": {"amenity": "school", "name": "Government Higher Primary School, Melkatkera", "name:kn": "\u0cb8\u0cb0\u0ccd\u0c95\u0cbe\u0cb0\u0cbf \u0cb9\u0cbf\u0cb0\u0cbf\u0caf \u0caa\u0ccd\u0cb0\u0cbe\u0ca5\u0cae\u0cbf\u0c95 \u0cb6\u0cbe\u0cb2\u0cc6"}}, {"type": "node", "id": 2806164706, "lat": 13.5897999, "lon": 74.7065374, "tags": {"amenity": "school", "name": "Shri Kalavara Varadaraja M Shetty Government First Grade College Kundapura, Kageri, Koteshwara"}}, {"type": "node", "id": 6099620165, "lat": 13.4255989, "lon": 74.6958436, "tags": {"amenity": "school", "check_date": "2025-01-25", "name": "Padu Bengere Government School"}}, {"type": "node", "id": 6398553868, "lat": 13.5931533, "lon": 74.6888196, "tags": {"amenity": "school", "name": "H P School, Badakere"}}, {"type": "node", "id": 6398559590, "lat": 13.571215, "lon": 74.7009901, "tags": {"amenity": "school", "name": "M H P School, Kumbashi"}}, {"type": "node", "id": 6398559591, "lat": 13.5578934, "lon": 74.6871332, "tags": {"amenity": "school", "name": "H P School, Koravadi"}}, {"type": "node", "id": 6398561324, "lat": 13.6193354, "lon": 74.6707977, "tags": {"amenity": "school", "name": "Beary\u2019s High School"}}, {"type": "node", "id": 6398561326, "lat": 13.5752372, "lon": 74.7024972, "tags": {"amenity": "school", "name": "G H P School, Gopadi"}}, {"type": "node", "id": 6937796088, "lat": 13.5909312, "lon": 74.6974289, "tags": {"addr:district": "Udupi", "addr:full": "N.H-17, Kundapura Taluk", "addr:postcode": "576222", "addr:state": "Karnataka", "amenity": "hospital", "name": "Dr N Bhaskara Acharya Memorial Hospital", "source": "OpenGovernmentData"}}, {"type": "node", "id": 6938951905, "lat": 13.6238599, "lon": 74.6928256, "tags": {"addr:district": "Udupi", "addr:full": "Shasthri Circle , Kundarura,Mangalore", "addr:postcode": "576201", "addr:state": "Karnataka", "amenity": "hospital", "name": "Manish Hospital, Udupi", "source": "OpenGovernmentData"}}, {"type": "node", "id": 6938996766, "lat": 13.6288967, "lon": 74.6891342, "tags": {"addr:district": "Udupi", "addr:full": "Church Road Church Road Kundapura", "addr:postcode": "576201", "addr:state": "Karnataka", "amenity": "hospital", "name": "Chinmayi Hospital, Kundapura", "source": "OpenGovernmentData"}}, {"type": "node", "id": 6947636277, "lat": 13.6320247, "lon": 74.6899456, "tags": {"addr:district": "Udupi", "addr:full": "Kundapura Main Road,Kundapura Taluk", "addr:postcode": "576201", "addr:state": "Karnataka", "amenity": "hospital", "name": "Sri Manjunatha Hospital - Kundapur", "source": "OpenGovernmentData"}}, {"type": "node", "id": 6947707799, "lat": 13.6283897, "lon": 74.6888861, "tags": {"addr:district": "Udupi", "addr:full": "Church Road,Kundapur Tq", "addr:postcode": "576201", "addr:state": "Karnataka", "amenity": "hospital", "name": "Sri Matha Hospital", "source": "OpenGovernmentData"}}, {"type": "node", "id": 6947716889, "lat": 13.6281303, "lon": 74.6910338, "tags": {"addr:district": "Udupi", "addr:full": "Main Road Kundapur Kr Extension", "addr:postcode": "576201", "addr:state": "Karnataka", "amenity": "hospital", "name": "Vinaya Hospital", "source": "OpenGovernmentData"}}, {"type": "node", "id": 7202876237, "lat": 13.629259, "lon": 74.691012, "tags": {"addr:district": "Udupi", "addr:full": "Kundapura", "addr:postcode": "576201", "addr:state": "Karnataka", "amenity": "hospital", "name": "Kundapur Government Hospital", "name:kn": "\u0c95\u0cc1\u0c82\u0ca6\u0cbe\u0caa\u0cc1\u0cb0 \u0cb8\u0cb0\u0ccd\u0c95\u0cbe\u0cb0\u0cbf \u0c86\u0cb8\u0ccd\u0caa\u0ca4\u0ccd\u0cb0\u0cc6", "source": "OpenGovernmentData"}}, {"type": "node", "id": 11969077867, "lat": 13.5193, "lon": 74.7066579, "tags": {"addr:district": "Udupi", "addr:postcode": "576231", "addr:street": "Giliyar, Kota, Kundapura", "amenity": "school"}}, {"type": "node", "id": 12542983023, "lat": 13.4086293, "lon": 74.7003208, "tags": {"amenity": "school", "check_date": "2025-01-30", "grades": "1-6", "name": "Government Urdu Primary School Grounds", "operator:type": "public"}}, {"type": "node", "id": 12542993351, "lat": 13.4087973, "lon": 74.7002558}, {"type": "node", "id": 12543003575, "lat": 13.4087857, "lon": 74.7002399}, {"type": "node", "id": 12543003576, "lat": 13.4086448, "lon": 74.7002426}, {"type": "node", "id": 12543003577, "lat": 13.4085717, "lon": 74.7003137}, {"type": "node", "id": 12543003578, "lat": 13.4085378, "lon": 74.7004599}, {"type": "node", "id": 12543003579, "lat": 13.4086305, "lon": 74.7004277}, {"type": "node", "id": 12543003580, "lat": 13.4087596, "lon": 74.7003486}, {"type": "node", "id": 12543003581, "lat": 13.4088092, "lon": 74.7002721}, {"type": "way", "id": 169707541, "nodes": [1808715575, 1808715579, 1808715576, 1808715577, 1808715575], "tags": {"addr:district": "Udupi", "addr:street": "NH66, Kundapura", "amenity": "school", "name": "Viveka Pre-university College", "name:kn": "\u0cb5\u0cbf\u0cb5\u0cc7\u0c95 \u0caa\u0ca6\u0cb5\u0cbf \u0caa\u0cc2\u0cb0\u0ccd\u0cb5 \u0c95\u0cbe\u0cb2\u0cc7\u0c9c\u0cc1"}}, {"type": "way", "id": 188446780, "nodes": [1990740689, 1990740695, 1990740727, 1990740715, 1990740689], "tags": {"amenity": "school", "name": "Shri Venkataramana School", "name:kn": "\u0cb6\u0ccd\u0cb0\u0cc0 \u0cb5\u0cc6\u0c82\u0c95\u0c9f\u0cb0\u0cae\u0ca3 \u0cb6\u0cbe\u0cb2\u0cc6"}}, {"type": "way", "id": 256638718, "nodes": [2622816755, 2622816757, 2622816750, 2622816748, 2622816755], "tags": {"name": "Kundapura", "name:kn": "\u0c95\u0cc1\u0c82\u0ca6\u0cbe\u0caa\u0cc1\u0cb0", "operator": "KPTCL", "power": "substation", "substation": "distribution", "voltage": "110000"}}, {"type": "way", "id": 1355295069, "nodes": [12543003575, 12543003576, 12543003577, 12543003578, 12543003579, 12543003580, 12543003581, 12542993351, 12543003575], "tags": {"amenity": "school", "name": "Government Urdu Primary School Grounds"}}]}