{"version": 0.6, "generator": "Overpass API 0.7.62.8 e802775f", "osm3s": {"timestamp_osm_base": "2025-10-04T19:40:45Z", "copyright": "The data included in this document is from www.openstreetmap.org. The data is made available under ODbL."}, "elements": [{"type": "node", "id": 4516897335, "lat": 10.5024944, "lon": 76.0668592}, {"type": "node", "id": 4516897336, "lat": 10.5025983, "lon": 76.0677049}, {"type": "node", "id": 4516897337, "lat": 10.5020575, "lon": 76.0678706}, {"type": "node", "id": 4516897338, "lat": 10.5018576, "lon": 76.0672476}, {"type": "node", "id": 6884943503, "lat": 10.5079288, "lon": 76.0577882}, {"type": "node", "id": 6884943504, "lat": 10.5082923, "lon": 76.0585738}, {"type": "node", "id": 6884943505, "lat": 10.5087044, "lon": 76.0577}, {"type": "node", "id": 6950451344, "lat": 10.5250932, "lon": 76.0504411, "tags": {"addr:city": "Chettuva", "addr:district": "Thrissur", "addr:full": "NH 17, Near Chettuwa Bridge, Chettuwa", "addr:postcode": "680616", "addr:state": "Kerala", "addr:street": "E Tippusultan Road", "amenity": "hospital", "healthcare": "hospital", "name": "T M Hospital", "source": "OpenGovernmentData"}}, {"type": "node", "id": 6966301671, "lat": 10.5090559, "lon": 76.0572092}, {"type": "node", "id": 7076801854, "lat": 10.4839244, "lon": 76.0625808, "tags": {"amenity": "school", "name": "Kadappuram LP School"}}, {"type": "node", "id": 7076861245, "lat": 10.5031383, "lon": 76.0623681}, {"type": "node", "id": 7076861246, "lat": 10.5029334, "lon": 76.0624279}, {"type": "node", "id": 7076861247, "lat": 10.5030914, "lon": 76.0629881}, {"type": "node", "id": 7076861249, "lat": 10.5033559, "lon": 76.0629109}, {"type": "node", "id": 7079183841, "lat": 10.508876, "lon": 76.0638102}, {"type": "node", "id": 7079183842, "lat": 10.5091209, "lon": 76.064637}, {"type": "node", "id": 7079183844, "lat": 10.5082771, "lon": 76.0645309}, {"type": "node", "id": 7079183845, "lat": 10.5081011, "lon": 76.0645966}, {"type": "node", "id": 7079183846, "lat": 10.5080199, "lon": 76.0641584}, {"type": "node", "id": 7474223235, "lat": 10.5280769, "lon": 76.057239}, {"type": "node", "id": 7474223236, "lat": 10.5280325, "lon": 76.0572776}, {"type": "node", "id": 7474223237, "lat": 10.5279846, "lon": 76.0571967}, {"type": "node", "id": 7474223238, "lat": 10.5280752, "lon": 76.0571933}, {"type": "node", "id": 7571860879, "lat": 10.4823301, "lon": 76.0623045, "tags": {"amenity": "school", "name": "Muhammadiyya Madrasa", "religion": "muslim"}}, {"type": "node", "id": 7571860880, "lat": 10.4823512, "lon": 76.0623367, "tags": {"addr:city": "Vatanappally", "addr:housenumber": "Sahachari Center", "addr:postcode": "680619", "addr:street": "Thrithallur West", "amenity": "hospital", "healthcare": "hospital", "name": "Sahachari Center,Trithallur West"}}, {"type": "node", "id": 7831745132, "lat": 10.5070536, "lon": 76.0484251}, {"type": "node", "id": 7831745133, "lat": 10.5072401, "lon": 76.048709}, {"type": "node", "id": 7831745134, "lat": 10.5068915, "lon": 76.0489364}, {"type": "node", "id": 7831745135, "lat": 10.5067131, "lon": 76.0485957}, {"type": "node", "id": 7831745136, "lat": 10.5067622, "lon": 76.0485473}, {"type": "node", "id": 7831745137, "lat": 10.5066615, "lon": 76.0483463}, {"type": "node", "id": 7831745138, "lat": 10.5068579, "lon": 76.048192}, {"type": "node", "id": 7831806064, "lat": 10.5129784, "lon": 76.0489353}, {"type": "node", "id": 7831806065, "lat": 10.5125705, "lon": 76.0487145}, {"type": "node", "id": 7831806066, "lat": 10.5126463, "lon": 76.0492887}, {"type": "node", "id": 7831806067, "lat": 10.5130198, "lon": 76.0491719}, {"type": "node", "id": 7831813536, "lat": 10.5107948, "lon": 76.0567465}, {"type": "node", "id": 7831813537, "lat": 10.5104995, "lon": 76.0569256}, {"type": "node", "id": 7831813538, "lat": 10.5106693, "lon": 76.0572867}, {"type": "node", "id": 7831813539, "lat": 10.511101, "lon": 76.0570314}, {"type": "node", "id": 7831813540, "lat": 10.5110826, "lon": 76.0568851}, {"type": "node", "id": 7831813541, "lat": 10.5109953, "lon": 76.0569256}, {"type": "node", "id": 7831813542, "lat": 10.5109142, "lon": 76.0566438}, {"type": "node", "id": 7832739911, "lat": 10.484469, "lon": 76.0625987}, {"type": "node", "id": 7832739912, "lat": 10.4840884, "lon": 76.0626143}, {"type": "node", "id": 7832739913, "lat": 10.4841303, "lon": 76.0623476}, {"type": "node", "id": 7832739914, "lat": 10.4844479, "lon": 76.0622775}, {"type": "node", "id": 7832739916, "lat": 10.48423, "lon": 76.0626669}, {"type": "node", "id": 7832739917, "lat": 10.4841192, "lon": 76.0626406}, {"type": "node", "id": 7832817148, "lat": 10.5021687, "lon": 76.0670185}, {"type": "node", "id": 7832817149, "lat": 10.5019946, "lon": 76.0671083}, {"type": "node", "id": 7832817150, "lat": 10.5018847, "lon": 76.0671605}, {"type": "node", "id": 7832873173, "lat": 10.5083743, "lon": 76.0647891}, {"type": "node", "id": 7832873174, "lat": 10.5084608, "lon": 76.0649667}, {"type": "node", "id": 7832873175, "lat": 10.5084522, "lon": 76.0639734}, {"type": "node", "id": 7832873176, "lat": 10.5082277, "lon": 76.0640702}, {"type": "node", "id": 7832877967, "lat": 10.5101142, "lon": 76.0643235}, {"type": "node", "id": 7832877968, "lat": 10.510233, "lon": 76.0647496}, {"type": "node", "id": 7832877969, "lat": 10.5099239, "lon": 76.0648387}, {"type": "node", "id": 7832877970, "lat": 10.5098053, "lon": 76.0644125}, {"type": "node", "id": 7832882199, "lat": 10.5080651, "lon": 76.0644131}, {"type": "node", "id": 7832882201, "lat": 10.5081091, "lon": 76.0641157}, {"type": "node", "id": 7832882206, "lat": 10.5088655, "lon": 76.0648224}, {"type": "node", "id": 7832893826, "lat": 10.5161731, "lon": 76.0646413}, {"type": "node", "id": 7832893827, "lat": 10.5160729, "lon": 76.064314}, {"type": "node", "id": 7832893828, "lat": 10.5163559, "lon": 76.0641978}, {"type": "node", "id": 7832893829, "lat": 10.5164174, "lon": 76.0643176}, {"type": "node", "id": 7832893830, "lat": 10.5166108, "lon": 76.0642354}, {"type": "node", "id": 7832893831, "lat": 10.5167058, "lon": 76.0644267}, {"type": "node", "id": 7832893832, "lat": 10.516479, "lon": 76.0645679}, {"type": "node", "id": 7832893833, "lat": 10.5164491, "lon": 76.0647933}, {"type": "node", "id": 7832893834, "lat": 10.5164139, "lon": 76.0648684}, {"type": "node", "id": 7832893835, "lat": 10.5161678, "lon": 76.0648809}, {"type": "node", "id": 7835305867, "lat": 10.5364355, "lon": 76.0277074}, {"type": "node", "id": 7835305868, "lat": 10.5368944, "lon": 76.0274875}, {"type": "node", "id": 7835305869, "lat": 10.5370698, "lon": 76.028016}, {"type": "node", "id": 7835305870, "lat": 10.5366571, "lon": 76.0282143}, {"type": "node", "id": 8120826585, "lat": 10.5181731, "lon": 76.0520162, "tags": {"addr:city": "Engandiyoor", "addr:postcode": "680616", "addr:street": "Kundaliyoor P.O", "amenity": "hospital", "healthcare": "hospital", "name": "AYUSH PHC HOMOEOPATHY ENGANDIYUR"}}, {"type": "node", "id": 8148432487, "lat": 10.5085566, "lon": 76.0653451, "tags": {"addr:city": "engandiyur M", "amenity": "hospital", "healthcare": "hospital", "name": "Engandiyur Veterinary sub centre"}}, {"type": "node", "id": 8169707084, "lat": 10.5377374, "lon": 76.0280148, "tags": {"addr:city": "Anchangadi   Kadappuram Chavakkad", "addr:housenumber": "govt homoeo dispensary kadappuram", "addr:postcode": "680514", "addr:street": "anjangadi", "amenity": "hospital", "healthcare": "hospital", "healthcare:speciality": "general", "name": "homoeo dispensary", "operator": "medical officer", "operator:type": "government"}}, {"type": "node", "id": 8186950667, "lat": 10.537815, "lon": 76.0280644, "tags": {"addr:city": "Anchangadi   Kadappuram Chavakkad", "addr:housenumber": "Kadappuram PO", "addr:postcode": "680514", "addr:street": "ANJANGADI", "amenity": "hospital", "emergency": "no", "healthcare": "hospital", "healthcare:speciality": "general", "name": "Ayush Ayurveda PHC NHM Kadappuram", "operator": "Medical officer", "operator:type": "government"}}, {"type": "node", "id": 8898195519, "lat": 10.5372588, "lon": 76.027791, "tags": {"amenity": "school", "name": "GVHS School Kadappuram", "survey:date": "2021-07-06"}}, {"type": "node", "id": 8900775817, "lat": 10.5315046, "lon": 76.02969, "tags": {"amenity": "school", "name": "G.F.U.P.S . Kadappuram", "survey:date": "2021-07-07"}}, {"type": "node", "id": 9005028536, "lat": 10.5129944, "lon": 76.0487157}, {"type": "node", "id": 9005028537, "lat": 10.5129133, "lon": 76.0485664}, {"type": "node", "id": 9005028538, "lat": 10.512919, "lon": 76.0487532}, {"type": "node", "id": 9005880948, "lat": 10.5280312, "lon": 76.0572408}, {"type": "node", "id": 9005880949, "lat": 10.5279877, "lon": 76.0572793}, {"type": "node", "id": 9006183916, "lat": 10.5080363, "lon": 76.0642158}, {"type": "node", "id": 9006204281, "lat": 10.5262535, "lon": 76.0487829}, {"type": "node", "id": 9006204282, "lat": 10.5260588, "lon": 76.047978}, {"type": "node", "id": 9006204283, "lat": 10.5258187, "lon": 76.048054}, {"type": "node", "id": 9006204284, "lat": 10.5258527, "lon": 76.0482244}, {"type": "node", "id": 9006204285, "lat": 10.5254519, "lon": 76.0483257}, {"type": "node", "id": 9006204286, "lat": 10.5256591, "lon": 76.049141}, {"type": "node", "id": 9006212986, "lat": 10.5100451, "lon": 76.0624675}, {"type": "node", "id": 9006212987, "lat": 10.5096836, "lon": 76.062646}, {"type": "node", "id": 9006212988, "lat": 10.5098626, "lon": 76.0630208}, {"type": "node", "id": 9006212989, "lat": 10.510224, "lon": 76.0628422}, {"type": "node", "id": 9006250398, "lat": 10.4978522, "lon": 76.0581151}, {"type": "node", "id": 9006250399, "lat": 10.4978762, "lon": 76.0582811}, {"type": "node", "id": 9006250400, "lat": 10.4980063, "lon": 76.0582616}, {"type": "node", "id": 9006250401, "lat": 10.4980646, "lon": 76.0586641}, {"type": "node", "id": 9006250402, "lat": 10.4977969, "lon": 76.0587043}, {"type": "node", "id": 9006250403, "lat": 10.4977143, "lon": 76.0581358}, {"type": "node", "id": 9006494241, "lat": 10.5032834, "lon": 76.0626537}, {"type": "node", "id": 9006494242, "lat": 10.5032238, "lon": 76.0626711}, {"type": "node", "id": 9007473499, "lat": 10.5089469, "lon": 76.0582008}, {"type": "node", "id": 9007473500, "lat": 10.5091437, "lon": 76.0574654}, {"type": "way", "id": 455275416, "nodes": [4516897335, 4516897336, 4516897337, 4516897338, 7832817150, 7832817149, 7832817148, 4516897335], "tags": {"addr:city": "Engandiyoor", "addr:district": "THRISSUR", "addr:postcode": "680615", "addr:street": "E Tippusultan Rd,", "amenity": "school", "name": "National Higher Secondary School Engandiyoor", "name:ml": "\u0d0e\u0d28\u0d4d\u200d \u0d0e\u0d1a\u0d4d\u0d1a\u0d4d \u0d0e\u0d38\u0d4d \u0d0f\u0d19\u0d4d\u0d19\u0d23\u0d4d\u0d1f\u0d3f\u0d2f\u0d42\u0d30\u0d4d"}}, {"type": "way", "id": 735125289, "nodes": [6966301671, 9007473500, 6884943505, 9007473499, 6884943504, 6884943503, 6966301671], "tags": {"addr:district": "Thrissur", "addr:full": "Engandiyur", "addr:postcode": "680615", "addr:state": "Kerala", "amenity": "hospital", "healthcare": "hospital", "name": "Mary Immaculate Mission Hospital", "source": "OpenGovernmentData"}}, {"type": "way", "id": 757769368, "nodes": [7076861245, 7076861246, 7076861247, 7076861249, 9006494241, 9006494242, 7076861245], "tags": {"addr:city": "Engandiyoor", "addr:postcode": "680615", "addr:street": "Pokkulangara", "amenity": "hospital", "healthcare": "hospital", "name": "Wellcare Hospital"}}, {"type": "way", "id": 758034612, "nodes": [7079183841, 7079183842, 7832882206, 7832873174, 7832873173, 7079183844, 7079183845, 7832882199, 9006183916, 7079183846, 7832882201, 7832873176, 7832873175, 7079183841], "tags": {"addr:city": "THALIKULAM", "addr:district": "THRISSUR", "addr:postcode": "680615", "addr:street": "ENGANDIYOOR", "amenity": "school", "governance_type": "government_managed", "grades": "5-12", "name": "St. Thomas Higher Secondary School, Engandiyur"}}, {"type": "way", "id": 799188507, "nodes": [7474223235, 9005880948, 7474223236, 9005880949, 7474223237, 7474223238, 7474223235], "tags": {"addr:city": "Chavakkad", "addr:postcode": "680616", "addr:street": "Kizhkkumpuram,Chettuva", "amenity": "hospital", "email": "phcengandiyur@gmail.com", "healthcare": "hospital", "healthcare:speciality": "general", "hospital_type_id": "9", "name": "Primary Health Centre Engandiyur", "operator": "Department of Health Service", "phone": "+91-487-2292216", "ref": "2228"}}, {"type": "way", "id": 839267698, "nodes": [7831745132, 7831745133, 7831745134, 7831745135, 7831745136, 7831745137, 7831745138, 7831745132], "tags": {"addr:city": "Engandiyoor", "addr:postcode": "680615", "addr:street": "Azhimugham Rd", "amenity": "school", "name": "Saraswathy Vidyanikethan Central School"}}, {"type": "way", "id": 839270621, "nodes": [7831806064, 9005028538, 9005028536, 9005028537, 7831806065, 7831806066, 7831806067, 7831806064], "tags": {"amenity": "school", "name": "GF Upper Primary School Kottakadappuram"}}, {"type": "way", "id": 839271372, "nodes": [7831813536, 7831813537, 7831813538, 7831813539, 7831813540, 7831813541, 7831813542, 7831813536], "tags": {"amenity": "school", "name": "ST. Mary's Lower Primary School Engandiyoor"}}, {"type": "way", "id": 839365460, "nodes": [7832739912, 7832739913, 7832739914, 7832739911, 7832739916, 7832739917, 7832739912], "tags": {"addr:city": "THALIKULAM", "addr:district": "THRISSUR", "addr:postcode": "680619", "addr:street": "VATANAPPALLY", "amenity": "school", "governance_type": "government_managed", "name": "Kadappuram Lower Primary School Vatanappally", "wikidata": "Q64091608"}}, {"type": "way", "id": 839382782, "nodes": [7832877967, 7832877968, 7832877969, 7832877970, 7832877967], "tags": {"addr:city": "THALIKULAM", "addr:district": "THRISSUR", "addr:postcode": "680615", "addr:street": "ENGANDIYOOR", "amenity": "school", "governance_type": "government_managed", "name": "St Thomas Lower Primary School Engandiyoor"}}, {"type": "way", "id": 839384143, "nodes": [7832893826, 7832893827, 7832893828, 7832893829, 7832893830, 7832893831, 7832893832, 7832893833, 7832893834, 7832893835, 7832893826], "tags": {"addr:city": "THALIKULAM", "addr:district": "THRISSUR", "addr:postcode": "680616", "addr:street": "ENGANDIYOOR", "amenity": "school", "governance_type": "government_managed", "name": "SN Upper Primary School Kundazhiyur"}}, {"type": "way", "id": 839668975, "nodes": [7835305867, 7835305868, 7835305869, 7835305870, 7835305867], "tags": {"addr:city": "Thrissur", "addr:postcode": "680514", "addr:street": "Moonnamkallu -Anjgadi Road", "amenity": "school", "governance_type": "government", "name": "Government Vocational Higher Secondary School, Kadappuram"}}, {"type": "way", "id": 973047442, "nodes": [9006212986, 9006212987, 9006212988, 9006212989, 9006212986], "tags": {"addr:city": "Engandiyur", "addr:street": "Chandha road", "amenity": "school", "email": "frpcmschool@hotmail.com", "name": "Fr. Paul Chittilappilly Memorial Public School, Engandiyur", "phone": "+91 487 229 4483", "school:gender": "mixed", "website": "https://www.frpaulchittilappillypublicschool.com/"}}, {"type": "way", "id": 973047899, "nodes": [9006250398, 9006250399, 9006250400, 9006250401, 9006250402, 9006250403, 9006250398], "tags": {"addr:postcode": "680615", "addr:street": "Engandiyoor", "amenity": "school", "name": "Thirunarayana Lower Primary School Engandiyoor"}}, {"type": "way", "id": 973050389, "nodes": [9006204281, 9006204282, 9006204283, 9006204284, 9006204285, 9006204286, 9006204281], "tags": {"addr:city": "Chettuva", "addr:postcode": "680616", "addr:street": "Chettuwa kotta road", "amenity": "school", "name": "Government M Upper Primary School, Chettuva"}}]}