{"version": 0.6, "generator": "Overpass API 0.7.62.8 e802775f", "osm3s": {"timestamp_osm_base": "2025-10-04T18:44:01Z", "copyright": "The data included in this document is from www.openstreetmap.org. The data is made available under ODbL."}, "elements": [{"type": "node", "id": 571579127, "lat": 13.9893566, "lon": 74.5656301, "tags": {"internet_access": "no", "name": "Bhatkal", "name:kn": "\u0cad\u0c9f\u0ccd\u0c95\u0cb3", "network": "IR", "operator": "KR", "platforms": "2", "public_transport": "station", "railway": "station", "ref": "BTJL", "train": "yes", "wikidata": "Q25549324", "wikipedia": "en:Bhatkal railway station"}}, {"type": "node", "id": 2548066552, "lat": 13.8220069, "lon": 74.6426189, "tags": {"internet_access": "no", "name": "Bijoor", "name:kn": "\u0cac\u0cbf\u0c9c\u0cc2\u0cb0\u0cc1", "network": "IR", "operator": "KR", "public_transport": "station", "railway": "station", "ref": "BIJR", "train": "yes", "wikidata": "Q25549410", "wikipedia": "en:Bijoor railway station"}}, {"type": "node", "id": 2548066558, "lat": 13.717875, "lon": 74.6844721, "tags": {"internet_access": "no", "name": "Senapura", "name:kn": "\u0cb8\u0cc7\u0ca8\u0cbe\u0caa\u0cc1\u0cb0 \u0cb0\u0cc8\u0cb2\u0cc1 \u0ca8\u0cbf\u0cb2\u0ccd\u0ca6\u0cbe\u0ca3", "network": "IR", "operator": "KR", "public_transport": "station", "railway": "station", "ref": "SEN", "train": "yes", "wikidata": "Q25573844", "wikipedia": "en:Senapura railway station"}}, {"type": "node", "id": 2622818471, "lat": 13.7610883, "lon": 74.6395489}, {"type": "node", "id": 2622818472, "lat": 13.7611702, "lon": 74.6402107}, {"type": "node", "id": 2622818476, "lat": 13.7614954, "lon": 74.6396065}, {"type": "node", "id": 2622818484, "lat": 13.7624929, "lon": 74.6396301}, {"type": "node", "id": 2622818486, "lat": 13.7626997, "lon": 74.6396476}, {"type": "node", "id": 2622818488, "lat": 13.7630002, "lon": 74.6396327}, {"type": "node", "id": 2622818491, "lat": 13.7630721, "lon": 74.6397235}, {"type": "node", "id": 2622818492, "lat": 13.7631063, "lon": 74.6398569}, {"type": "node", "id": 2622818494, "lat": 13.7631261, "lon": 74.6400644}, {"type": "node", "id": 2790027192, "lat": 13.9002246, "lon": 74.6014168, "tags": {"amenity": "school", "name": "Government Model Higher Primary School, Shiroor", "name:kn": "\u0cb8\u0cb0\u0ccd\u0c95\u0cbe\u0cb0\u0cbf \u0cae\u0cbe\u0ca6\u0cb0\u0cbf \u0cb9\u0cbf\u0cb0\u0cbf\u0caf \u0caa\u0ccd\u0cb0\u0cbe\u0ca5\u0cae\u0cbf\u0c95 \u0cb6\u0cbe\u0cb2\u0cc6"}}, {"type": "node", "id": 2790042921, "lat": 13.9082775, "lon": 74.6066981, "tags": {"amenity": "school", "name": "Government Higher primary School, Shiroor Melpankthi", "name:kn": "\u0cb8\u0cb0\u0ccd\u0c95\u0cbe\u0cb0\u0cbf \u0cb9\u0cbf\u0cb0\u0cbf\u0caf \u0caa\u0ccd\u0cb0\u0cbe\u0ca5\u0cae\u0cbf\u0c95 \u0cb6\u0cbe\u0cb2\u0cc6"}}, {"type": "node", "id": 2790061738, "lat": 13.9159918, "lon": 74.5884484, "tags": {"amenity": "school", "name": "Government Higher Primary School, Shiroor Kalihitlu", "name:kn": "\u0cb8\u0cb0\u0ccd\u0c95\u0cbe\u0cb0\u0cbf \u0cb9\u0cbf\u0cb0\u0cbf\u0caf \u0caa\u0ccd\u0cb0\u0cbe\u0ca5\u0cae\u0cbf\u0c95 \u0cb6\u0cbe\u0cb2\u0cc6"}}, {"type": "node", "id": 2790193303, "lat": 13.9180098, "lon": 74.5942623}, {"type": "node", "id": 2790193304, "lat": 13.9168458, "lon": 74.5951779}, {"type": "node", "id": 2790193306, "lat": 13.917101, "lon": 74.5942713}, {"type": "node", "id": 2790193308, "lat": 13.917825, "lon": 74.5950589}, {"type": "node", "id": 2790197119, "lat": 13.9226177, "lon": 74.5904599}, {"type": "node", "id": 2790197126, "lat": 13.9234276, "lon": 74.5894451}, {"type": "node", "id": 2790197128, "lat": 13.923425, "lon": 74.5901344}, {"type": "node", "id": 2790197131, "lat": 13.9226046, "lon": 74.5894728}, {"type": "node", "id": 2790271605, "lat": 13.8883567, "lon": 74.6247494, "tags": {"amenity": "school", "name": "Government Lower Primary School Henaberu Paduvri", "name:kn": "\u0cb8\u0cb0\u0ccd\u0c95\u0cbe\u0cb0\u0cbf \u0c95\u0cbf\u0cb0\u0cbf\u0caf \u0caa\u0ccd\u0cb0\u0cbe\u0ca5\u0cae\u0cbf\u0c95 \u0cb6\u0cbe\u0cb2\u0cc6"}}, {"type": "node", "id": 2790273073, "lat": 13.8816778, "lon": 74.6029245, "tags": {"amenity": "school", "name": "Government Higher Primary School, Dombe, Paduvari", "name:kn": "\u0cb8\u0cb0\u0ccd\u0c95\u0cbe\u0cb0\u0cbf \u0cb9\u0cbf\u0cb0\u0cbf\u0caf \u0caa\u0ccd\u0cb0\u0cbe\u0ca5\u0cae\u0cbf\u0c95 \u0cb6\u0cbe\u0cb2\u0cc6"}}, {"type": "node", "id": 2790297012, "lat": 13.8627653, "lon": 74.6195942, "tags": {"amenity": "school", "name": "Holicross Higher Primary School, Paduvary", "name:kn": "\u0cb9\u0cca\u0cb2\u0cbf\u0c95\u0ccd\u0cb0\u0cbe\u0cb8\u0ccd \u0cb9\u0cbf\u0cb0\u0cbf\u0caf \u0caa\u0ccd\u0cb0\u0cbe\u0ca5\u0cae\u0cbf\u0c95 \u0cb6\u0cbe\u0cb2\u0cc6"}}, {"type": "node", "id": 2790731653, "lat": 13.8457155, "lon": 74.6135568, "tags": {"amenity": "school", "name": "Government Higher Primary School, Tharapathi", "name:kn": "\u0cb8\u0cb0\u0ccd\u0c95\u0cbe\u0cb0\u0cbf \u0cb9\u0cbf\u0cb0\u0cbf\u0caf \u0caa\u0ccd\u0cb0\u0cbe\u0ca5\u0cae\u0cbf\u0c95 \u0cb6\u0cbe\u0cb2\u0cc6"}}, {"type": "node", "id": 2790748964, "lat": 13.9279232, "lon": 74.6140876, "tags": {"amenity": "school", "name": "Government Higher Primary School, Alandur", "name:kn": "\u0cb8\u0cb0\u0ccd\u0c95\u0cbe\u0cb0\u0cbf \u0cb9\u0cbf\u0cb0\u0cbf\u0caf \u0caa\u0ccd\u0cb0\u0cbe\u0ca5\u0cae\u0cbf\u0c95 \u0cb6\u0cbe\u0cb2\u0cc6"}}, {"type": "node", "id": 2790759327, "lat": 13.8734495, "lon": 74.6252188, "tags": {"amenity": "school", "name": "Government Model Higher Primary School, Byndoor, Yedthare", "name:kn": "\u0cb8\u0cb0\u0ccd\u0c95\u0cbe\u0cb0\u0cbf \u0cae\u0cbe\u0ca6\u0cb0\u0cbf \u0cb9\u0cbf\u0cb0\u0cbf\u0caf \u0caa\u0ccd\u0cb0\u0cbe\u0ca5\u0cae\u0cbf\u0c95 \u0cb6\u0cbe\u0cb2\u0cc6"}}, {"type": "node", "id": 2790764501, "lat": 13.8635648, "lon": 74.627456, "tags": {"amenity": "school", "name": "Government Hindustani Higher primary School, Byndoor", "name:kn": "\u0cb8\u0cb0\u0ccd\u0c95\u0cbe\u0cb0\u0cbf \u0cb9\u0cbf\u0c82\u0ca6\u0cc1\u0cb8\u0ccd\u0ca5\u0cbe\u0ca8\u0cbf \u0cb9\u0cbf\u0cb0\u0cbf\u0caf \u0caa\u0ccd\u0cb0\u0cbe\u0ca5\u0cae\u0cbf\u0c95 \u0cb6\u0cbe\u0cb2\u0cc6"}}, {"type": "node", "id": 2790766757, "lat": 13.851674, "lon": 74.6299987, "tags": {"amenity": "school", "name": "Government Higher Primary School Yedthere, Byndoor", "name:kn": "\u0cb8\u0cb0\u0ccd\u0c95\u0cbe\u0cb0\u0cbf \u0cb9\u0cbf\u0cb0\u0cbf\u0caf \u0caa\u0ccd\u0cb0\u0cbe\u0ca5\u0cae\u0cbf\u0c95 \u0cb6\u0cbe\u0cb2\u0cc6"}}, {"type": "node", "id": 2792578325, "lat": 13.8689602, "lon": 74.6389294, "tags": {"amenity": "school", "name": "Government Higher Primary School, Bada, Byndoor", "name:kn": "\u0cb8\u0cb0\u0ccd\u0c95\u0cbe\u0cb0\u0cbf \u0cb9\u0cbf\u0cb0\u0cbf\u0caf \u0caa\u0ccd\u0cb0\u0cbe\u0ca5\u0cae\u0cbf\u0c95 \u0cb6\u0cbe\u0cb2\u0cc6"}}, {"type": "node", "id": 2792580551, "lat": 13.8559083, "lon": 74.6414185, "tags": {"amenity": "school", "name": "Sri Dharmastala Manjunatheshwara Aided Higher Primary School, Mayyadi, Byndoor", "name:kn": "\u0cb6\u0ccd\u0cb0\u0cc0 \u0ca7\u0cb0\u0ccd\u0cae\u0cb8\u0ccd\u0ca5\u0cb3 \u0cae\u0c82\u0c9c\u0cc1\u0ca8\u0cbe\u0ca5\u0cc7\u0cb6\u0ccd\u0cb5\u0cb0 \u0c85\u0ca8\u0cc1\u0ca6\u0cbe\u0ca8\u0cbf\u0ca4 \u0cb9\u0cbf\u0cb0\u0cbf\u0caf \u0caa\u0ccd\u0cb0\u0cbe\u0ca5\u0cae\u0cbf\u0c95 \u0cb6\u0cbe\u0cb2\u0cc6"}}, {"type": "node", "id": 2792600826, "lat": 13.9026682, "lon": 74.6802533, "tags": {"amenity": "school", "name": "Government Higher Primary School, Ganganadu, Byndoor", "name:kn": "\u0cb8\u0cb0\u0ccd\u0c95\u0cbe\u0cb0\u0cbf \u0cb9\u0cbf\u0cb0\u0cbf\u0caf \u0caa\u0ccd\u0cb0\u0cbe\u0ca5\u0cae\u0cbf\u0c95 \u0cb6\u0cbe\u0cb2\u0cc6"}}, {"type": "node", "id": 2792611527, "lat": 13.8532369, "lon": 74.6558491, "tags": {"amenity": "school", "name": "Government Higher Primary School, Taggarse", "name:kn": "\u0cb8\u0cb0\u0ccd\u0c95\u0cbe\u0cb0\u0cbf \u0cb9\u0cbf\u0cb0\u0cbf\u0caf \u0caa\u0ccd\u0cb0\u0cbe\u0ca5\u0cae\u0cbf\u0c95 \u0cb6\u0cbe\u0cb2\u0cc6"}}, {"type": "node", "id": 2792615368, "lat": 13.8484323, "lon": 74.6725056, "tags": {"amenity": "school", "name": "Government Higher Primary School, Maikala, Taggarse", "name:kn": "\u0cb8\u0cb0\u0ccd\u0c95\u0cbe\u0cb0\u0cbf \u0cb9\u0cbf\u0cb0\u0cbf\u0caf \u0caa\u0ccd\u0cb0\u0cbe\u0ca5\u0cae\u0cbf\u0c95 \u0cb6\u0cbe\u0cb2\u0cc6"}}, {"type": "node", "id": 2792787524, "lat": 13.8435519, "lon": 74.701916, "tags": {"amenity": "school", "name": "Government Higher Primary School, Yelajith", "name:kn": "\u0cb8\u0cb0\u0ccd\u0c95\u0cbe\u0cb0\u0cbf \u0cb9\u0cbf\u0cb0\u0cbf\u0caf \u0caa\u0ccd\u0cb0\u0cbe\u0ca5\u0cae\u0cbf\u0c95 \u0cb6\u0cbe\u0cb2\u0cc6"}}, {"type": "node", "id": 2792797172, "lat": 13.8269904, "lon": 74.7528995, "tags": {"amenity": "school", "name": "Government Higher Primary School, Areshiruru", "name:kn": "\u0cb8\u0cb0\u0ccd\u0c95\u0cbe\u0cb0\u0cbf \u0cb9\u0cbf\u0cb0\u0cbf\u0caf \u0caa\u0ccd\u0cb0\u0cbe\u0ca5\u0cae\u0cbf\u0c95 \u0cb6\u0cbe\u0cb2\u0cc6, \u0c85\u0cb0\u0cc6\u0cb6\u0cbf\u0cb0\u0cc2\u0cb0\u0cc1"}}, {"type": "node", "id": 2792875200, "lat": 13.7777607, "lon": 74.7405583, "tags": {"amenity": "school", "name": "Government Lower Primary School, Byateyane Kalthodu", "name:kn": "\u0cb8\u0cb0\u0ccd\u0c95\u0cbe\u0cb0\u0cbf \u0c95\u0cbf\u0cb0\u0cbf\u0caf \u0caa\u0ccd\u0cb0\u0cbe\u0ca5\u0cae\u0cbf\u0c95 \u0cb6\u0cbe\u0cb2\u0cc6"}}, {"type": "node", "id": 2792879540, "lat": 13.7918171, "lon": 74.6765984, "tags": {"amenity": "school", "name": "Government Higher Primary School, Mettinahole, Kalthodu", "name:kn": "\u0cb8\u0cb0\u0ccd\u0c95\u0cbe\u0cb0\u0cbf \u0cb9\u0cbf\u0cb0\u0cbf\u0caf \u0caa\u0ccd\u0cb0\u0cbe\u0ca5\u0cae\u0cbf\u0c95 \u0cb6\u0cbe\u0cb2\u0cc6, \u0cae\u0cc6\u0c9f\u0ccd\u0c9f\u0cbf\u0ca8\u0cb9\u0cca\u0cb3\u0cc6"}}, {"type": "node", "id": 2792880439, "lat": 13.8039764, "lon": 74.6769202, "tags": {"amenity": "school", "name": "Government Higher Primary School, Kalthodu", "name:kn": "\u0cb8\u0cb0\u0ccd\u0c95\u0cbe\u0cb0\u0cbf \u0cb9\u0cbf\u0cb0\u0cbf\u0caf \u0caa\u0ccd\u0cb0\u0cbe\u0ca5\u0cae\u0cbf\u0c95 \u0cb6\u0cbe\u0cb2\u0cc6"}}, {"type": "node", "id": 2792883664, "lat": 13.8261052, "lon": 74.6647323, "tags": {"amenity": "school", "name": "Government Higher Primary School, Bavaladi, Bijuru", "name:kn": "\u0cb8\u0cb0\u0ccd\u0c95\u0cbe\u0cb0\u0cbf \u0cb9\u0cbf\u0cb0\u0cbf\u0caf \u0caa\u0ccd\u0cb0\u0cbe\u0ca5\u0cae\u0cbf\u0c95 \u0cb6\u0cbe\u0cb2\u0cc6"}}, {"type": "node", "id": 2792896691, "lat": 13.8423643, "lon": 74.6395413, "tags": {"amenity": "school", "name": "Government High School, Bijuru", "name:kn": "\u0cb8\u0cb0\u0ccd\u0c95\u0cbe\u0cb0\u0cbf \u0caa\u0ccd\u0cb0\u0ccc\u0ca1 \u0cb6\u0cbe\u0cb2\u0cc6"}}, {"type": "node", "id": 2792897187, "lat": 13.8422055, "lon": 74.6391899, "tags": {"amenity": "school", "name": "Government Higher Primary School, Bijuru", "name:kn": "\u0cb8\u0cb0\u0ccd\u0c95\u0cbe\u0cb0\u0cbf \u0cb9\u0cbf\u0cb0\u0cbf\u0caf \u0caa\u0ccd\u0cb0\u0cbe\u0ca5\u0cae\u0cbf\u0c95 \u0cb6\u0cbe\u0cb2\u0cc6"}}, {"type": "node", "id": 2792899260, "lat": 13.8283136, "lon": 74.6402654, "tags": {"amenity": "school", "name": "Government Higher Primary School, Kanchikana, Bijur", "name:kn": "\u0cb8\u0cb0\u0ccd\u0c95\u0cbe\u0cb0\u0cbf \u0cb9\u0cbf\u0cb0\u0cbf\u0caf \u0caa\u0ccd\u0cb0\u0cbe\u0ca5\u0cae\u0cbf\u0c95 \u0cb6\u0cbe\u0cb2\u0cc6"}}, {"type": "node", "id": 2792899993, "lat": 13.8346738, "lon": 74.6294717, "tags": {"amenity": "school", "name": "Government Higher Primary School, Uppunda", "name:kn": "\u0cb8\u0cb0\u0ccd\u0c95\u0cbe\u0cb0\u0cbf \u0cb9\u0cbf\u0cb0\u0cbf\u0caf \u0caa\u0ccd\u0cb0\u0cbe\u0ca5\u0cae\u0cbf\u0c95 \u0cb6\u0cbe\u0cb2\u0cc6"}}, {"type": "node", "id": 2792907332, "lat": 13.8420439, "lon": 74.6317307, "tags": {"amenity": "school", "name": "Government Lower Primary School, Uppunda", "name:kn": "\u0cb8\u0cb0\u0ccd\u0c95\u0cbe\u0cb0\u0cbf \u0c95\u0cbf\u0cb0\u0cbf\u0caf \u0caa\u0ccd\u0cb0\u0cbe\u0ca5\u0cae\u0cbf\u0c95 \u0cb6\u0cbe\u0cb2\u0cc6"}}, {"type": "node", "id": 2792912595, "lat": 13.8363979, "lon": 74.6162817, "tags": {"amenity": "school", "name": "Government Lower Primary School, Ammanavaratoplu, Uppunda", "name:kn": "\u0cb8\u0cb0\u0ccd\u0c95\u0cbe\u0cb0\u0cbf \u0c95\u0cbf\u0cb0\u0cbf\u0caf \u0caa\u0ccd\u0cb0\u0cbe\u0ca5\u0cae\u0cbf\u0c95 \u0cb6\u0cbe\u0cb2\u0cc6"}}, {"type": "node", "id": 2792915372, "lat": 13.8273213, "lon": 74.6185695, "tags": {"amenity": "school", "name": "Government Higher Primary School Madikal, Uppunda", "name:kn": "\u0cb8\u0cb0\u0ccd\u0c95\u0cbe\u0cb0\u0cbf \u0cb9\u0cbf\u0cb0\u0cbf\u0caf \u0caa\u0ccd\u0cb0\u0cbe\u0ca5\u0cae\u0cbf\u0c95 \u0cb6\u0cbe\u0cb2\u0cc6"}}, {"type": "node", "id": 2792919335, "lat": 13.8138376, "lon": 74.6354053, "tags": {"amenity": "school", "name": "Government Higher primary School, Naikanakatte, Kergal", "name:kn": "\u0cb8\u0cb0\u0ccd\u0c95\u0cbe\u0cb0\u0cbf \u0cb9\u0cbf\u0cb0\u0cbf\u0caf \u0caa\u0ccd\u0cb0\u0cbe\u0ca5\u0cae\u0cbf\u0c95 \u0cb6\u0cbe\u0cb2\u0cc6"}}, {"type": "node", "id": 2794708276, "lat": 13.8212341, "lon": 74.648757, "tags": {"amenity": "school", "name": "Government Higher Primary School, Mogeri, Kergal", "name:kn": "\u0cb8\u0cb0\u0ccd\u0c95\u0cbe\u0cb0\u0cbf \u0cb9\u0cbf\u0cb0\u0cbf\u0caf \u0caa\u0ccd\u0cb0\u0cbe\u0ca5\u0cae\u0cbf\u0c95 \u0cb6\u0cbe\u0cb2\u0cc6"}}, {"type": "node", "id": 2794717262, "lat": 13.8013349, "lon": 74.6597222, "tags": {"amenity": "school", "name": "Government Higher Primary School, Heranjalu", "name:kn": "\u0cb8\u0cb0\u0ccd\u0c95\u0cbe\u0cb0\u0cbf \u0cb9\u0cbf\u0cb0\u0cbf\u0caf \u0caa\u0ccd\u0cb0\u0cbe\u0ca5\u0cae\u0cbf\u0c95 \u0cb6\u0cbe\u0cb2\u0cc6 \u0cb9\u0cc7\u0cb0\u0c82\u0c9c\u0cbe\u0cb2\u0cc1"}}, {"type": "node", "id": 2794723629, "lat": 13.8016369, "lon": 74.6744207, "tags": {"amenity": "school", "name": "Government Lower Primary School, Gude Devastana, Heranjalu", "name:kn": "\u0cb8\u0cb0\u0ccd\u0c95\u0cbe\u0cb0\u0cbf \u0c95\u0cbf\u0cb0\u0cbf\u0caf \u0caa\u0ccd\u0cb0\u0cbe\u0ca5\u0cae\u0cbf\u0c95 \u0cb6\u0cbe\u0cb2\u0cc6"}}, {"type": "node", "id": 2794733349, "lat": 13.8025305, "lon": 74.6392247, "tags": {"amenity": "school", "name": "Government Higher primary School, Kambadakone", "name:kn": "\u0cb8\u0cb0\u0ccd\u0c95\u0cbe\u0cb0\u0cbf \u0cb9\u0cbf\u0cb0\u0cbf\u0caf \u0caa\u0ccd\u0cb0\u0cbe\u0ca5\u0cae\u0cbf\u0c95 \u0cb6\u0cbe\u0cb2\u0cc6, \u0c95\u0c82\u0cac\u0ca6\u0c95\u0ccb\u0ca3\u0cc6"}}, {"type": "node", "id": 2794757565, "lat": 13.7896574, "lon": 74.6501574, "tags": {"amenity": "school", "name": "Government Higher primary School, Tenkabettu, Kambadakone", "name:kn": "\u0cb8\u0cb0\u0ccd\u0c95\u0cbe\u0cb0\u0cbf \u0cb9\u0cbf\u0cb0\u0cbf\u0caf \u0caa\u0ccd\u0cb0\u0cbe\u0ca5\u0cae\u0cbf\u0c95 \u0cb6\u0cbe\u0cb2\u0cc6"}}, {"type": "node", "id": 2794763205, "lat": 13.7887326, "lon": 74.6807909, "tags": {"amenity": "school", "name": "Government Higher Primary School, Erukone", "name:kn": "\u0cb8\u0cb0\u0ccd\u0c95\u0cbe\u0cb0\u0cbf \u0cb9\u0cbf\u0cb0\u0cbf\u0caf \u0caa\u0ccd\u0cb0\u0cbe\u0ca5\u0cae\u0cbf\u0c95 \u0cb6\u0cbe\u0cb2\u0cc6, \u0c95\u0c82\u0cac\u0ca1\u0c95\u0cca\u0ca8\u0cc6"}}, {"type": "node", "id": 2794791043, "lat": 13.7613509, "lon": 74.6811584, "tags": {"amenity": "school", "name": "Government Higher Primary School, Ragihaklu, Heruru", "name:kn": "\u0cb8\u0cb0\u0ccd\u0c95\u0cbe\u0cb0\u0cbf \u0cb9\u0cbf\u0cb0\u0cbf\u0caf \u0caa\u0ccd\u0cb0\u0cbe\u0ca5\u0cae\u0cbf\u0c95 \u0cb6\u0cbe\u0cb2\u0cc6"}}, {"type": "node", "id": 2794792766, "lat": 13.7827099, "lon": 74.6572382, "tags": {"amenity": "school", "name": "Government Higher Prymary School, 11-Ullur, Upralli", "name:kn": "\u0cb8\u0cb0\u0ccd\u0c95\u0cbe\u0cb0\u0cbf \u0cb9\u0cbf\u0cb0\u0cbf\u0caf \u0caa\u0ccd\u0cb0\u0cbe\u0ca5\u0cae\u0cbf\u0c95 \u0cb6\u0cbe\u0cb2\u0cc6"}}, {"type": "node", "id": 2794792769, "lat": 13.7740771, "lon": 74.6485478, "tags": {"amenity": "school", "name": "Government Higher Primary School", "name:kn": "\u0cb8\u0cb0\u0ccd\u0c95\u0cbe\u0cb0\u0cbf \u0cb9\u0cbf\u0cb0\u0cbf\u0caf \u0caa\u0ccd\u0cb0\u0cbe\u0ca5\u0cae\u0cbf\u0c95 \u0cb6\u0cbe\u0cb2\u0cc6"}}, {"type": "node", "id": 2794798803, "lat": 13.7931089, "lon": 74.6402601, "tags": {"amenity": "school", "name": "Government Lower Primary Kannada School, Nagoor, Kirimanjeshwara", "name:kn": "\u0cb8\u0cb0\u0ccd\u0c95\u0cbe\u0cb0\u0cbf \u0c95\u0cbf\u0cb0\u0cbf\u0caf \u0caa\u0ccd\u0cb0\u0cbe\u0ca5\u0cae\u0cbf\u0c95 \u0cb6\u0cbe\u0cb2\u0cc6"}}, {"type": "node", "id": 2794798804, "lat": 13.7972507, "lon": 74.6275099, "tags": {"amenity": "school", "name": "Government Higher Primary School, Kirimanjeshwra", "name:kn": "\u0cb8\u0cb0\u0ccd\u0c95\u0cbe\u0cb0\u0cbf \u0cb9\u0cbf\u0cb0\u0cbf\u0caf \u0caa\u0ccd\u0cb0\u0cbe\u0ca5\u0cae\u0cbf\u0c95 \u0cb6\u0cbe\u0cb2\u0cc6"}}, {"type": "node", "id": 2794798805, "lat": 13.7925046, "lon": 74.6409414, "tags": {"amenity": "school", "name": "Sandeepan School, Nagoor, Kirimanjeshwara", "name:kn": "\u0cb8\u0c82\u0ca6\u0cc0\u0caa\u0ca8\u0ccd \u0cb6\u0cbe\u0cb2\u0cc6"}}, {"type": "node", "id": 2794798806, "lat": 13.7873441, "lon": 74.6401423, "tags": {"amenity": "school", "name": "Government Urdu Higher Primary School, Naguru, Kirimanjeshwar", "name:kn": "\u0cb8\u0cb0\u0ccd\u0c95\u0cbe\u0cb0\u0cbf \u0c89\u0cb0\u0ccd\u0ca6\u0cc1 \u0cb9\u0cbf\u0cb0\u0cbf\u0caf \u0caa\u0ccd\u0cb0\u0cbe\u0ca5\u0cae\u0cbf\u0c95 \u0cb6\u0cbe\u0cb2\u0cc6"}}, {"type": "node", "id": 2794804685, "lat": 13.7731599, "lon": 74.6356893, "tags": {"amenity": "school", "name": "Government Model Higher primary School, Kirimanjeshwar", "name:kn": "\u0cb8\u0cb0\u0ccd\u0c95\u0cbe\u0cb0\u0cbf \u0cae\u0cbe\u0ca6\u0cb0\u0cbf \u0cb9\u0cbf\u0cb0\u0cbf\u0caf \u0caa\u0ccd\u0cb0\u0cbe\u0ca5\u0cae\u0cbf\u0c95 \u0cb6\u0cbe\u0cb2\u0cc6"}}, {"type": "node", "id": 2794806086, "lat": 13.7575132, "lon": 74.6446318, "tags": {"amenity": "school", "name": "Government Model Higher primary School, Kirimanjeshwar", "name:kn": "\u0cb8\u0cb0\u0ccd\u0c95\u0cbe\u0cb0\u0cbf \u0cae\u0cbe\u0ca6\u0cb0\u0cbf \u0cb9\u0cbf\u0cb0\u0cbf\u0caf \u0caa\u0ccd\u0cb0\u0cbe\u0ca5\u0cae\u0cbf\u0c95 \u0cb6\u0cbe\u0cb2\u0cc6"}}, {"type": "node", "id": 2794813674, "lat": 13.7534361, "lon": 74.6556774, "tags": {"amenity": "school", "name": "Government Higher Primary School, Arehole, Navunda", "name:kn": "\u0cb8\u0cb0\u0ccd\u0c95\u0cbe\u0cb0\u0cbf \u0cb9\u0cbf\u0cb0\u0cbf\u0caf \u0caa\u0ccd\u0cb0\u0cbe\u0ca5\u0cae\u0cbf\u0c95 \u0cb6\u0cbe\u0cb2\u0cc6"}}, {"type": "node", "id": 2794816330, "lat": 13.7455759, "lon": 74.6394712, "tags": {"amenity": "school", "name": "Government P U College, Navunda", "name:kn": "\u0cb8\u0cb0\u0ccd\u0c95\u0cbe\u0cb0\u0cbf \u0caa\u0ca6\u0cb5\u0cbf\u0caa\u0cc2\u0cb0\u0ccd\u0cb5 \u0c95\u0cbe\u0cb2\u0cc7\u0c9c\u0cc1"}}, {"type": "node", "id": 2794816717, "lat": 13.7394685, "lon": 74.6390743, "tags": {"amenity": "school", "name": "Government Higher Primary School, Navunda", "name:kn": "\u0cb8\u0cb0\u0ccd\u0c95\u0cbe\u0cb0\u0cbf \u0cb9\u0cbf\u0cb0\u0cbf\u0caf \u0caa\u0ccd\u0cb0\u0cbe\u0ca5\u0cae\u0cbf\u0c95 \u0cb6\u0cbe\u0cb2\u0cc6"}}, {"type": "node", "id": 2794825394, "lat": 13.7258052, "lon": 74.6430764, "tags": {"amenity": "school", "name": "Government Higher Primary School, Maravanthe", "name:kn": "\u0cb8\u0cb0\u0ccd\u0c95\u0cbe\u0cb0\u0cbf \u0cb9\u0cbf\u0cb0\u0cbf\u0caf \u0caa\u0ccd\u0cb0\u0cbe\u0ca5\u0cae\u0cbf\u0c95 \u0cb6\u0cbe\u0cb2\u0cc6"}}, {"type": "node", "id": 2794833551, "lat": 13.7316626, "lon": 74.6480358, "tags": {"amenity": "school", "name": "Nethaji Subhash Chandra Bose Government High School, Maravanthe", "name:kn": "\u0ca8\u0cc7\u0ca4\u0cbe\u0c9c\u0cbf \u0cb8\u0cc1\u0cad\u0cbe\u0cb7\u0ccd \u0c9a\u0c82\u0ca6\u0ccd\u0cb0 \u0cac\u0cca\u0cb8\u0ccd \u0cb8\u0cb0\u0ccd\u0c95\u0cbe\u0cb0\u0cbf \u0caa\u0ccd\u0cb0\u0ccc\u0ca1 \u0cb6\u0cbe\u0cb2\u0cc6"}}, {"type": "node", "id": 2794835490, "lat": 13.7325379, "lon": 74.6403781, "tags": {"amenity": "school", "name": "Government Higher Primary School, Karavali, Maravanthe", "name:kn": "\u0cb8\u0cb0\u0ccd\u0c95\u0cbe\u0cb0\u0cbf \u0cb9\u0cbf\u0cb0\u0cbf\u0caf \u0caa\u0ccd\u0cb0\u0cbe\u0ca5\u0cae\u0cbf\u0c95 \u0cb6\u0cbe\u0cb2\u0cc6"}}, {"type": "node", "id": 2794844404, "lat": 13.7423112, "lon": 74.6549747, "tags": {"amenity": "school", "name": "Government Higher Primary School, Badakere", "name:kn": "\u0cb8\u0cb0\u0ccd\u0c95\u0cbe\u0cb0\u0cbf \u0cb9\u0cbf\u0cb0\u0cbf\u0caf \u0caa\u0ccd\u0cb0\u0cbe\u0ca5\u0cae\u0cbf\u0c95 \u0cb6\u0cbe\u0cb2\u0cc6"}}, {"type": "node", "id": 2794852855, "lat": 13.7152549, "lon": 74.6543819, "tags": {"amenity": "school", "name": "Gregory High School, Nada", "name:kn": "\u0c97\u0ccd\u0cb0\u0cc6\u0c97\u0cca\u0cb0\u0cbf \u0caa\u0ccd\u0cb0\u0ccc\u0ca1 \u0cb6\u0cbe\u0cb2\u0cc6"}}, {"type": "node", "id": 2794855644, "lat": 13.7235903, "lon": 74.6722186, "tags": {"amenity": "school", "name": "St. Anthony Lower Primary School, Guddeangadi", "name:kn": "\u0cb8\u0c82\u0ca4 \u0c86\u0c82\u0ca4\u0cca\u0ca8\u0cbf \u0c95\u0cbf\u0cb0\u0cbf\u0caf \u0caa\u0ccd\u0cb0\u0cbe\u0ca5\u0cae\u0cbf\u0c95 \u0cb6\u0cbe\u0cb2\u0cc6"}}, {"type": "node", "id": 2794870926, "lat": 13.7401097, "lon": 74.6700645, "tags": {"amenity": "school", "name": "Government Higher Primary School, Kadike, Nada", "name:kn": "\u0cb8\u0cb0\u0ccd\u0c95\u0cbe\u0cb0\u0cbf \u0cb9\u0cbf\u0cb0\u0cbf\u0caf \u0caa\u0ccd\u0cb0\u0cbe\u0ca5\u0cae\u0cbf\u0c95 \u0cb6\u0cbe\u0cb2\u0cc6"}}, {"type": "node", "id": 2794877949, "lat": 13.7351434, "lon": 74.687177, "tags": {"amenity": "school", "name": "Government Lower Primary School, Hemmunje, Nada", "name:kn": "\u0cb8\u0cb0\u0ccd\u0c95\u0cbe\u0cb0\u0cbf \u0c95\u0cbf\u0cb0\u0cbf\u0caf \u0caa\u0ccd\u0cb0\u0cbe\u0ca5\u0cae\u0cbf\u0c95 \u0cb6\u0cbe\u0cb2\u0cc6"}}, {"type": "node", "id": 2794880961, "lat": 13.7007587, "lon": 74.6842885, "tags": {"amenity": "school", "name": "New Aided Higher Primary School, Bantwadi", "name:kn": "\u0cb9\u0cca\u0cb8 \u0c85\u0ca8\u0cc1\u0ca6\u0cbe\u0ca8\u0cbf\u0ca4 \u0cb9\u0cbf\u0cb0\u0cbf\u0caf \u0caa\u0ccd\u0cb0\u0cbe\u0ca5\u0cae\u0cbf\u0c95 \u0cb6\u0cbe\u0cb2\u0cc6", "wheelchair": "no"}}, {"type": "node", "id": 2794882622, "lat": 13.7192183, "lon": 74.7030825, "tags": {"amenity": "school", "name": "Government Lower Primary School, Kattinamakki, Harkur", "name:kn": "\u0cb8\u0cb0\u0ccd\u0c95\u0cbe\u0cb0\u0cbf \u0c95\u0cbf\u0cb0\u0cbf\u0caf \u0caa\u0ccd\u0cb0\u0cbe\u0ca5\u0cae\u0cbf\u0c95 \u0cb6\u0cbe\u0cb2\u0cc6"}}, {"type": "node", "id": 2794888624, "lat": 13.7398204, "lon": 74.7056201, "tags": {"amenity": "school", "name": "Government Lower Primary School, Harkur", "name:kn": "\u0cb8\u0cb0\u0ccd\u0c95\u0cbe\u0cb0\u0cbf \u0c95\u0cbf\u0cb0\u0cbf\u0caf \u0caa\u0ccd\u0cb0\u0cbe\u0ca5\u0cae\u0cbf\u0c95 \u0cb6\u0cbe\u0cb2\u0cc6"}}, {"type": "node", "id": 2795706070, "lat": 13.7339294, "lon": 74.7180549, "tags": {"amenity": "school", "name": "Government Lower Primary School, Harkur", "name:kn": "\u0cb8\u0cb0\u0ccd\u0c95\u0cbe\u0cb0\u0cbf \u0c95\u0cbf\u0cb0\u0cbf\u0caf \u0caa\u0ccd\u0cb0\u0cbe\u0ca5\u0cae\u0cbf\u0c95 \u0cb6\u0cbe\u0cb2\u0cc6"}}, {"type": "node", "id": 2795720195, "lat": 13.7524874, "lon": 74.7340328, "tags": {"amenity": "school", "name": "Saraswathi Aided Higher Primary School, Aloor"}}, {"type": "node", "id": 2795720304, "lat": 13.7559394, "lon": 74.6863167, "tags": {"amenity": "school", "name": "Government Lower Primary School, Tariberu, Aloor", "name:kn": "\u0cb8\u0cb0\u0ccd\u0c95\u0cbe\u0cb0\u0cbf \u0c95\u0cbf\u0cb0\u0cbf\u0caf \u0caa\u0ccd\u0cb0\u0cbe\u0ca5\u0cae\u0cbf\u0c95 \u0cb6\u0cbe\u0cb2\u0cc6"}}, {"type": "node", "id": 2795789300, "lat": 13.7192078, "lon": 74.7314658, "tags": {"amenity": "school", "name": "Government Higher Primary School, Nujadi", "name:kn": "\u0cb8\u0cb0\u0ccd\u0c95\u0cbe\u0cb0\u0cbf \u0cb9\u0cbf\u0cb0\u0cbf\u0caf \u0caa\u0ccd\u0cb0\u0cbe\u0ca5\u0cae\u0cbf\u0c95 \u0cb6\u0cbe\u0cb2\u0cc6"}}, {"type": "node", "id": 2795796888, "lat": 13.6940225, "lon": 74.7279898, "tags": {"amenity": "school", "name": "Government Higher Primary School, Bagwadi", "name:kn": "\u0cb8\u0cb0\u0ccd\u0c95\u0cbe\u0cb0\u0cbf \u0cb9\u0cbf\u0cb0\u0cbf\u0caf \u0caa\u0ccd\u0cb0\u0cbe\u0ca5\u0cae\u0cbf\u0c95 \u0cb6\u0cbe\u0cb2\u0cc6"}}, {"type": "node", "id": 2795797077, "lat": 13.7018246, "lon": 74.7211019, "tags": {"amenity": "school", "name": "Government Higher Primary School, Kundabarandadi", "name:kn": "\u0cb8\u0cb0\u0ccd\u0c95\u0cbe\u0cb0\u0cbf \u0cb9\u0cbf\u0cb0\u0cbf\u0caf \u0caa\u0ccd\u0cb0\u0cbe\u0ca5\u0cae\u0cbf\u0c95 \u0cb6\u0cbe\u0cb2\u0cc6"}}, {"type": "node", "id": 2795802864, "lat": 13.7092641, "lon": 74.717835, "tags": {"amenity": "school", "name": "Government Lower Primary School, Barandadi", "name:kn": "\u0cb8\u0cb0\u0ccd\u0c95\u0cbe\u0cb0\u0cbf \u0c95\u0cbf\u0cb0\u0cbf\u0caf \u0caa\u0ccd\u0cb0\u0cbe\u0ca5\u0cae\u0cbf\u0c95 \u0cb6\u0cbe\u0cb2\u0cc6"}}, {"type": "node", "id": 2795803929, "lat": 13.7025519, "lon": 74.7051158, "tags": {"amenity": "school", "name": "Government Model Higher Primary School, Hakladi", "name:kn": "\u0cb8\u0cb0\u0ccd\u0c95\u0cbe\u0cb0\u0cbf \u0cae\u0cbe\u0ca6\u0cb0\u0cbf \u0cb9\u0cbf\u0cb0\u0cbf\u0caf \u0caa\u0ccd\u0cb0\u0cbe\u0ca5\u0cae\u0cbf\u0c95 \u0cb6\u0cbe\u0cb2\u0cc6"}}, {"type": "node", "id": 2795805375, "lat": 13.6951794, "lon": 74.6972977, "tags": {"amenity": "school", "name": "Government Lower Primary School, Yalooru, Hakladi", "name:kn": "\u0cb8\u0cb0\u0ccd\u0c95\u0cbe\u0cb0\u0cbf \u0c95\u0cbf\u0cb0\u0cbf\u0caf \u0caa\u0ccd\u0cb0\u0cbe\u0ca5\u0cae\u0cbf\u0c95 \u0cb6\u0cbe\u0cb2\u0cc6"}}, {"type": "node", "id": 2795809320, "lat": 13.7065202, "lon": 74.6673079, "tags": {"amenity": "school", "name": "Government Higher Primary School, Movadi, Trasi", "name:kn": "\u0cb8\u0cb0\u0ccd\u0c95\u0cbe\u0cb0\u0cbf \u0cb9\u0cbf\u0cb0\u0cbf\u0caf \u0caa\u0ccd\u0cb0\u0cbe\u0ca5\u0cae\u0cbf\u0c95 \u0cb6\u0cbe\u0cb2\u0cc6"}}, {"type": "node", "id": 2795819043, "lat": 13.6948749, "lon": 74.6506999, "tags": {"amenity": "school", "name": "Kallani Higher Primary School, Trasi", "name:kn": "\u0c95\u0cb2\u0ccd\u0cb2\u0cbe\u0ca8\u0cbf \u0cb9\u0cbf\u0cb0\u0cbf\u0caf \u0caa\u0ccd\u0cb0\u0cbe\u0ca5\u0cae\u0cbf\u0c95 \u0cb6\u0cbe\u0cb2\u0cc6"}}, {"type": "node", "id": 2795825190, "lat": 13.6834289, "lon": 74.6509089, "tags": {"amenity": "school", "name": "Government Higher Primary School, Kanchakodu, Hosadu", "name:kn": "\u0cb8\u0cb0\u0ccd\u0c95\u0cbe\u0cb0\u0cbf \u0cb9\u0cbf\u0cb0\u0cbf\u0caf \u0caa\u0ccd\u0cb0\u0cbe\u0ca5\u0cae\u0cbf\u0c95 \u0cb6\u0cbe\u0cb2\u0cc6"}}, {"type": "node", "id": 2795826126, "lat": 13.6918125, "lon": 74.6749361, "tags": {"amenity": "school", "name": "Government Higher Primary School, Hosadu", "name:kn": "\u0cb8\u0cb0\u0ccd\u0c95\u0cbe\u0cb0\u0cbf \u0cb9\u0cbf\u0cb0\u0cbf\u0caf \u0caa\u0ccd\u0cb0\u0cbe\u0ca5\u0cae\u0cbf\u0c95 \u0cb6\u0cbe\u0cb2\u0cc6"}}, {"type": "node", "id": 2795828769, "lat": 13.676778, "lon": 74.6691399, "tags": {"amenity": "school", "name": "Government Higher Primary School, Manki, Gujjadi", "name:kn": "\u0cb8\u0cb0\u0ccd\u0c95\u0cbe\u0cb0\u0cbf \u0cb9\u0cbf\u0cb0\u0cbf\u0caf \u0caa\u0ccd\u0cb0\u0cbe\u0ca5\u0cae\u0cbf\u0c95 \u0cb6\u0cbe\u0cb2\u0cc6"}}, {"type": "node", "id": 2795849944, "lat": 13.668949, "lon": 74.6611066, "tags": {"amenity": "school", "name": "Government Higher Primary School, Gujjadi", "name:kn": "\u0cb8\u0cb0\u0ccd\u0c95\u0cbe\u0cb0\u0cbf \u0cb9\u0cbf\u0cb0\u0cbf\u0caf \u0caa\u0ccd\u0cb0\u0cbe\u0ca5\u0cae\u0cbf\u0c95 \u0cb6\u0cbe\u0cb2\u0cc6"}}, {"type": "node", "id": 2795856432, "lat": 13.6554353, "lon": 74.6642475, "tags": {"amenity": "school", "name": "Konchadi Radha Shyne Government Higher Primary School, Kharvikeri, Gangolli", "name:kn": "\u0c95\u0cca\u0c82\u0c9a\u0ca6\u0cbf \u0cb0\u0cbe\u0ca7 \u0cb6\u0cc8\u0ca8\u0cc6 \u0cb8\u0cb0\u0ccd\u0c95\u0cbe\u0cb0\u0cbf \u0cb6\u0cbe\u0cb2\u0cc6"}}, {"type": "node", "id": 2795858179, "lat": 13.6525943, "lon": 74.669274, "tags": {"amenity": "school", "name": "Government Urdu Higher Primary School, Gangolli", "name:kn": "\u0cb8\u0cb0\u0ccd\u0c95\u0cbe\u0cb0\u0cbf \u0c89\u0cb0\u0ccd\u0ca6\u0cc1 \u0cb9\u0cbf\u0cb0\u0cbf\u0caf \u0caa\u0ccd\u0cb0\u0cbe\u0ca5\u0cae\u0cbf\u0c95 \u0cb6\u0cbe\u0cb2\u0cc6"}}, {"type": "node", "id": 2795860592, "lat": 13.6481607, "lon": 74.6669968, "tags": {"amenity": "school", "name": "Stella Mary High School, Gangolli", "name:kn": "\u0cb8\u0ccd\u0c9f\u0cc6\u0cb2\u0ccd\u0cb2\u0cbe \u0cae\u0cc7\u0cb0\u0cbf \u0caa\u0ccd\u0cb0\u0ccc\u0ca1 \u0cb6\u0cbe\u0cb2\u0cc6"}}, {"type": "node", "id": 2795860593, "lat": 13.6483797, "lon": 74.6676271, "tags": {"amenity": "school", "name": "Saint Joseph Higher Primary School, Gangolli", "name:kn": "\u0cb8\u0c82\u0ca4 \u0c9c\u0ccb\u0cb8\u0cc6\u0cab\u0ccd \u0cb9\u0cbf\u0cb0\u0cbf\u0caf \u0caa\u0ccd\u0cb0\u0cbe\u0ca5\u0cae\u0cbf\u0c95 \u0cb6\u0cbe\u0cb2\u0cc6"}}, {"type": "node", "id": 2795860669, "lat": 13.6525578, "lon": 74.6699579, "tags": {"amenity": "school", "name": "Saraswathi Vidyalaya Junior College, Gangolli", "name:kn": "\u0cb8\u0cb0\u0cb8\u0ccd\u0cb5\u0ca4\u0cbf \u0cb5\u0cbf\u0ca6\u0ccd\u0caf\u0cbe\u0cb2\u0caf \u0c9c\u0cc2\u0ca8\u0cbf\u0caf\u0cb0\u0ccd \u0c95\u0cbe\u0cb2\u0cc7\u0c9c\u0cc1"}}, {"type": "node", "id": 2795864641, "lat": 13.6600122, "lon": 74.6894595, "tags": {"amenity": "school", "name": "Government Model Higher Primary School, Uppinakudru", "name:kn": "\u0cb8\u0cb0\u0ccd\u0c95\u0cbe\u0cb0\u0cbf \u0cae\u0cbe\u0ca6\u0cb0\u0cbf \u0cb9\u0cbf\u0cb0\u0cbf\u0caf \u0caa\u0ccd\u0cb0\u0cbe\u0ca5\u0cae\u0cbf\u0c95 \u0cb6\u0cbe\u0cb2\u0cc6"}}, {"type": "node", "id": 2795864642, "lat": 13.6455021, "lon": 74.6710684, "tags": {"amenity": "school", "name": "Saraswathi Vidyalaya Model Higher Primary School, Gangolli", "name:kn": "\u0cb8\u0cb0\u0cb8\u0ccd\u0cb5\u0ca4\u0cbf \u0cb5\u0cbf\u0ca6\u0ccd\u0caf\u0cbe\u0cb2\u0caf \u0cae\u0cbe\u0ca6\u0cb0\u0cbf \u0cb9\u0cbf\u0cb0\u0cbf\u0caf \u0caa\u0ccd\u0cb0\u0cbe\u0ca5\u0cae\u0cbf\u0c95 \u0cb6\u0cbe\u0cb2\u0cc6"}}, {"type": "node", "id": 2795870745, "lat": 13.676872, "lon": 74.6950634, "tags": {"amenity": "school", "name": "Government Model Higher Primary School, Hemmadi", "name:kn": "\u0cb8\u0cb0\u0ccd\u0c95\u0cbe\u0cb0\u0cbf \u0cae\u0cbe\u0ca6\u0cb0\u0cbf \u0cb9\u0cbf\u0cb0\u0cbf\u0caf \u0caa\u0ccd\u0cb0\u0cbe\u0ca5\u0cae\u0cbf\u0c95 \u0cb6\u0cbe\u0cb2\u0cc6"}}, {"type": "node", "id": 2795870750, "lat": 13.6732653, "lon": 74.6951119, "tags": {"amenity": "school", "check_date": "2024-12-13", "name": "Government Lower Primary School, Santhosh Nagara, Hemmady", "name:kn": "\u0cb8\u0cb0\u0ccd\u0c95\u0cbe\u0cb0\u0cbf \u0c95\u0cbf\u0cb0\u0cbf\u0caf \u0caa\u0ccd\u0cb0\u0cbe\u0ca5\u0cae\u0cbf\u0c95 \u0cb6\u0cbe\u0cb2\u0cc6", "operator:type": "government"}}, {"type": "node", "id": 2795874965, "lat": 13.6869289, "lon": 74.7045419, "tags": {"amenity": "school", "name": "Government Higher Primary School, Sulse, Kattabelthur", "name:kn": "\u0cb8\u0cb0\u0ccd\u0c95\u0cbe\u0cb0\u0cbf \u0cb9\u0cbf\u0cb0\u0cbf\u0caf \u0caa\u0ccd\u0cb0\u0cbe\u0ca5\u0cae\u0cbf\u0c95 \u0cb6\u0cbe\u0cb2\u0cc6"}}, {"type": "node", "id": 2795880609, "lat": 13.6892535, "lon": 74.7173709, "tags": {"amenity": "school", "name": "Government Higher Primary School, Kattabelthur", "name:kn": "\u0cb8\u0cb0\u0ccd\u0c95\u0cbe\u0cb0\u0cbf \u0cb9\u0cbf\u0cb0\u0cbf\u0caf \u0caa\u0ccd\u0cb0\u0cbe\u0ca5\u0cae\u0cbf\u0c95 \u0cb6\u0cbe\u0cb2\u0cc6"}}, {"type": "node", "id": 2795884411, "lat": 13.6544839, "lon": 74.7108585, "tags": {"amenity": "school", "name": "Government High School, Talluru", "name:kn": "\u0cb8\u0cb0\u0ccd\u0c95\u0cbe\u0cb0\u0cbf \u0caa\u0ccd\u0cb0\u0ccc\u0ca2 \u0cb6\u0cbe\u0cb2\u0cc6, \u0ca4\u0cb2\u0ccd\u0cb2\u0cc2\u0cb0\u0cc1"}}, {"type": "node", "id": 2795884412, "lat": 13.6556308, "lon": 74.7098634, "tags": {"amenity": "school", "name": "Government Model Higher Primary School, Tallur", "name:kn": "\u0cb8\u0cb0\u0ccd\u0c95\u0cbe\u0cb0\u0cbf \u0cb9\u0cbf\u0cb0\u0cbf\u0caf \u0caa\u0ccd\u0cb0\u0cbe\u0ca5\u0cae\u0cbf\u0c95 \u0cb6\u0cbe\u0cb2\u0cc6"}}, {"type": "node", "id": 2795888926, "lat": 13.6469879, "lon": 74.7324181, "tags": {"amenity": "school", "name": "Government Higher Primary School, Hattiangadi", "name:kn": "\u0cb8\u0cb0\u0ccd\u0c95\u0cbe\u0cb0\u0cbf \u0cb9\u0cbf\u0cb0\u0cbf\u0caf \u0caa\u0ccd\u0cb0\u0cbe\u0ca5\u0cae\u0cbf\u0c95 \u0cb6\u0cbe\u0cb2\u0cc6, \u0cb9\u0c9f\u0ccd\u0c9f\u0cbf\u0caf\u0c82\u0c97\u0ca1\u0cbf"}}, {"type": "node", "id": 2795894299, "lat": 13.6794104, "lon": 74.7204151, "tags": {"amenity": "school", "name": "Government Higher Primary School, Gubkan, Kanyan", "name:kn": "\u0cb8\u0cb0\u0ccd\u0c95\u0cbe\u0cb0\u0cbf \u0cb9\u0cbf\u0cb0\u0cbf\u0caf \u0caa\u0ccd\u0cb0\u0cbe\u0ca5\u0cae\u0cbf\u0c95 \u0cb6\u0cbe\u0cb2\u0cc6"}}, {"type": "node", "id": 2795896106, "lat": 13.6479261, "lon": 74.7171161, "tags": {"amenity": "school", "name": "Government Lower Primary School, Sabladi, Hattiangadi", "name:kn": "\u0cb8\u0cb0\u0ccd\u0c95\u0cbe\u0cb0\u0cbf \u0c95\u0cbf\u0cb0\u0cbf\u0caf \u0caa\u0ccd\u0cb0\u0cbe\u0ca5\u0cae\u0cbf\u0c95 \u0cb6\u0cbe\u0cb2\u0cc6"}}, {"type": "node", "id": 2795899310, "lat": 13.6593736, "lon": 74.7301193, "tags": {"amenity": "school", "name": "Government Lower Primary School, Koodlu, Kanyan", "name:kn": "\u0cb8\u0cb0\u0ccd\u0c95\u0cbe\u0cb0\u0cbf \u0c95\u0cbf\u0cb0\u0cbf\u0caf \u0caa\u0ccd\u0cb0\u0cbe\u0ca5\u0cae\u0cbf\u0c95 \u0cb6\u0cbe\u0cb2\u0cc6"}}, {"type": "node", "id": 2795900529, "lat": 13.6865615, "lon": 74.7338852, "tags": {"amenity": "school", "name": "Vijaya Aided Higher Primary School, Devalkunda"}}, {"type": "node", "id": 2806109223, "lat": 13.6371297, "lon": 74.692649, "tags": {"amenity": "school", "name": "Government Higher Primary School, Kharvikeri, Kundapur", "name:en": "Govt Lower Primary School", "name:kn": "\u0cb8\u0cb0\u0ccd\u0c95\u0cbe\u0cb0\u0cbf \u0cb9\u0cbf\u0cb0\u0cbf\u0caf \u0caa\u0ccd\u0cb0\u0cbe\u0ca5\u0cae\u0cbf\u0c95 \u0cb6\u0cbe\u0cb2\u0cc6"}}, {"type": "node", "id": 2806170014, "lat": 13.6433552, "lon": 74.7028359, "tags": {"amenity": "school", "name": "Aided Higher Primary school, Herikudru, Anagalli"}}, {"type": "node", "id": 2806172473, "lat": 13.6356177, "lon": 74.7160164, "tags": {"amenity": "school", "name": "Government Higher Primary School, Anagalli", "name:kn": "\u0cb8\u0cb0\u0ccd\u0c95\u0cbe\u0cb0\u0cbf \u0cb9\u0cbf\u0cb0\u0cbf\u0caf \u0caa\u0ccd\u0cb0\u0cbe\u0ca5\u0cae\u0cbf\u0c95 \u0cb6\u0cbe\u0cb2\u0cc6, \u0c86\u0ca8\u0c97\u0cb3\u0ccd\u0cb3\u0cbf"}}, {"type": "node", "id": 5239591121, "lat": 13.9309723, "lon": 74.5942465, "tags": {"internet_access": "no", "name": "Shiroor", "name:kn": "\u0cb6\u0cbf\u0cb0\u0cc2\u0cb0\u0cc1", "network": "IR", "operator": "KR", "public_transport": "station", "railway": "station", "ref": "SHMI", "train": "yes", "wikidata": "Q25573829", "wikipedia": "en:Shiroor railway station"}}, {"type": "node", "id": 6188237721, "lat": 13.9972822, "lon": 74.5528484}, {"type": "node", "id": 6188237722, "lat": 13.9972339, "lon": 74.5530398}, {"type": "node", "id": 6188237723, "lat": 13.9972711, "lon": 74.5530498}, {"type": "node", "id": 6188237724, "lat": 13.9972865, "lon": 74.5529888}, {"type": "node", "id": 6188237725, "lat": 13.997336, "lon": 74.553002}, {"type": "node", "id": 6188237726, "lat": 13.9973539, "lon": 74.5529311}, {"type": "node", "id": 6188237727, "lat": 13.9974207, "lon": 74.552949}, {"type": "node", "id": 6188237728, "lat": 13.9974357, "lon": 74.5528896}, {"type": "node", "id": 6188237729, "lat": 13.9976459, "lon": 74.552974}, {"type": "node", "id": 6188237730, "lat": 13.9976361, "lon": 74.5530093}, {"type": "node", "id": 6188237731, "lat": 13.9975824, "lon": 74.5529934}, {"type": "node", "id": 6188237732, "lat": 13.997538, "lon": 74.553153}, {"type": "node", "id": 6188237733, "lat": 13.9976211, "lon": 74.5531776}, {"type": "node", "id": 6188237734, "lat": 13.9976753, "lon": 74.5529827}, {"type": "node", "id": 6188237735, "lat": 13.9972095, "lon": 74.5526953}, {"type": "node", "id": 6188237736, "lat": 13.9971913, "lon": 74.5527601}, {"type": "node", "id": 6188237737, "lat": 13.9969781, "lon": 74.5526965}, {"type": "node", "id": 6188237738, "lat": 13.9969614, "lon": 74.5527557}, {"type": "node", "id": 6188237739, "lat": 13.9970085, "lon": 74.5527697}, {"type": "node", "id": 6188237740, "lat": 13.9969941, "lon": 74.5528211}, {"type": "node", "id": 6188237741, "lat": 13.9971625, "lon": 74.5528713}, {"type": "node", "id": 6188237742, "lat": 13.9971436, "lon": 74.5529384}, {"type": "node", "id": 6188237743, "lat": 13.9970733, "lon": 74.5529174}, {"type": "node", "id": 6188237744, "lat": 13.9970476, "lon": 74.553009}, {"type": "node", "id": 6188237745, "lat": 13.9970111, "lon": 74.5529981}, {"type": "node", "id": 6188237746, "lat": 13.997036, "lon": 74.5529096}, {"type": "node", "id": 6188237747, "lat": 13.9969753, "lon": 74.5528915}, {"type": "node", "id": 6188237748, "lat": 13.9969484, "lon": 74.5529873}, {"type": "node", "id": 6188237749, "lat": 13.9969053, "lon": 74.5529744}, {"type": "node", "id": 6188237750, "lat": 13.9969324, "lon": 74.5528781}, {"type": "node", "id": 6188237751, "lat": 13.9968653, "lon": 74.5528581}, {"type": "node", "id": 6188237752, "lat": 13.9967908, "lon": 74.5531237}, {"type": "node", "id": 6188237753, "lat": 13.9968539, "lon": 74.5531426}, {"type": "node", "id": 6188237754, "lat": 13.9968788, "lon": 74.5530536}, {"type": "node", "id": 6188237755, "lat": 13.996915, "lon": 74.5530644}, {"type": "node", "id": 6188237756, "lat": 13.9968914, "lon": 74.5531484}, {"type": "node", "id": 6188237757, "lat": 13.9969531, "lon": 74.5531668}, {"type": "node", "id": 6188237758, "lat": 13.9969749, "lon": 74.5530889}, {"type": "node", "id": 6188237759, "lat": 13.9970144, "lon": 74.5531007}, {"type": "node", "id": 6188237760, "lat": 13.9969959, "lon": 74.5531664}, {"type": "node", "id": 6188237761, "lat": 13.9970743, "lon": 74.5531898}, {"type": "node", "id": 6188237762, "lat": 13.997044, "lon": 74.5532978}, {"type": "node", "id": 6188237763, "lat": 13.9971485, "lon": 74.553329}, {"type": "node", "id": 6188237764, "lat": 13.9972127, "lon": 74.5531004}, {"type": "node", "id": 6188237765, "lat": 13.9972678, "lon": 74.5531168}, {"type": "node", "id": 6188237766, "lat": 13.9972572, "lon": 74.5531546}, {"type": "node", "id": 6188237767, "lat": 13.9975723, "lon": 74.5532485}, {"type": "node", "id": 6188237768, "lat": 13.9975845, "lon": 74.553205}, {"type": "node", "id": 6188237769, "lat": 13.997642, "lon": 74.5532221}, {"type": "node", "id": 6188237770, "lat": 13.9976696, "lon": 74.5531236}, {"type": "node", "id": 6188237771, "lat": 13.9978023, "lon": 74.5531631}, {"type": "node", "id": 6188237772, "lat": 13.9978253, "lon": 74.553081}, {"type": "node", "id": 6188237773, "lat": 13.997763, "lon": 74.5530625}, {"type": "node", "id": 6188237774, "lat": 13.9978153, "lon": 74.552876}, {"type": "node", "id": 6188291315, "lat": 13.9564104, "lon": 74.5797825, "tags": {"addr:district": "Uttara Kannada", "addr:full": "Near Syndicate Bank, Belke, Behind Grama Panchayath", "addr:landmark": "Near Syndicate Bank", "addr:location": "Belke", "addr:postcode": "581320", "addr:state": "Karnataka", "addr:street": "Behind Grama Panchayath Karyalaya", "addr:subdistrict": "Bhatkal", "amenity": "hospital", "contact:phone": "08385-279133", "name": "Government Hospital, Belke", "name:kn": "\u0cac\u0cc6\u0cb3\u0c95\u0cc6 \u0caa\u0ccd\u0cb0\u0cbe\u0ca5\u0cae\u0cbf\u0c95 \u0c86\u0cb0\u0ccb\u0c97\u0ccd\u0caf \u0c95\u0cc7\u0c82\u0ca6\u0ccd\u0cb0", "source": "OpenGovernmentData"}}, {"type": "node", "id": 6190470705, "lat": 13.8673051, "lon": 74.6126566}, {"type": "node", "id": 6190470706, "lat": 13.8672907, "lon": 74.6129182}, {"type": "node", "id": 6190470707, "lat": 13.8673833, "lon": 74.6129237}, {"type": "node", "id": 6190470708, "lat": 13.867382, "lon": 74.6129469}, {"type": "node", "id": 6190470709, "lat": 13.8675138, "lon": 74.6129546}, {"type": "node", "id": 6190470710, "lat": 13.8675191, "lon": 74.6128583}, {"type": "node", "id": 6190470711, "lat": 13.8674016, "lon": 74.6128514}, {"type": "node", "id": 6190470712, "lat": 13.867412, "lon": 74.6126628}, {"type": "node", "id": 6190470713, "lat": 13.8675749, "lon": 74.612694}, {"type": "node", "id": 6190470714, "lat": 13.8675763, "lon": 74.6126747}, {"type": "node", "id": 6190470715, "lat": 13.8674244, "lon": 74.6126635}, {"type": "node", "id": 6190470716, "lat": 13.8674198, "lon": 74.61273}, {"type": "node", "id": 6190470717, "lat": 13.8674835, "lon": 74.6127346}, {"type": "node", "id": 6190470718, "lat": 13.8674816, "lon": 74.6127619}, {"type": "node", "id": 6190470719, "lat": 13.8676571, "lon": 74.6127748}, {"type": "node", "id": 6190470720, "lat": 13.8676623, "lon": 74.6127004}, {"type": "node", "id": 6199346753, "lat": 13.8975607, "lon": 74.6458908}, {"type": "node", "id": 6199346754, "lat": 13.8975319, "lon": 74.645813}, {"type": "node", "id": 6199346755, "lat": 13.8974349, "lon": 74.6458512}, {"type": "node", "id": 6199346756, "lat": 13.897461, "lon": 74.6459217}, {"type": "node", "id": 6199346757, "lat": 13.8974796, "lon": 74.6459144}, {"type": "node", "id": 6199346758, "lat": 13.8975961, "lon": 74.6462283}, {"type": "node", "id": 6199346759, "lat": 13.8976678, "lon": 74.6462001}, {"type": "node", "id": 6199346760, "lat": 13.8975807, "lon": 74.6459654}, {"type": "node", "id": 6199346761, "lat": 13.8976123, "lon": 74.645953}, {"type": "node", "id": 6199346762, "lat": 13.8976789, "lon": 74.6459268}, {"type": "node", "id": 6199346763, "lat": 13.8976522, "lon": 74.6458548}, {"type": "node", "id": 6199348369, "lat": 13.8330899, "lon": 74.7346258}, {"type": "node", "id": 6199348370, "lat": 13.8328008, "lon": 74.7353688}, {"type": "node", "id": 6199348371, "lat": 13.8336994, "lon": 74.7357658}, {"type": "node", "id": 6199348372, "lat": 13.8337358, "lon": 74.7347707}, {"type": "node", "id": 6218725345, "lat": 13.7484233, "lon": 74.7213019}, {"type": "node", "id": 6218725346, "lat": 13.7483466, "lon": 74.7213615}, {"type": "node", "id": 6218725347, "lat": 13.7482662, "lon": 74.7212784}, {"type": "node", "id": 6218725348, "lat": 13.7474306, "lon": 74.7221898}, {"type": "node", "id": 6218725349, "lat": 13.7479361, "lon": 74.7226913}, {"type": "node", "id": 6218725350, "lat": 13.7487111, "lon": 74.7215863}, {"type": "node", "id": 6397536898, "lat": 13.8711603, "lon": 74.6259321, "tags": {"amenity": "school", "name": "Higher Primary School Byndoor", "name:kn": "\u0cb9\u0cbf\u0cb0\u0cbf\u0caf \u0caa\u0ccd\u0cb0\u0cbe\u0ca5\u0cae\u0cbf\u0c95 \u0cb6\u0cbe\u0cb2\u0cc6"}}, {"type": "node", "id": 6397537194, "lat": 13.6579769, "lon": 74.7257812, "tags": {"amenity": "hospital", "name": "PHC Hattiangadi", "name:kn": "\u0caa\u0ccd\u0cb0\u0cbe\u0ca5\u0cae\u0cbf\u0c95 \u0c86\u0cb0\u0ccb\u0c97\u0ccd\u0caf \u0c95\u0cc7\u0c82\u0ca6\u0ccd\u0cb0"}}, {"type": "node", "id": 6397537688, "lat": 13.9001083, "lon": 74.6011359, "tags": {"amenity": "school", "name": "Anganavadi Centre, Dasanadi", "name:kn": "\u0c85\u0c82\u0c97\u0ca8\u0cb5\u0cbe\u0ca1\u0cbf"}}, {"type": "node", "id": 6398561092, "lat": 13.9315886, "lon": 74.595723, "tags": {"amenity": "school", "name": "Government Higher Primary school, Bappanabylu", "name:kn": "\u0cb8\u0cb0\u0ccd\u0c95\u0cbe\u0cb0\u0cbf \u0cb9\u0cbf\u0cb0\u0cbf\u0caf \u0caa\u0ccd\u0cb0\u0cbe\u0ca5\u0cae\u0cbf\u0c95 \u0cb6\u0cbe\u0cb2\u0cc6"}}, {"type": "node", "id": 7202876226, "lat": 13.7476582, "lon": 74.7242229, "tags": {"addr:district": "Udupi", "addr:full": "Aloor", "addr:postcode": "576233", "addr:state": "Karnataka", "addr:subdistrict": "Kundapura", "amenity": "hospital", "contact:phone": "08254-204451", "description": "Government Hospital", "name": "Government Hospital, Aloor", "name:kn": "\u0cb8\u0cb0\u0ccd\u0c95\u0cbe\u0cb0\u0cbf \u0c86\u0cb8\u0ccd\u0caa\u0ca4\u0ccd\u0cb0\u0cc6", "source": "OpenGovernmentData"}}, {"type": "node", "id": 7202876257, "lat": 13.7199651, "lon": 74.6677444, "tags": {"addr:district": "Udupi", "addr:full": "Padukone", "addr:postcode": "576224", "addr:state": "Karnataka", "addr:subdistrict": "Kundapura", "amenity": "hospital", "contact:phone": "08254-279270", "name": "Government Hospital, Nada", "name:kn": "\u0cb8\u0cb0\u0ccd\u0c95\u0cbe\u0cb0\u0cbf \u0c86\u0cb8\u0ccd\u0caa\u0ca4\u0ccd\u0cb0\u0cc6", "source": "OpenGovernmentData"}}, {"type": "node", "id": 7202876261, "lat": 14.0353487, "lon": 74.5288686, "tags": {"addr:district": "Uttara Kannada", "addr:full": "Harakali Road, Shirali", "addr:postcode": "581354", "addr:state": "Karnataka", "amenity": "hospital", "name": "Government Hospital, Shirali", "name:kn": "\u0cb8\u0cb0\u0ccd\u0c95\u0cbe\u0cb0\u0cbf \u0c86\u0cb8\u0ccd\u0caa\u0ca4\u0ccd\u0cb0\u0cc6", "source": "OpenGovernmentData"}}, {"type": "node", "id": 8188038026, "lat": 13.6354671, "lon": 74.70089, "tags": {"addr:full": "Near santhe market, NH-66, Kundapura, Karnataka", "addr:state": "Karnataka", "amenity": "hospital", "name": "Adarsha Hospital", "name:kn": "\u0c86\u0ca6\u0cb0\u0ccd\u0cb6 \u0c86\u0cb8\u0ccd\u0caa\u0ca4\u0ccd\u0cb0\u0cc6"}}, {"type": "node", "id": 12122233216, "lat": 13.7481697, "lon": 74.7211974}, {"type": "node", "id": 12122233217, "lat": 13.747971, "lon": 74.7213198}, {"type": "node", "id": 12122233218, "lat": 13.7477844, "lon": 74.7214949}, {"type": "node", "id": 12124133754, "lat": 13.7011393, "lon": 74.7044722, "tags": {"amenity": "hospital", "check_date": "2024-08-21", "healthcare": "hospital", "internet_access": "wlan", "internet_access:fee": "no", "name": "Hakladi PHC", "wheelchair": "yes"}}, {"type": "node", "id": 12415342165, "lat": 13.6766314, "lon": 74.6946247, "tags": {"amenity": "hospital", "check_date": "2024-12-12", "healthcare": "hospital", "name": "Hemmadi Primary Health Center", "opening_hours": "09:00-13:00,14:00-17:00", "operator:type": "government", "wheelchair": "no"}}, {"type": "node", "id": 12418412548, "lat": 13.6762567, "lon": 74.6963507, "tags": {"amenity": "school", "name": "Government Senior Primary School, Hemmadi"}}, {"type": "node", "id": 12418412557, "lat": 13.6871554, "lon": 74.6965277, "tags": {"amenity": "school", "check_date": "2024-12-13", "grades": "1-6", "name": "Government Primary School, Hemmadi, Baindooru Circle", "operator": "Government of Karnataka", "operator:type": "government"}}, {"type": "node", "id": 12747359275, "lat": 13.7555063, "lon": 74.7116763, "tags": {"amenity": "school", "check_date": "2025-04-11", "denomination": "hindu", "grades": "1-6", "name": "Huyana Primary School, Aloor", "operator:type": "government"}}, {"type": "way", "id": 256638640, "nodes": [2622818471, 2622818476, 2622818484, 2622818486, 2622818488, 2622818491, 2622818492, 2622818494, 2622818472, 2622818471], "tags": {"name": "Navunda", "name:kn": "\u0ca8\u0cbe\u0cb5\u0cc1\u0c82\u0ca6", "operator": "KPTCL", "power": "substation", "substation": "distribution", "voltage": "110000"}}, {"type": "way", "id": 274256597, "nodes": [2790193304, 2790193306, 2790193303, 2790193308, 2790193304], "tags": {"amenity": "school", "name": "Government Higher Primary School, Shiroor Hadavinakone", "name:kn": "\u0cb8\u0cb0\u0ccd\u0c95\u0cbe\u0cb0\u0cbf \u0cb9\u0cbf\u0cb0\u0cbf\u0caf \u0caa\u0ccd\u0cb0\u0cbe\u0ca5\u0cae\u0cbf\u0c95 \u0cb6\u0cbe\u0cb2\u0cc6, \u0cb9\u0ca1\u0cb5\u0cbf\u0ca8\u0c95\u0cca\u0ca8\u0cc6"}}, {"type": "way", "id": 274256889, "nodes": [2790197119, 2790197131, 2790197126, 2790197128, 2790197119], "tags": {"amenity": "school", "name": "Government Higher Primary School Kesarakodi, Shiroor", "name:kn": "\u0cb8\u0cb0\u0ccd\u0c95\u0cbe\u0cb0\u0cbf \u0cb9\u0cbf\u0cb0\u0cbf\u0caf \u0caa\u0ccd\u0cb0\u0cbe\u0ca5\u0cae\u0cbf\u0c95 \u0cb6\u0cbe\u0cb2\u0cc6, \u0c95\u0cc6\u0cb8\u0cb0\u0c95\u0cca\u0ca1\u0cbf"}}, {"type": "way", "id": 660973502, "nodes": [6188237728, 6188237727, 6188237726, 6188237725, 6188237724, 6188237723, 6188237722, 6188237721, 6188237728]}, {"type": "way", "id": 660973503, "nodes": [6188237734, 6188237733, 6188237732, 6188237731, 6188237730, 6188237729, 6188237734]}, {"type": "way", "id": 660973504, "nodes": [6188237774, 6188237773, 6188237772, 6188237771, 6188237770, 6188237769, 6188237768, 6188237767, 6188237766, 6188237765, 6188237764, 6188237763, 6188237762, 6188237761, 6188237760, 6188237759, 6188237758, 6188237757, 6188237756, 6188237755, 6188237754, 6188237753, 6188237752, 6188237751, 6188237750, 6188237749, 6188237748, 6188237747, 6188237746, 6188237745, 6188237744, 6188237743, 6188237742, 6188237741, 6188237740, 6188237739, 6188237738, 6188237737, 6188237736, 6188237735, 6188237774]}, {"type": "way", "id": 661222433, "nodes": [6190470712, 6190470711, 6190470710, 6190470709, 6190470708, 6190470707, 6190470706, 6190470705, 6190470712]}, {"type": "way", "id": 661222434, "nodes": [6190470720, 6190470719, 6190470718, 6190470717, 6190470716, 6190470715, 6190470714, 6190470713, 6190470720]}, {"type": "way", "id": 662180151, "nodes": [6199346763, 6199346762, 6199346761, 6199346760, 6199346759, 6199346758, 6199346757, 6199346756, 6199346755, 6199346754, 6199346753, 6199346763], "tags": {"amenity": "school", "name": "Government Higher Primary School, Maddodi", "name:kn": "\u0cb8\u0cb0\u0ccd\u0c95\u0cbe\u0cb0\u0cbf \u0cb9\u0cbf\u0cb0\u0cbf\u0caf \u0caa\u0ccd\u0cb0\u0cbe\u0ca5\u0cae\u0cbf\u0c95 \u0cb6\u0cbe\u0cb2\u0cc6, \u0cae\u0ca6\u0ccd\u0ca6\u0ccb\u0ca1\u0cbf"}}, {"type": "way", "id": 662180156, "nodes": [6199348372, 6199348371, 6199348370, 6199348369, 6199348372], "tags": {"amenity": "school", "name": "Government Higher Primary School, Golihole", "name:kn": "\u0cb8\u0cb0\u0ccd\u0c95\u0cbe\u0cb0\u0cbf \u0cb9\u0cbf\u0cb0\u0cbf\u0caf \u0caa\u0ccd\u0cb0\u0cbe\u0ca5\u0cae\u0cbf\u0c95 \u0cb6\u0cbe\u0cb2\u0cc6"}}, {"type": "way", "id": 664414579, "nodes": [6218725350, 6218725349, 6218725348, 12122233218, 12122233217, 12122233216, 6218725347, 6218725346, 6218725345, 6218725350], "tags": {"amenity": "school", "name": "Government Higher Primary School, Aloor", "name:kn": "\u0cb8\u0cb0\u0ccd\u0c95\u0cbe\u0cb0\u0cbf \u0cb9\u0cbf\u0cb0\u0cbf\u0caf \u0caa\u0ccd\u0cb0\u0cbe\u0ca5\u0cae\u0cbf\u0c95 \u0cb6\u0cbe\u0cb2\u0cc6, \u0c85\u0cb2\u0cc2\u0cb0\u0cc1"}}, {"type": "relation", "id": 9190859, "members": [{"type": "way", "ref": 660973504, "role": "outer"}, {"type": "way", "ref": 660973502, "role": "inner"}, {"type": "way", "ref": 660973503, "role": "inner"}], "tags": {"addr:district": "Uttara Kannada", "addr:full": "Near Anand Ashram Convent, Bhatkal, Sunday Market Road", "addr:postcode": "581320", "addr:state": "Karnataka", "amenity": "hospital", "description": "Sub-District Hospital", "is_in": "Bhatkal", "name": "Taluka Hospital, Bhatkal", "name:kn": "\u0cb8\u0cb0\u0ccd\u0c95\u0cbe\u0cb0\u0cbf \u0c86\u0cb8\u0ccd\u0caa\u0ca4\u0ccd\u0cb0\u0cc6", "source": "OpenGovernmentData", "type": "multipolygon"}}, {"type": "relation", "id": 9193504, "members": [{"type": "way", "ref": 661222434, "role": "outer"}, {"type": "way", "ref": 661222433, "role": "outer"}], "tags": {"amenity": "school", "name": "Government Higher Primary School, Kotebagilu, Paduvari", "name:kn": "\u0cb8\u0cb0\u0ccd\u0c95\u0cbe\u0cb0\u0cbf \u0cb9\u0cbf\u0cb0\u0cbf\u0caf \u0caa\u0ccd\u0cb0\u0cbe\u0ca5\u0cae\u0cbf\u0c95 \u0cb6\u0cbe\u0cb2\u0cc6", "type": "multipolygon"}}]}