{"version": 0.6, "generator": "Overpass API 0.7.62.8 e802775f", "osm3s": {"timestamp_osm_base": "2025-10-04T18:41:00Z", "copyright": "The data included in this document is from www.openstreetmap.org. The data is made available under ODbL."}, "elements": [{"type": "node", "id": 1659317774, "lat": 13.7030919, "lon": 74.9991507, "tags": {"name": "Varahi underground Powerhouse", "operator": "Karnataka Power Corporation Limited", "plant:output:electricity": "460 MW", "plant:source": "hydro", "power": "plant", "source": "http://karnatakapower.com/wp-content/uploads/2014/06/kpcl_project_details-2014.xls1.pdf?x86893", "wikidata": "Q12009005"}}, {"type": "node", "id": 1716305138, "lat": 13.7030025, "lon": 74.9981951}, {"type": "node", "id": 1716305166, "lat": 13.702952, "lon": 75.0001312}, {"type": "node", "id": 1716305192, "lat": 13.7034046, "lon": 74.9983005}, {"type": "node", "id": 1716305201, "lat": 13.7025499, "lon": 75.0000258}, {"type": "node", "id": 1716310445, "lat": 13.7028844, "lon": 74.9986729}, {"type": "node", "id": 1791614229, "lat": 13.7303558, "lon": 75.0140643}, {"type": "node", "id": 1820087210, "lat": 13.7298678, "lon": 75.0144404}, {"type": "node", "id": 1820087259, "lat": 13.7301849, "lon": 75.0136873}, {"type": "node", "id": 1820087267, "lat": 13.7304086, "lon": 75.0141808}, {"type": "node", "id": 1820087293, "lat": 13.7296442, "lon": 75.0139469}, {"type": "node", "id": 1832101511, "lat": 13.6764958, "lon": 75.0468721}, {"type": "node", "id": 1832101519, "lat": 13.6766713, "lon": 75.0469076}, {"type": "node", "id": 1832101522, "lat": 13.6765785, "lon": 75.0464385}, {"type": "node", "id": 1832101542, "lat": 13.6767541, "lon": 75.046474}, {"type": "node", "id": 1895933854, "lat": 13.9080537, "lon": 75.0621932, "tags": {"amenity": "school", "name": "Holy Redeemer School"}}, {"type": "node", "id": 1896036430, "lat": 13.9146179, "lon": 75.0649504, "tags": {"addr:district": "Shimoga", "addr:full": "Near Primary Boys & Girls School, Hosanagara", "addr:postcode": "577418", "addr:state": "Karnataka", "addr:subdistrict": "Hosanagara", "amenity": "hospital", "contact:phone": "08185 221202", "emergency": "yes", "name": "Government Hospital", "name:kn": "\u0cb8\u0cb0\u0ccd\u0c95\u0cbe\u0cb0\u0cbf \u0c86\u0cb8\u0ccd\u0caa\u0ca4\u0ccd\u0cb0\u0cc6", "source": "OpenGovernmentData"}}, {"type": "node", "id": 1896037066, "lat": 13.9074842, "lon": 75.0618001}, {"type": "node", "id": 1896037075, "lat": 13.9076847, "lon": 75.0615507}, {"type": "node", "id": 1896037077, "lat": 13.9077701, "lon": 75.0614933}, {"type": "node", "id": 1896037079, "lat": 13.9076711, "lon": 75.061555}, {"type": "node", "id": 1896037083, "lat": 13.9074342, "lon": 75.0617052}, {"type": "node", "id": 1896037091, "lat": 13.9077258, "lon": 75.0616462}, {"type": "node", "id": 1896037098, "lat": 13.9080101, "lon": 75.0620764}, {"type": "node", "id": 1896037100, "lat": 13.9080773, "lon": 75.062019}, {"type": "node", "id": 1897881117, "lat": 13.8091175, "lon": 75.1657436, "tags": {"amenity": "school", "name": "Government School", "name:kn": "\u0cb8\u0cb0\u0ccd\u0c95\u0cbe\u0cb0\u0cbf \u0cb6\u0cbe\u0cb2\u0cc6"}}, {"type": "node", "id": 2246014835, "lat": 13.615098, "lon": 74.8665639, "tags": {"amenity": "school", "name": "Government Junior College, Shankaranarayana", "name:kn": "\u0cb8\u0cb0\u0ccd\u0c95\u0cbe\u0cb0\u0cbf \u0c9c\u0cc2\u0ca8\u0cbf\u0caf\u0cb0\u0ccd \u0c95\u0cbe\u0cb2\u0cc7\u0c9c\u0cc1, \u0cb6\u0c82\u0c95\u0cb0\u0ca8\u0cbe\u0cb0\u0cbe\u0caf\u0ca3"}}, {"type": "node", "id": 2622816932, "lat": 13.6762505, "lon": 75.047107}, {"type": "node", "id": 2622816933, "lat": 13.6763292, "lon": 75.0467109}, {"type": "node", "id": 2622816937, "lat": 13.676432, "lon": 75.0471452}, {"type": "node", "id": 2622816939, "lat": 13.6765107, "lon": 75.0467491}, {"type": "node", "id": 2622817067, "lat": 13.6872133, "lon": 74.9757267}, {"type": "node", "id": 2622817072, "lat": 13.6873881, "lon": 74.9765361}, {"type": "node", "id": 2622817079, "lat": 13.6875096, "lon": 74.9767271}, {"type": "node", "id": 2622817086, "lat": 13.6876165, "lon": 74.9754784}, {"type": "node", "id": 2622817089, "lat": 13.6877123, "lon": 74.9763177}, {"type": "node", "id": 2622817090, "lat": 13.6877573, "lon": 74.9763883}, {"type": "node", "id": 2622817093, "lat": 13.6877965, "lon": 74.9760416}, {"type": "node", "id": 2622817095, "lat": 13.6878651, "lon": 74.9763157}, {"type": "node", "id": 2622817099, "lat": 13.6879416, "lon": 74.976436}, {"type": "node", "id": 2622817109, "lat": 13.6881565, "lon": 74.9757581}, {"type": "node", "id": 2622817111, "lat": 13.6881791, "lon": 74.976157}, {"type": "node", "id": 2622817121, "lat": 13.6885049, "lon": 74.9766168}, {"type": "node", "id": 2622817125, "lat": 13.6886627, "lon": 74.9757064}, {"type": "node", "id": 2622817128, "lat": 13.688678, "lon": 74.9757732}, {"type": "node", "id": 2622817132, "lat": 13.6888027, "lon": 74.9756553}, {"type": "node", "id": 2622817134, "lat": 13.6888346, "lon": 74.9761675}, {"type": "node", "id": 2622817141, "lat": 13.6888931, "lon": 74.9762709}, {"type": "node", "id": 2622817148, "lat": 13.6890649, "lon": 74.9758675}, {"type": "node", "id": 2622817153, "lat": 13.6891438, "lon": 74.9759697}, {"type": "node", "id": 2622817325, "lat": 13.694272, "lon": 74.9534472}, {"type": "node", "id": 2622817333, "lat": 13.694497, "lon": 74.9541678}, {"type": "node", "id": 2622817347, "lat": 13.6950315, "lon": 74.9532934}, {"type": "node", "id": 2622817352, "lat": 13.6952079, "lon": 74.9539455}, {"type": "node", "id": 2728343976, "lat": 13.6226651, "lon": 74.9731411, "tags": {"amenity": "school"}}, {"type": "node", "id": 2792800008, "lat": 13.8631234, "lon": 74.8103592, "tags": {"amenity": "school", "name": "Government Higher Primary School, Kollur", "name:kn": "\u0cb8\u0cb0\u0ccd\u0c95\u0cbe\u0cb0\u0cbf \u0cb9\u0cbf\u0cb0\u0cbf\u0caf \u0caa\u0ccd\u0cb0\u0cbe\u0ca5\u0cae\u0cbf\u0c95 \u0cb6\u0cbe\u0cb2\u0cc6"}}, {"type": "node", "id": 2792806008, "lat": 13.8073521, "lon": 74.8714931, "tags": {"amenity": "school", "name": "Shree Matha Higher Primary School, Mudur"}}, {"type": "node", "id": 2792806009, "lat": 13.8098471, "lon": 74.8839278, "tags": {"amenity": "school", "name": "Bharath Mata High School, Mudoor", "name:kn": "\u0cad\u0cbe\u0cb0\u0ca4 \u0cae\u0cbe\u0ca4 \u0caa\u0ccd\u0cb0\u0ccc\u0ca1\u0cb6\u0cbe\u0cb2\u0cc6, \u0cae\u0cc1\u0ca6\u0cc2\u0cb0\u0cc1"}}, {"type": "node", "id": 2792807946, "lat": 13.7991626, "lon": 74.8317671, "tags": {"amenity": "school", "name": "Secread Heart Convent School, Beesina Pare, Jadkal"}}, {"type": "node", "id": 2792816587, "lat": 13.8075811, "lon": 74.8356778, "tags": {"amenity": "school", "name": "Government Higher Primary School, Selkodu", "name:kn": "\u0cb8\u0cb0\u0ccd\u0c95\u0cbe\u0cb0\u0cbf \u0cb9\u0cbf\u0cb0\u0cbf\u0caf \u0caa\u0ccd\u0cb0\u0cbe\u0ca5\u0cae\u0cbf\u0c95 \u0cb6\u0cbe\u0cb2\u0cc6"}}, {"type": "node", "id": 2792867735, "lat": 13.8065131, "lon": 74.8040516, "tags": {"amenity": "school", "name": "Government Higher Primary School, Jadkal", "name:kn": "\u0cb8\u0cb0\u0ccd\u0c95\u0cbe\u0cb0\u0cbf \u0cb9\u0cbf\u0cb0\u0cbf\u0caf \u0caa\u0ccd\u0cb0\u0cbe\u0ca5\u0cae\u0cbf\u0c95 \u0cb6\u0cbe\u0cb2\u0cc6"}}, {"type": "node", "id": 2792870088, "lat": 13.7548976, "lon": 74.7824008, "tags": {"amenity": "school", "name": "Government Higher Primary School, Idur Kunjadi", "name:kn": "\u0cb8\u0cb0\u0ccd\u0c95\u0cbe\u0cb0\u0cbf \u0cb9\u0cbf\u0cb0\u0cbf\u0caf \u0caa\u0ccd\u0cb0\u0cbe\u0ca5\u0cae\u0cbf\u0c95 \u0cb6\u0cbe\u0cb2\u0cc6"}}, {"type": "node", "id": 2795722794, "lat": 13.7300132, "lon": 74.7803519, "tags": {"amenity": "school", "name": "Government Higher Primary. School, Maranakatte, Chittur", "name:kn": "\u0cb8\u0cb0\u0ccd\u0c95\u0cbe\u0cb0\u0cbf \u0cb9\u0cbf\u0cb0\u0cbf\u0caf \u0caa\u0ccd\u0cb0\u0cbe\u0ca5\u0cae\u0cbf\u0c95 \u0cb6\u0cbe\u0cb2\u0cc6"}}, {"type": "node", "id": 2795735786, "lat": 13.7679026, "lon": 74.8016889, "tags": {"amenity": "school", "name": "Government Higher Primary School, Hosur", "name:kn": "\u0cb8\u0cb0\u0ccd\u0c95\u0cbe\u0cb0\u0cbf \u0cb9\u0cbf\u0cb0\u0cbf\u0caf \u0caa\u0ccd\u0cb0\u0cbe\u0ca5\u0cae\u0cbf\u0c95 \u0cb6\u0cbe\u0cb2\u0cc6 \u0cb9\u0cca\u0cb8\u0cc2\u0cb0\u0cc1"}}, {"type": "node", "id": 2795737618, "lat": 13.7546993, "lon": 74.8108969, "tags": {"amenity": "school", "name": "Government Higher Primary. School Melhosur", "name:kn": "\u0cb8\u0cb0\u0ccd\u0c95\u0cbe\u0cb0\u0cbf \u0cb9\u0cbf\u0cb0\u0cbf\u0caf \u0caa\u0ccd\u0cb0\u0cbe\u0ca5\u0cae\u0cbf\u0c95 \u0cb6\u0cbe\u0cb2\u0cc6"}}, {"type": "node", "id": 2795740421, "lat": 13.7464327, "lon": 74.8395482, "tags": {"amenity": "school", "name": "Government Higher Primary School, Keradi", "name:kn": "\u0cb8\u0cb0\u0ccd\u0c95\u0cbe\u0cb0\u0cbf \u0cb9\u0cbf\u0cb0\u0cbf\u0caf \u0caa\u0ccd\u0cb0\u0cbe\u0ca5\u0cae\u0cbf\u0c95 \u0cb6\u0cbe\u0cb2\u0cc6"}}, {"type": "node", "id": 2795744848, "lat": 13.7548141, "lon": 74.9115307, "tags": {"amenity": "school", "name": "Government Higher Primary School, Sulugodu", "name:kn": "\u0cb8\u0cb0\u0ccd\u0c95\u0cbe\u0cb0\u0cbf \u0cb9\u0cbf\u0cb0\u0cbf\u0caf \u0caa\u0ccd\u0cb0\u0cbe\u0ca5\u0cae\u0cbf\u0c95 \u0cb6\u0cbe\u0cb2\u0cc6"}}, {"type": "node", "id": 2795744861, "lat": 13.741657, "lon": 74.8976716, "tags": {"amenity": "school", "name": "Government Higher Primary School, Hallihole", "name:kn": "\u0cb8\u0cb0\u0ccd\u0c95\u0cbe\u0cb0\u0cbf \u0cb9\u0cbf\u0cb0\u0cbf\u0caf \u0caa\u0ccd\u0cb0\u0cbe\u0ca5\u0cae\u0cbf\u0c95 \u0cb6\u0cbe\u0cb2\u0cc6"}}, {"type": "node", "id": 2795747619, "lat": 13.708506, "lon": 74.8881686, "tags": {"amenity": "school", "name": "Government Lower Primary School, Yelaberu, Kamalashile", "name:kn": "\u0cb8\u0cb0\u0ccd\u0c95\u0cbe\u0cb0\u0cbf \u0c95\u0cbf\u0cb0\u0cbf\u0caf \u0caa\u0ccd\u0cb0\u0cbe\u0ca5\u0cae\u0cbf\u0c95 \u0cb6\u0cbe\u0cb2\u0cc6"}}, {"type": "node", "id": 2795763475, "lat": 13.7064919, "lon": 74.85356, "tags": {"amenity": "school", "name": "Government Higher Primary School, Mortu, Bellal", "name:kn": "\u0cb8\u0cb0\u0ccd\u0c95\u0cbe\u0cb0\u0cbf \u0cb9\u0cbf\u0cb0\u0cbf\u0caf \u0caa\u0ccd\u0cb0\u0cbe\u0ca5\u0cae\u0cbf\u0c95 \u0cb6\u0cbe\u0cb2\u0cc6"}}, {"type": "node", "id": 2795764743, "lat": 13.7088238, "lon": 74.8258877, "tags": {"amenity": "school", "name": "Sharada Aided Higher Primary School, Mudumunda, Bellal"}}, {"type": "node", "id": 2795769527, "lat": 13.7172065, "lon": 74.8034403, "tags": {"amenity": "school", "name": "Government Higher Primary School, Nandroli, Bellal", "name:kn": "\u0cb8\u0cb0\u0ccd\u0c95\u0cbe\u0cb0\u0cbf \u0cb9\u0cbf\u0cb0\u0cbf\u0caf \u0caa\u0ccd\u0cb0\u0cbe\u0ca5\u0cae\u0cbf\u0c95 \u0cb6\u0cbe\u0cb2\u0cc6"}}, {"type": "node", "id": 2795781463, "lat": 13.7065336, "lon": 74.7622844, "tags": {"amenity": "school", "name": "Government Higher Primary School, Vandse", "name:kn": "\u0cb8\u0cb0\u0ccd\u0c95\u0cbe\u0cb0\u0cbf \u0cb9\u0cbf\u0cb0\u0cbf\u0caf \u0caa\u0ccd\u0cb0\u0cbe\u0ca5\u0cae\u0cbf\u0c95 \u0cb6\u0cbe\u0cb2\u0cc6"}}, {"type": "node", "id": 2795900528, "lat": 13.6728692, "lon": 74.7498872, "tags": {"amenity": "school", "name": "Government Lower Primary School, Kenchanur", "name:en": "Higher Primary School, Kenchanur", "name:kn": "\u0cb8\u0cb0\u0ccd\u0c95\u0cbe\u0cb0\u0cbf \u0c95\u0cbf\u0cb0\u0cbf\u0caf \u0caa\u0ccd\u0cb0\u0cbe\u0ca5\u0cae\u0cbf\u0c95 \u0cb6\u0cbe\u0cb2\u0cc6"}}, {"type": "node", "id": 2795906999, "lat": 13.6470373, "lon": 74.7525401, "tags": {"amenity": "school", "name": "Sarvodaya Aided Primary School,Gulvadi"}}, {"type": "node", "id": 2795911763, "lat": 13.6519822, "lon": 74.7670373, "tags": {"amenity": "school", "name": "Government Lower Primary School, Sowkur", "name:en": "Higher Primary School, Sowkur", "name:kn": "\u0cb8\u0cb0\u0ccd\u0c95\u0cbe\u0cb0\u0cbf \u0c95\u0cbf\u0cb0\u0cbf\u0caf \u0caa\u0ccd\u0cb0\u0cbe\u0ca5\u0cae\u0cbf\u0c95 \u0cb6\u0cbe\u0cb2\u0cc6 \u0cb8\u0ccc\u0c95\u0cc2\u0cb0\u0cc1"}}, {"type": "node", "id": 2795918253, "lat": 13.6948074, "lon": 74.7675088, "tags": {"amenity": "school", "name": "Government Junior College Vandse", "name:kn": "\u0cb8\u0cb0\u0ccd\u0c95\u0cbe\u0cb0\u0cbf \u0c9c\u0cc2\u0ca8\u0cbf\u0caf\u0cb0\u0ccd \u0c95\u0cbe\u0cb2\u0cc7\u0c9c\u0cc1, \u0cb5\u0c82\u0ca1\u0ccd\u0cb8\u0cc6"}}, {"type": "node", "id": 2795919500, "lat": 13.6724362, "lon": 74.7795982, "tags": {"amenity": "school", "name": "Government Higher Primary School, Karkunje", "name:kn": "\u0cb8\u0cb0\u0ccd\u0c95\u0cbe\u0cb0\u0cbf \u0cb9\u0cbf\u0cb0\u0cbf\u0caf \u0caa\u0ccd\u0cb0\u0cbe\u0ca5\u0cae\u0cbf\u0c95 \u0cb6\u0cbe\u0cb2\u0cc6"}}, {"type": "node", "id": 2796613233, "lat": 13.6755011, "lon": 74.8435929, "tags": {"amenity": "school", "name": "Government Higher Primary School, Mardi, Kodladi", "name:kn": "\u0cb8\u0cb0\u0ccd\u0c95\u0cbe\u0cb0\u0cbf \u0cb9\u0cbf\u0cb0\u0cbf\u0caf \u0caa\u0ccd\u0cb0\u0cbe\u0ca5\u0cae\u0cbf\u0c95 \u0cb6\u0cbe\u0cb2\u0cc6, \u0cae\u0cbe\u0cb0\u0ccd\u0ca1\u0cbf"}}, {"type": "node", "id": 2796613234, "lat": 13.6885157, "lon": 74.829302, "tags": {"amenity": "school", "name": "Government Lower Primary School, Bandya, Kodladi", "name:kn": "\u0cb8\u0cb0\u0ccd\u0c95\u0cbe\u0cb0\u0cbf \u0c95\u0cbf\u0cb0\u0cbf\u0caf \u0caa\u0ccd\u0cb0\u0cbe\u0ca5\u0cae\u0cbf\u0c95 \u0cb6\u0cbe\u0cb2\u0cc6"}}, {"type": "node", "id": 2796621518, "lat": 13.6875723, "lon": 74.8696103, "tags": {"amenity": "school", "name": "Government Model Higher Primary School, Ajri Hara", "name:kn": "\u0cb8\u0cb0\u0ccd\u0c95\u0cbe\u0cb0\u0cbf \u0cae\u0cbe\u0ca6\u0cb0\u0cbf \u0caa\u0ccd\u0cb0\u0cbe\u0ca5\u0cae\u0cbf\u0c95 \u0cb6\u0cbe\u0cb2\u0cc6"}}, {"type": "node", "id": 2796627761, "lat": 13.7080389, "lon": 74.9106803, "tags": {"amenity": "school", "name": "Government Lower Primary School, Ajri, Mananje", "name:en": "Govt Higher Primary School, Ajri, Mananje", "name:kn": "\u0cb8\u0cb0\u0ccd\u0c95\u0cbe\u0cb0\u0cbf \u0c95\u0cbf\u0cb0\u0cbf\u0caf \u0caa\u0ccd\u0cb0\u0cbe\u0ca5\u0cae\u0cbf\u0c95 \u0cb6\u0cbe\u0cb2\u0cc6"}}, {"type": "node", "id": 2796642742, "lat": 13.7333921, "lon": 74.960446, "tags": {"amenity": "school", "name": "Government Lower Primary School, Yedamoge, Halawarimath", "name:kn": "\u0cb8\u0cb0\u0ccd\u0c95\u0cbe\u0cb0\u0cbf \u0c95\u0cbf\u0cb0\u0cbf\u0caf \u0caa\u0ccd\u0cb0\u0cbe\u0ca5\u0cae\u0cbf\u0c95 \u0cb6\u0cbe\u0cb2\u0cc6"}}, {"type": "node", "id": 2796642745, "lat": 13.7255441, "lon": 74.9356409, "tags": {"amenity": "school", "name": "Government Higher Primary School, Yedamoge, Vraddikan", "name:kn": "\u0cb8\u0cb0\u0ccd\u0c95\u0cbe\u0cb0\u0cbf \u0cb9\u0cbf\u0cb0\u0cbf\u0caf \u0caa\u0ccd\u0cb0\u0cbe\u0ca5\u0cae\u0cbf\u0c95 \u0cb6\u0cbe\u0cb2\u0cc6"}}, {"type": "node", "id": 2796653075, "lat": 13.6979751, "lon": 74.9626347, "tags": {"amenity": "school", "name": "Government Higher Primary School, Hosangadi", "name:kn": "\u0cb8\u0cb0\u0ccd\u0c95\u0cbe\u0cb0\u0cbf \u0cb9\u0cbf\u0cb0\u0cbf\u0caf \u0caa\u0ccd\u0cb0\u0cbe\u0ca5\u0cae\u0cbf\u0c95 \u0cb6\u0cbe\u0cb2\u0cc6"}}, {"type": "node", "id": 2796653076, "lat": 13.6983816, "lon": 74.9604138, "tags": {"amenity": "school", "name": "Govt. Junior College, Hosangadi"}}, {"type": "node", "id": 2796660047, "lat": 13.6638981, "lon": 74.9866833, "tags": {"amenity": "school", "name": "Government Higher Primary School, Tombattu", "name:kn": "\u0cb8\u0cb0\u0ccd\u0c95\u0cbe\u0cb0\u0cbf \u0cb9\u0cbf\u0cb0\u0cbf\u0caf \u0caa\u0ccd\u0cb0\u0cbe\u0ca5\u0cae\u0cbf\u0c95 \u0cb6\u0cbe\u0cb2\u0cc6"}}, {"type": "node", "id": 2796675184, "lat": 13.6247433, "lon": 74.9272724, "tags": {"amenity": "school", "name": "Government Lower Primary School, Kalina jaddu, Ulloor 74 Village", "name:kn": "\u0cb8\u0cb0\u0ccd\u0c95\u0cbe\u0cb0\u0cbf \u0c95\u0cbf\u0cb0\u0cbf\u0caf \u0caa\u0ccd\u0cb0\u0cbe\u0ca5\u0cae\u0cbf\u0c95 \u0cb6\u0cbe\u0cb2\u0cc6"}}, {"type": "node", "id": 2796679079, "lat": 13.6305976, "lon": 74.9022958, "tags": {"amenity": "school", "name": "Government Higher Primary School, Ulloor 74", "name:kn": "\u0cb8\u0cb0\u0ccd\u0c95\u0cbe\u0cb0\u0cbf \u0cb9\u0cbf\u0cb0\u0cbf\u0caf \u0caa\u0ccd\u0cb0\u0cbe\u0ca5\u0cae\u0cbf\u0c95 \u0cb6\u0cbe\u0cb2\u0cc6"}}, {"type": "node", "id": 2796682211, "lat": 13.6647744, "lon": 74.9137431, "tags": {"amenity": "school", "name": "Government High School, Siddapura", "name:kn": "\u0cb8\u0cb0\u0ccd\u0c95\u0cbe\u0cb0\u0cbf \u0caa\u0ccd\u0cb0\u0ccc\u0ca2 \u0cb6\u0cbe\u0cb2\u0cc6"}}, {"type": "node", "id": 2796682212, "lat": 13.6583365, "lon": 74.9073329, "tags": {"amenity": "school", "name": "Government Model Higher Primary School, Siddapura", "name:kn": "\u0cb8\u0cb0\u0ccd\u0c95\u0cbe\u0cb0\u0cbf \u0cae\u0cbe\u0ca6\u0cb0\u0cbf \u0cb9\u0cbf\u0cb0\u0cbf\u0caf \u0caa\u0ccd\u0cb0\u0cbe\u0ca5\u0cae\u0cbf\u0c95 \u0cb6\u0cbe\u0cb2\u0cc6"}}, {"type": "node", "id": 2796684859, "lat": 13.6610836, "lon": 74.8847701, "tags": {"amenity": "school", "name": "Harsha Aided Higher Primary School, Chonali, Siddapura"}}, {"type": "node", "id": 2796709630, "lat": 13.6271152, "lon": 74.8199519, "tags": {"amenity": "school", "name": "Government Higher Primary School, Bailoor", "name:kn": "\u0cb8\u0cb0\u0ccd\u0c95\u0cbe\u0cb0\u0cbf \u0cb9\u0cbf\u0cb0\u0cbf\u0caf \u0caa\u0ccd\u0cb0\u0cbe\u0ca5\u0cae\u0cbf\u0c95 \u0cb6\u0cbe\u0cb2\u0cc6"}}, {"type": "node", "id": 2796715707, "lat": 13.6537803, "lon": 74.8463663, "tags": {"amenity": "school", "name": "Government Higher Primary School, Moodubage", "name:en": "Moodubage", "name:kn": "\u0cb8\u0cb0\u0ccd\u0c95\u0cbe\u0cb0\u0cbf \u0cb9\u0cbf\u0cb0\u0cbf\u0caf \u0caa\u0ccd\u0cb0\u0cbe\u0ca5\u0cae\u0cbf\u0c95 \u0cb6\u0cbe\u0cb2\u0cc6"}}, {"type": "node", "id": 2796717938, "lat": 13.6471497, "lon": 74.8236158, "tags": {"amenity": "school", "name": "Government Higher Primary School, Moorukai, Ampar", "name:kn": "\u0cb8\u0cb0\u0ccd\u0c95\u0cbe\u0cb0\u0cbf \u0cb9\u0cbf\u0cb0\u0cbf\u0caf \u0caa\u0ccd\u0cb0\u0cbe\u0ca5\u0cae\u0cbf\u0c95 \u0cb6\u0cbe\u0cb2\u0cc6"}}, {"type": "node", "id": 2796741672, "lat": 13.639205, "lon": 74.8022064, "tags": {"amenity": "school", "name": "Jai Bharathi Higher Primary School, Nellikatte, Ampar", "name:kn": "\u0c9c\u0cc8 \u0cad\u0cbe\u0cb0\u0ca4\u0cbf \u0cb9\u0cbf\u0cb0\u0cbf\u0caf \u0caa\u0ccd\u0cb0\u0cbe\u0ca5\u0cae\u0cbf\u0c95 \u0cb6\u0cbe\u0cb2\u0cc6 \u0ca8\u0cc6\u0cb2\u0ccd\u0cb2\u0cbf\u0c95\u0c9f\u0ccd\u0c9f\u0cc6"}}, {"type": "node", "id": 2796741710, "lat": 13.6367963, "lon": 74.7653, "tags": {"amenity": "school", "name": "Government Higher Primary School, Kannada, Kandlur", "name:kn": "\u0cb8\u0cb0\u0ccd\u0c95\u0cbe\u0cb0\u0cbf \u0cb9\u0cbf\u0cb0\u0cbf\u0caf \u0caa\u0ccd\u0cb0\u0cbe\u0ca5\u0cae\u0cbf\u0c95 \u0cb6\u0cbe\u0cb2\u0cc6"}}, {"type": "node", "id": 2796741889, "lat": 13.6359152, "lon": 74.7649191, "tags": {"amenity": "school", "name": "Government Urdu Higher Primary School, Kandlur", "name:kn": "\u0cb8\u0cb0\u0ccd\u0c95\u0cbe\u0cb0\u0cbf \u0c89\u0cb0\u0ccd\u0ca6\u0cc1 \u0cb9\u0cbf\u0cb0\u0cbf\u0caf \u0caa\u0ccd\u0cb0\u0cbe\u0ca5\u0cae\u0cbf\u0c95 \u0cb6\u0cbe\u0cb2\u0cc6"}}, {"type": "node", "id": 2796741921, "lat": 13.637297, "lon": 74.7722684, "tags": {"amenity": "school", "name": "Netaji Higher Primary School, Halnadu", "name:kn": "\u0ca8\u0cc7\u0ca4\u0cbe\u0c9c\u0cbf \u0cb9\u0cbf\u0cb0\u0cbf\u0caf \u0caa\u0ccd\u0cb0\u0cbe\u0ca5\u0cae\u0cbf\u0c95 \u0cb6\u0cbe\u0cb2\u0cc6"}}, {"type": "node", "id": 2796743875, "lat": 13.6510907, "lon": 74.7827067, "tags": {"amenity": "school", "name": "Government Higher Primary School, Muduvalthur, Kavradi", "name:kn": "\u0cb8\u0cb0\u0ccd\u0c95\u0cbe\u0cb0\u0cbf \u0cb9\u0cbf\u0cb0\u0cbf\u0caf \u0caa\u0ccd\u0cb0\u0cbe\u0ca5\u0cae\u0cbf\u0c95 \u0cb6\u0cbe\u0cb2\u0cc6"}}, {"type": "node", "id": 6217256672, "lat": 13.6621804, "lon": 74.7639558}, {"type": "node", "id": 6217256673, "lat": 13.6615419, "lon": 74.7641569}, {"type": "node", "id": 6217256674, "lat": 13.661031, "lon": 74.7641918}, {"type": "node", "id": 6217256675, "lat": 13.6608747, "lon": 74.7641596}, {"type": "node", "id": 6217256676, "lat": 13.6608642, "lon": 74.7647256}, {"type": "node", "id": 6217256677, "lat": 13.6609398, "lon": 74.76549}, {"type": "node", "id": 6217256678, "lat": 13.6613386, "lon": 74.7654337}, {"type": "node", "id": 6217256679, "lat": 13.6627121, "lon": 74.7646692}, {"type": "node", "id": 6217256680, "lat": 13.6623785, "lon": 74.7638646}, {"type": "node", "id": 6397536887, "lat": 13.6392955, "lon": 74.801276, "tags": {"amenity": "school"}}, {"type": "node", "id": 6397536888, "lat": 13.647142, "lon": 74.8236273, "tags": {"amenity": "school", "name": "Ampar"}}, {"type": "node", "id": 6397536889, "lat": 13.658337, "lon": 74.9073501, "tags": {"amenity": "school"}}, {"type": "node", "id": 6397537185, "lat": 13.6473088, "lon": 74.8226349, "tags": {"amenity": "school"}}, {"type": "node", "id": 6397537188, "lat": 13.6043657, "lon": 74.9440562, "tags": {"amenity": "school", "name": "Amasebail School", "name:en": "Government Higher Primary School Amasebail"}}, {"type": "node", "id": 6397537285, "lat": 13.636654, "lon": 74.7722634, "tags": {"amenity": "school"}}, {"type": "node", "id": 6397537689, "lat": 13.8098818, "lon": 74.8840989, "tags": {"amenity": "school", "name": "Bharath Matha Higher Primary School, Mudoor."}}, {"type": "node", "id": 6403451586, "lat": 13.6657064, "lon": 74.9142906, "tags": {"amenity": "hospital", "name": "PHC Siddapura", "name:kn": "\u0caa\u0ccd\u0cb0\u0cbe\u0ca5\u0cae\u0cbf\u0c95 \u0c86\u0cb0\u0ccb\u0c97\u0ccd\u0caf \u0c95\u0cc7\u0c82\u0ca6\u0ccd\u0cb0 \u0cb8\u0cbf\u0ca6\u0ccd\u0ca6\u0cbe\u0caa\u0cc1\u0cb0"}}, {"type": "node", "id": 6403453186, "lat": 13.6559906, "lon": 74.7989055, "tags": {"amenity": "school", "name": "Government Higher Primary School, Mudu Valthur.", "name:kn": "\u0cb8\u0cb0\u0ccd\u0c95\u0cbe\u0cb0\u0cbf \u0cb9\u0cbf\u0cb0\u0cbf\u0caf \u0caa\u0ccd\u0cb0\u0cbe\u0ca5\u0cae\u0cbf\u0c95 \u0cb6\u0cbe\u0cb2\u0cc6"}}, {"type": "node", "id": 6403453286, "lat": 13.6187501, "lon": 74.8718144, "tags": {"amenity": "school", "name": "Higher Primary School, Kullanje", "name:kn": "\u0cb9\u0cbf\u0cb0\u0cbf\u0caf \u0caa\u0ccd\u0cb0\u0cbe\u0ca5\u0cae\u0cbf\u0c95 \u0cb6\u0cbe\u0cb2\u0cc6"}}, {"type": "node", "id": 6403568186, "lat": 13.6102243, "lon": 74.9987061, "tags": {"amenity": "school", "name": "Government Higher Primary School, Jaddinagadde", "name:kn": "\u0cb8\u0cb0\u0ccd\u0c95\u0cbe\u0cb0\u0cbf \u0cb9\u0cbf\u0cb0\u0cbf\u0caf \u0caa\u0ccd\u0cb0\u0cbe\u0ca5\u0cae\u0cbf\u0c95 \u0cb6\u0cbe\u0cb2\u0cc6"}}, {"type": "node", "id": 6403686486, "lat": 13.6102328, "lon": 74.9410191, "tags": {"amenity": "school", "name": "Government Higher Primary School, Machattu", "name:kn": "\u0cb8\u0cb0\u0ccd\u0c95\u0cbe\u0cb0\u0cbf \u0cb9\u0cbf\u0cb0\u0cbf\u0caf \u0caa\u0ccd\u0cb0\u0cbe\u0ca5\u0cae\u0cbf\u0c95 \u0cb6\u0cbe\u0cb2\u0cc6"}}, {"type": "node", "id": 7202876188, "lat": 13.7459147, "lon": 74.9022062, "tags": {"addr:district": "Udupi", "addr:full": "Hallihole Proper", "addr:postcode": "576229", "addr:state": "Karnataka", "addr:subdistrict": "Kundapura", "amenity": "hospital", "contact:phone": "08259-277368", "name": "Government Hospital, Hallihole", "name:kn": "\u0cb8\u0cb0\u0ccd\u0c95\u0cbe\u0cb0\u0cbf \u0c86\u0cb8\u0ccd\u0caa\u0ca4\u0ccd\u0cb0\u0cc6", "source": "OpenGovernmentData"}}, {"type": "node", "id": 7202876204, "lat": 13.631449, "lon": 74.739063, "tags": {"addr:district": "Chikmagalur", "addr:full": "Near Post Office, Basroor", "addr:postcode": "576211", "addr:state": "Karnataka", "addr:subdistrict": "Kadur", "amenity": "hospital", "contact:phone": "8267241055", "description": "Government Hospital", "name": "Government Hospital, Basroor", "name:kn": "\u0cb8\u0cb0\u0ccd\u0c95\u0cbe\u0cb0\u0cbf \u0c86\u0cb8\u0ccd\u0caa\u0ca4\u0ccd\u0cb0\u0cc6 \u0cac\u0cb8\u0ccd\u0cb0\u0cc2\u0cb0\u0cc1", "source": "OpenGovernmentData"}}, {"type": "node", "id": 7202876241, "lat": 13.8255026, "lon": 75.0319998, "tags": {"addr:district": "Shimoga", "addr:full": "Nagara", "addr:postcode": "577425", "addr:state": "Karnataka", "addr:subdistrict": "Hosanagara", "amenity": "hospital", "contact:phone": "08185 243831", "name": "Government Hospital, Nagara", "name:kn": "\u0cb8\u0cb0\u0ccd\u0c95\u0cbe\u0cb0\u0cbf \u0c86\u0cb8\u0ccd\u0caa\u0ca4\u0ccd\u0cb0\u0cc6", "source": "OpenGovernmentData"}}, {"type": "node", "id": 7202876248, "lat": 13.7046619, "lon": 74.7606081, "tags": {"addr:district": "Udupi", "addr:full": "Near Gram Panchayat Office, Vandse", "addr:postcode": "576233", "addr:state": "Karnataka", "addr:subdistrict": "Kundapura", "amenity": "hospital", "contact:phone": "08254-239243", "name": "Government Hospital, Vandse", "name:kn": "\u0cb8\u0cb0\u0ccd\u0c95\u0cbe\u0cb0\u0cbf \u0c86\u0cb8\u0ccd\u0caa\u0ca4\u0ccd\u0cb0\u0cc6 \u0cb5\u0c82\u0ca1\u0ccd\u0cb8\u0cc6", "source": "OpenGovernmentData"}}, {"type": "node", "id": 7680424964, "lat": 13.6569443, "lon": 74.9470648}, {"type": "node", "id": 7680424965, "lat": 13.6567097, "lon": 74.9470112}, {"type": "node", "id": 7680424966, "lat": 13.6566445, "lon": 74.9473867}, {"type": "node", "id": 7680424967, "lat": 13.6568817, "lon": 74.9474323}, {"type": "node", "id": 8972162717, "lat": 13.8467637, "lon": 74.9932807, "tags": {"amenity": "school", "grades": "1-5", "name": "Government Lower Primary School", "name:kn": "\u0cb8\u0cb0\u0ccd\u0c95\u0cbe\u0cb0\u0cbf \u0c95\u0cbf\u0cb0\u0cbf\u0caf \u0caa\u0ccd\u0cb0\u0cbe\u0ca5\u0cae\u0cbf\u0c95 \u0cb6\u0cbe\u0cb2\u0cc6", "operator": "Government of Karnataka", "operator:type": "government"}}, {"type": "node", "id": 9073692196, "lat": 13.8632696, "lon": 74.9902801}, {"type": "node", "id": 9073692197, "lat": 13.863211, "lon": 74.9904104}, {"type": "node", "id": 9073692198, "lat": 13.8629011, "lon": 74.9903149}, {"type": "node", "id": 9073692199, "lat": 13.8629831, "lon": 74.9899877}, {"type": "node", "id": 9073692200, "lat": 13.8629662, "lon": 74.9899783}, {"type": "node", "id": 9073692201, "lat": 13.8629949, "lon": 74.9898965}, {"type": "node", "id": 9073692202, "lat": 13.8629063, "lon": 74.9898764}, {"type": "node", "id": 9073692203, "lat": 13.8629688, "lon": 74.9895907}, {"type": "node", "id": 9073692204, "lat": 13.8633191, "lon": 74.9897289}, {"type": "node", "id": 9073692205, "lat": 13.8632631, "lon": 74.9899233}, {"type": "node", "id": 9073692206, "lat": 13.8631771, "lon": 74.9902358}, {"type": "node", "id": 12122232977, "lat": 13.7481617, "lon": 74.8153071}, {"type": "node", "id": 12122232978, "lat": 13.7485089, "lon": 74.8159541}, {"type": "node", "id": 12122232979, "lat": 13.7481917, "lon": 74.8165703}, {"type": "node", "id": 12122232980, "lat": 13.7474375, "lon": 74.8165703}, {"type": "node", "id": 12122232981, "lat": 13.7474554, "lon": 74.8155597}, {"type": "node", "id": 12145957701, "lat": 13.7467115, "lon": 74.8397255}, {"type": "node", "id": 12145957702, "lat": 13.746718, "lon": 74.8397979}, {"type": "node", "id": 12145957703, "lat": 13.7466777, "lon": 74.8398046}, {"type": "node", "id": 12145957704, "lat": 13.7463051, "lon": 74.8398408}, {"type": "node", "id": 12145957705, "lat": 13.7463207, "lon": 74.8393446}, {"type": "node", "id": 12145957706, "lat": 13.7465357, "lon": 74.8393379}, {"type": "node", "id": 12145957707, "lat": 13.7468652, "lon": 74.8393299}, {"type": "node", "id": 12145957708, "lat": 13.7468939, "lon": 74.8396464}, {"type": "node", "id": 12165123567, "lat": 13.7532145, "lon": 74.8410559, "tags": {"amenity": "school", "name": "PU College"}}, {"type": "node", "id": 12165123585, "lat": 13.7084784, "lon": 74.8312765, "tags": {"amenity": "hospital", "name": "Primary Health Care centre"}}, {"type": "node", "id": 12165123594, "lat": 13.730628, "lon": 74.7701088, "tags": {"amenity": "school", "name": "Government Kannada and English Higher Secondary School"}}, {"type": "node", "id": 12418412552, "lat": 13.7257907, "lon": 74.7658233, "tags": {"amenity": "school", "name": "Government High School, Baindooru Circle", "operator": "Government of Karnataka"}}, {"type": "node", "id": 12418412553, "lat": 13.7018635, "lon": 74.8152718, "tags": {"amenity": "school", "name": "Government School", "operator": "Government of Karnataka"}}, {"type": "node", "id": 12747262851, "lat": 13.732298, "lon": 74.7543974, "tags": {"amenity": "school", "check_date": "2025-04-11", "denomination": "hindu", "grades": "1-6", "name": "Kalli Primary School, Aloor", "operator:type": "government"}}, {"type": "way", "id": 159521153, "nodes": [1716305138, 1716305192, 1716305166, 1716305201, 1716310445, 1716305138], "tags": {"name": "Varahi", "name:kn": "\u0cb5\u0cbe\u0cb0\u0cbe\u0cb9\u0cbf", "operator": "KPCL", "power": "substation", "substation": "generation", "voltage": "220000"}}, {"type": "way", "id": 170869218, "nodes": [1820087293, 1820087210, 1820087267, 1791614229, 1820087259, 1820087293], "tags": {"name": "Hulikal", "name:kn": "\u0cb9\u0cc1\u0cb3\u0cbf\u0c95\u0cb2\u0ccd", "operator": "KPTCL", "power": "substation", "substation": "distribution", "voltage": "110000"}}, {"type": "way", "id": 172289856, "nodes": [1832101522, 1832101542, 1832101519, 1832101511, 1832101522], "tags": {"building": "yes", "name": "Mani Dam Powerhouse", "operator": "Karnataka Power Corporation Limited", "plant:output:electricity": "9 MW", "plant:source": "hydro", "power": "plant", "source": "http://karnatakapower.com/wp-content/uploads/2014/06/kpcl_project_details-2014.xls1.pdf?x86893"}}, {"type": "way", "id": 179261901, "nodes": [1896037077, 1896037100, 1896037098, 1896037075, 1896037077], "tags": {"amenity": "school"}}, {"type": "way", "id": 179261905, "nodes": [1896037079, 1896037091, 1896037066, 1896037083, 1896037079], "tags": {"amenity": "school"}}, {"type": "way", "id": 256638701, "nodes": [2622817067, 2622817093, 2622817109, 2622817086, 2622817067], "tags": {"name": "Sandur", "name:kn": "\u0cb8\u0c82\u0ca6\u0cc2\u0cb0\u0cc1", "operator": "KPTCL", "power": "substation", "substation": "generation", "voltage": "110000"}}, {"type": "way", "id": 256638706, "nodes": [2622817325, 2622817333, 2622817352, 2622817347, 2622817325], "tags": {"name": "Hosangadi", "name:kn": "\u0cb9\u0cca\u0cb8\u0c82\u0c97\u0ca1\u0cbf", "operator": "KPTCL", "power": "substation", "substation": "distribution", "voltage": "110000"}}, {"type": "way", "id": 256638707, "nodes": [2622816939, 2622816937, 2622816932, 2622816933, 2622816939], "tags": {"power": "substation"}}, {"type": "way", "id": 256638738, "nodes": [2622817099, 2622817079, 2622817072, 2622817089, 2622817090, 2622817095, 2622817099], "tags": {"building": "yes", "plant:source": "hydro", "power": "plant"}}, {"type": "way", "id": 256638774, "nodes": [2622817132, 2622817148, 2622817153, 2622817134, 2622817141, 2622817121, 2622817111, 2622817128, 2622817125, 2622817132], "tags": {"power": "substation"}}, {"type": "way", "id": 664252677, "nodes": [6217256680, 6217256679, 6217256678, 6217256677, 6217256676, 6217256675, 6217256674, 6217256673, 6217256672, 6217256680], "tags": {"amenity": "school", "name": "Government Higher Primary School, Mavinakatte", "name:kn": "\u0cb8\u0cb0\u0ccd\u0c95\u0cbe\u0cb0\u0cbf \u0cb9\u0cbf\u0cb0\u0cbf\u0caf \u0caa\u0ccd\u0cb0\u0cbe\u0ca5\u0cae\u0cbf\u0c95 \u0cb6\u0cbe\u0cb2\u0cc6, \u0cae\u0cbe\u0cb5\u0cbf\u0ca8\u0c95\u0c9f\u0ccd\u0c9f\u0cc6"}}, {"type": "way", "id": 822566044, "nodes": [7680424967, 7680424966, 7680424965, 7680424964, 7680424967], "tags": {"building": "yes", "plant:source": "hydro", "power": "plant"}}, {"type": "way", "id": 980907951, "nodes": [9073692196, 9073692197, 9073692198, 9073692199, 9073692200, 9073692201, 9073692202, 9073692203, 9073692204, 9073692205, 9073692206, 9073692196], "tags": {"amenity": "school", "name": "Govt School Mattimane", "operator:type": "government"}}, {"type": "way", "id": 1309036980, "nodes": [12122232977, 12122232978, 12122232979, 12122232980, 12122232981, 12122232977], "tags": {"amenity": "school", "landuse": "education", "name": "High School"}}, {"type": "way", "id": 1312206253, "nodes": [12145957708, 12145957707, 12145957706, 12145957705, 12145957704, 12145957703, 12145957702, 12145957701, 12145957708], "tags": {"amenity": "school", "landuse": "education", "name": "Government Higher Primary School, Keradi"}}]}